"Longitude (x)","Latitude (y)","Station Name","Climate ID","Date/Time","Year","Month","Day","Time","Temp (°C)","Temp Flag","Dew Point Temp (°C)","Dew Point Temp Flag","Rel Hum (%)","Rel Hum Flag","Wind Dir (10s deg)","Wind Dir Flag","Wind Spd (km/h)","Wind Spd Flag","Visibility (km)","Visibility Flag","Stn Press (kPa)","Stn Press Flag","Hmdx","Hmdx Flag","Wind Chill","Wind Chill Flag","Weather"
"-81.15","43.03","LONDON A","6144473","2020-01-01 00:00","2020","01","01","00:00","-2.5","","-6.3","","75","","25","","23","","24.1","","97.10","","","","-9","","Snow Showers"
"-81.15","43.03","LONDON A","6144473","2020-01-01 01:00","2020","01","01","01:00","-2.6","","-5.1","","83","","25","","21","","24.1","","97.09","","","","-9","","Cloudy"
"-81.15","43.03","LONDON A","6144473","2020-01-01 02:00","2020","01","01","02:00","-2.6","","-4.2","","89","","25","","17","","16.1","","97.10","","","","-8","","Snow Showers"
"-81.15","43.03","LONDON A","6144473","2020-01-01 03:00","2020","01","01","03:00","-2.7","","-4.5","","87","","24","","27","","6.4","","97.17","","","","-10","","Snow Showers,Blowing Snow"
"-81.15","43.03","LONDON A","6144473","2020-01-01 04:00","2020","01","01","04:00","-2.9","","-4.9","","86","","25","","22","","8.1","","97.21","","","","-9","","Snow Showers,Blowing Snow"
"-81.15","43.03","LONDON A","6144473","2020-01-01 05:00","2020","01","01","05:00","-2.9","","-5.5","","82","","25","","16","","19.3","","97.22","","","","-8","","Snow Showers"
"-81.15","43.03","LONDON A","6144473","2020-01-01 06:00","2020","01","01","06:00","-3.0","","-5.2","","85","","26","","18","","19.3","","97.24","","","","-9","","Freezing Drizzle,Snow Grains"
"-81.15","43.03","LONDON A","6144473","2020-01-01 07:00","2020","01","01","07:00","-3.1","","-5.0","","87","","26","","17","","19.3","","97.30","","","","-9","","Freezing Drizzle,Snow Grains"
"-81.15","43.03","LONDON A","6144473","2020-01-01 08:00","2020","01","01","08:00","-3.0","","-5.5","","83","","25","","19","","19.3","","97.33","","","","-9","","Freezing Drizzle,Snow"
"-81.15","43.03","LONDON A","6144473","2020-01-01 09:00","2020","01","01","09:00","-2.9","","-6.7","","75","","26","","25","","19.3","","97.40","","","","-10","","Snow"
"-81.15","43.03","LONDON A","6144473","2020-01-01 10:00","2020","01","01","10:00","-2.8","","-7.5","","70","","26","","18","","24.1","","97.49","","","","-8","","Snow"
"-81.15","43.03","LONDON A","6144473","2020-01-01 11:00","2020","01","01","11:00","-2.6","","-7.8","","67","","26","","23","","24.1","","97.54","","","","-9","","NA"
"-81.15","43.03","LONDON A","6144473","2020-01-01 12:00","2020","01","01","12:00","-2.7","","-7.7","","69","","26","","21","","24.1","","97.49","","","","-9","","NA"
"-81.15","43.03","LONDON A","6144473","2020-01-01 13:00","2020","01","01","13:00","-2.1","","-7.8","","65","","24","","27","","19.3","","97.44","","","","-9","","Mainly Clear"
"-81.15","43.03","LONDON A","6144473","2020-01-01 14:00","2020","01","01","14:00","-1.6","","-7.3","","65","","23","","21","","24.1","","97.40","","","","-7","","NA"
"-81.15","43.03","LONDON A","6144473","2020-01-01 15:00","2020","01","01","15:00","-1.3","","-7.0","","66","","24","","18","","24.1","","97.42","","","","-7","","NA"
"-81.15","43.03","LONDON A","6144473","2020-01-01 16:00","2020","01","01","16:00","-1.6","","-6.0","","72","","23","","25","","24.1","","97.47","","","","-8","","Mainly Clear"
"-81.15","43.03","LONDON A","6144473","2020-01-01 17:00","2020","01","01","17:00","-2.9","","-6.7","","75","","22","","14","","24.1","","97.51","","","","-8","","NA"
"-81.15","43.03","LONDON A","6144473","2020-01-01 18:00","2020","01","01","18:00","-3.1","","-6.0","","80","","20","","14","","24.1","","97.48","","","","-8","","NA"
"-81.15","43.03","LONDON A","6144473","2020-01-01 19:00","2020","01","01","19:00","-2.7","","-5.1","","84","","22","","16","","24.1","","97.47","","","","-8","","Clear"
"-81.15","43.03","LONDON A","6144473","2020-01-01 20:00","2020","01","01","20:00","-1.9","","-3.8","","87","","20","","21","","24.1","","97.43","","","","-8","","NA"
"-81.15","43.03","LONDON A","6144473","2020-01-01 21:00","2020","01","01","21:00","-1.6","","-3.2","","88","","21","","16","","24.1","","97.43","","","","-7","","NA"
"-81.15","43.03","LONDON A","6144473","2020-01-01 22:00","2020","01","01","22:00","0.0","","-1.8","","88","","19","","20","","24.1","","97.41","","","","-5","","Mainly Clear"
"-81.15","43.03","LONDON A","6144473","2020-01-01 23:00","2020","01","01","23:00","1.4","","-1.0","","84","","20","","21","","24.1","","97.36","","","","","","NA"
"-81.15","43.03","LONDON A","6144473","2020-01-02 00:00","2020","01","02","00:00","2.0","","-0.6","","82","","20","","24","","24.1","","97.32","","","","","","NA"
"-81.15","43.03","LONDON A","6144473","2020-01-02 01:00","2020","01","02","01:00","2.6","","-1.2","","76","","21","","30","","24.1","","97.27","","","","","","Cloudy"
"-81.15","43.03","LONDON A","6144473","2020-01-02 02:00","2020","01","02","02:00","2.9","","-1.9","","71","","22","","22","","24.1","","97.26","","","","","","NA"
"-81.15","43.03","LONDON A","6144473","2020-01-02 03:00","2020","01","02","03:00","3.0","","-2.3","","68","","22","","25","","24.1","","97.28","","","","","","NA"
"-81.15","43.03","LONDON A","6144473","2020-01-02 04:00","2020","01","02","04:00","3.0","","-2.5","","67","","21","","24","","24.1","","97.26","","","","","","Cloudy"
"-81.15","43.03","LONDON A","6144473","2020-01-02 05:00","2020","01","02","05:00","2.9","","-2.5","","68","","21","","25","","24.1","","97.21","","","","","","NA"
"-81.15","43.03","LONDON A","6144473","2020-01-02 06:00","2020","01","02","06:00","2.7","","-2.8","","67","","21","","23","","24.1","","97.20","","","","","","NA"
"-81.15","43.03","LONDON A","6144473","2020-01-02 07:00","2020","01","02","07:00","1.8","","-2.3","","74","","20","","18","","24.1","","97.19","","","","","","Mainly Clear"
"-81.15","43.03","LONDON A","6144473","2020-01-02 08:00","2020","01","02","08:00","1.7","","-2.6","","73","","20","","22","","24.1","","97.16","","","","","","NA"
"-81.15","43.03","LONDON A","6144473","2020-01-02 09:00","2020","01","02","09:00","2.5","","-2.3","","70","","20","","18","","24.1","","97.18","","","","","","NA"
"-81.15","43.03","LONDON A","6144473","2020-01-02 10:00","2020","01","02","10:00","3.6","","-2.5","","65","","20","","25","","24.1","","97.22","","","","","","Mostly Cloudy"
"-81.15","43.03","LONDON A","6144473","2020-01-02 11:00","2020","01","02","11:00","4.0","","-2.0","","65","","21","","25","","24.1","","97.20","","","","","","NA"
"-81.15","43.03","LONDON A","6144473","2020-01-02 12:00","2020","01","02","12:00","4.2","","-1.6","","66","","21","","25","","24.1","","97.14","","","","","","NA"
"-81.15","43.03","LONDON A","6144473","2020-01-02 13:00","2020","01","02","13:00","4.5","","-1.4","","66","","21","","20","","24.1","","97.07","","","","","","Mostly Cloudy"
"-81.15","43.03","LONDON A","6144473","2020-01-02 14:00","2020","01","02","14:00","5.2","","-0.8","","65","","21","","30","","24.1","","97.02","","","","","","NA"
"-81.15","43.03","LONDON A","6144473","2020-01-02 15:00","2020","01","02","15:00","5.2","","0.0","","69","","20","","26","","24.1","","96.97","","","","","","NA"
"-81.15","43.03","LONDON A","6144473","2020-01-02 16:00","2020","01","02","16:00","4.3","","0.4","","76","","20","","27","","24.1","","97.04","","","","","","Mostly Cloudy"
"-81.15","43.03","LONDON A","6144473","2020-01-02 17:00","2020","01","02","17:00","4.4","","1.0","","79","","20","","26","","24.1","","97.07","","","","","","NA"
"-81.15","43.03","LONDON A","6144473","2020-01-02 18:00","2020","01","02","18:00","4.6","","1.4","","80","","21","","26","","24.1","","97.16","","","","","","NA"
"-81.15","43.03","LONDON A","6144473","2020-01-02 19:00","2020","01","02","19:00","5.1","","1.8","","79","","22","","22","","24.1","","97.18","","","","","","Cloudy"
"-81.15","43.03","LONDON A","6144473","2020-01-02 20:00","2020","01","02","20:00","5.2","","2.1","","80","","21","","18","","24.1","","97.19","","","","","","NA"
"-81.15","43.03","LONDON A","6144473","2020-01-02 21:00","2020","01","02","21:00","4.8","","2.2","","83","","21","","15","","24.1","","97.18","","","","","","NA"
"-81.15","43.03","LONDON A","6144473","2020-01-02 22:00","2020","01","02","22:00","4.2","","2.1","","86","","20","","10","","24.1","","97.16","","","","","","Cloudy"
"-81.15","43.03","LONDON A","6144473","2020-01-02 23:00","2020","01","02","23:00","4.1","","2.2","","87","","21","","12","","24.1","","97.22","","","","","","NA"
"-81.15","43.03","LONDON A","6144473","2020-01-03 00:00","2020","01","03","00:00","4.8","","2.6","","86","","21","","13","","24.1","","97.20","","","","","","NA"
"-81.15","43.03","LONDON A","6144473","2020-01-03 01:00","2020","01","03","01:00","5.3","","3.0","","85","","21","","16","","24.1","","97.25","","","","","","Cloudy"
"-81.15","43.03","LONDON A","6144473","2020-01-03 02:00","2020","01","03","02:00","5.7","","3.2","","84","","23","","15","","24.1","","97.29","","","","","","NA"
"-81.15","43.03","LONDON A","6144473","2020-01-03 03:00","2020","01","03","03:00","5.5","","3.3","","86","","24","","15","","24.1","","97.28","","","","","","NA"
"-81.15","43.03","LONDON A","6144473","2020-01-03 04:00","2020","01","03","04:00","5.3","","3.5","","88","","20","","16","","24.1","","97.19","","","","","","Cloudy"
"-81.15","43.03","LONDON A","6144473","2020-01-03 05:00","2020","01","03","05:00","5.4","","3.7","","89","","23","","12","","24.1","","97.23","","","","","","NA"
"-81.15","43.03","LONDON A","6144473","2020-01-03 06:00","2020","01","03","06:00","5.3","","3.8","","90","","25","","12","","24.1","","97.24","","","","","","NA"
"-81.15","43.03","LONDON A","6144473","2020-01-03 07:00","2020","01","03","07:00","5.3","","3.9","","90","","25","","10","","24.1","","97.32","","","","","","Cloudy"
"-81.15","43.03","LONDON A","6144473","2020-01-03 08:00","2020","01","03","08:00","5.2","","3.8","","91","","26","","9","","24.1","","97.34","","","","","","NA"
"-81.15","43.03","LONDON A","6144473","2020-01-03 09:00","2020","01","03","09:00","5.2","","3.8","","91","","26","","9","","24.1","","97.43","","","","","","NA"
"-81.15","43.03","LONDON A","6144473","2020-01-03 10:00","2020","01","03","10:00","5.4","","3.7","","89","","26","","10","","11.3","","97.51","","","","","","Cloudy"
"-81.15","43.03","LONDON A","6144473","2020-01-03 11:00","2020","01","03","11:00","5.3","","3.7","","90","","30","","10","","11.3","","97.48","","","","","","NA"
"-81.15","43.03","LONDON A","6144473","2020-01-03 12:00","2020","01","03","12:00","5.8","","3.7","","87","","27","","10","","11.3","","97.42","","","","","","NA"
"-81.15","43.03","LONDON A","6144473","2020-01-03 13:00","2020","01","03","13:00","5.5","","3.6","","87","","31","","9","","11.3","","97.43","","","","","","Cloudy"
"-81.15","43.03","LONDON A","6144473","2020-01-03 14:00","2020","01","03","14:00","5.1","","3.2","","88","","29","","9","","11.3","","97.46","","","","","","NA"
"-81.15","43.03","LONDON A","6144473","2020-01-03 15:00","2020","01","03","15:00","4.6","","2.5","","86","","31","","9","","24.1","","97.46","","","","","","NA"
"-81.15","43.03","LONDON A","6144473","2020-01-03 16:00","2020","01","03","16:00","4.0","","1.7","","85","","33","","12","","24.1","","97.49","","","","","","Cloudy"
"-81.15","43.03","LONDON A","6144473","2020-01-03 17:00","2020","01","03","17:00","3.5","","1.4","","86","","33","","12","","24.1","","97.56","","","","","","NA"
"-81.15","43.03","LONDON A","6144473","2020-01-03 18:00","2020","01","03","18:00","3.1","","1.1","","87","","35","","9","","24.1","","97.59","","","","","","NA"
"-81.15","43.03","LONDON A","6144473","2020-01-03 19:00","2020","01","03","19:00","3.2","","0.6","","83","","18","","3","","24.1","","97.67","","","","","","Cloudy"
"-81.15","43.03","LONDON A","6144473","2020-01-03 20:00","2020","01","03","20:00","2.9","","0.9","","86","","35","","9","","24.1","","97.64","","","","","","NA"
"-81.15","43.03","LONDON A","6144473","2020-01-03 21:00","2020","01","03","21:00","2.8","","0.1","","83","","35","","11","","24.1","","97.62","","","","","","NA"
"-81.15","43.03","LONDON A","6144473","2020-01-03 22:00","2020","01","03","22:00","2.7","","0.0","","82","","36","","12","","24.1","","97.60","","","","","","Cloudy"
"-81.15","43.03","LONDON A","6144473","2020-01-03 23:00","2020","01","03","23:00","2.6","","-0.2","","81","","35","","10","","24.1","","97.60","","","","","","NA"
"-81.15","43.03","LONDON A","6144473","2020-01-04 00:00","2020","01","04","00:00","2.6","","-0.2","","82","","3","","9","","24.1","","97.54","","","","","","NA"
"-81.15","43.03","LONDON A","6144473","2020-01-04 01:00","2020","01","04","01:00","2.3","","-0.1","","84","","2","","7","","24.1","","97.49","","","","","","Cloudy"
"-81.15","43.03","LONDON A","6144473","2020-01-04 02:00","2020","01","04","02:00","1.7","","-0.4","","86","","2","","8","","19.3","","97.51","","","","","","NA"
"-81.15","43.03","LONDON A","6144473","2020-01-04 03:00","2020","01","04","03:00","0.8","","-0.3","","92","","5","","5","","9.7","","97.53","","","","","","Rain,Snow,Fog"
"-81.15","43.03","LONDON A","6144473","2020-01-04 04:00","2020","01","04","04:00","0.2","","-0.2","","97","","36","","2","","2.4","","97.51","","","","","","Snow"
"-81.15","43.03","LONDON A","6144473","2020-01-04 05:00","2020","01","04","05:00","0.2","","-0.1","","98","","34","","8","","9.7","","97.51","","","","","","Snow"
"-81.15","43.03","LONDON A","6144473","2020-01-04 06:00","2020","01","04","06:00","0.3","","0.0","","98","","2","","6","","9.7","","97.48","","","","","","Snow"
"-81.15","43.03","LONDON A","6144473","2020-01-04 07:00","2020","01","04","07:00","0.4","","-0.3","","95","","35","","6","","12.9","","97.54","","","","","","Cloudy"
"-81.15","43.03","LONDON A","6144473","2020-01-04 08:00","2020","01","04","08:00","0.3","","-0.3","","96","","32","","7","","16.1","","97.54","","","","","","NA"
"-81.15","43.03","LONDON A","6144473","2020-01-04 09:00","2020","01","04","09:00","0.5","","-0.6","","92","","29","","4","","24.1","","97.59","","","","","","NA"
"-81.15","43.03","LONDON A","6144473","2020-01-04 10:00","2020","01","04","10:00","0.7","","-0.8","","89","","33","","8","","24.1","","97.61","","","","","","Cloudy"
"-81.15","43.03","LONDON A","6144473","2020-01-04 11:00","2020","01","04","11:00","1.2","","-1.1","","84","","33","","4","","24.1","","97.59","","","","","","NA"
"-81.15","43.03","LONDON A","6144473","2020-01-04 12:00","2020","01","04","12:00","1.6","","-1.4","","81","","32","","12","","24.1","","97.55","","","","","","NA"
"-81.15","43.03","LONDON A","6144473","2020-01-04 13:00","2020","01","04","13:00","1.2","","-1.6","","82","","33","","10","","24.1","","97.47","","","","","","Cloudy"
"-81.15","43.03","LONDON A","6144473","2020-01-04 14:00","2020","01","04","14:00","0.7","","-1.0","","89","","32","","15","","16.1","","97.45","","","","","","NA"
"-81.15","43.03","LONDON A","6144473","2020-01-04 15:00","2020","01","04","15:00","0.1","","-2.3","","84","","32","","21","","19.3","","97.51","","","","","","NA"
"-81.15","43.03","LONDON A","6144473","2020-01-04 16:00","2020","01","04","16:00","-0.5","","-2.6","","86","","31","","13","","19.3","","97.55","","","","-5","","Cloudy"
"-81.15","43.03","LONDON A","6144473","2020-01-04 17:00","2020","01","04","17:00","-0.5","","-5.1","","71","","30","","19","","19.3","","97.66","","","","-6","","NA"
"-81.15","43.03","LONDON A","6144473","2020-01-04 18:00","2020","01","04","18:00","-1.0","","-4.6","","76","","30","","20","","24.1","","97.73","","","","-7","","NA"
"-81.15","43.03","LONDON A","6144473","2020-01-04 19:00","2020","01","04","19:00","-1.7","","-3.0","","91","","30","","15","","12.9","","97.79","","","","-7","","Snow Showers"
"-81.15","43.03","LONDON A","6144473","2020-01-04 20:00","2020","01","04","20:00","-1.8","","-3.6","","87","","29","","20","","16.1","","97.83","","","","-8","","Snow Showers"
"-81.15","43.03","LONDON A","6144473","2020-01-04 21:00","2020","01","04","21:00","-1.8","","-3.6","","88","","29","","19","","16.1","","97.84","","","","-7","","Snow Showers"
"-81.15","43.03","LONDON A","6144473","2020-01-04 22:00","2020","01","04","22:00","-1.9","","-3.4","","90","","29","","15","","19.3","","97.88","","","","-7","","Snow Showers"
"-81.15","43.03","LONDON A","6144473","2020-01-04 23:00","2020","01","04","23:00","-1.6","","-3.1","","90","","29","","20","","4.8","","97.92","","","","-7","","Snow Showers"
"-81.15","43.03","LONDON A","6144473","2020-01-05 00:00","2020","01","05","00:00","-1.7","","-3.0","","91","","29","","19","","16.1","","97.93","","","","-7","","Snow Showers"
"-81.15","43.03","LONDON A","6144473","2020-01-05 01:00","2020","01","05","01:00","-1.6","","-3.2","","89","","28","","17","","24.1","","97.94","","","","-7","","Snow Showers"
"-81.15","43.03","LONDON A","6144473","2020-01-05 02:00","2020","01","05","02:00","-1.5","","-3.0","","89","","28","","20","","19.3","","98.03","","","","-7","","Snow Showers"
"-81.15","43.03","LONDON A","6144473","2020-01-05 03:00","2020","01","05","03:00","-1.5","","-3.6","","85","","29","","25","","24.1","","98.11","","","","-8","","Snow Showers"
"-81.15","43.03","LONDON A","6144473","2020-01-05 04:00","2020","01","05","04:00","-1.5","","-3.9","","84","","28","","21","","24.1","","98.17","","","","-7","","Snow Showers"
"-81.15","43.03","LONDON A","6144473","2020-01-05 05:00","2020","01","05","05:00","-1.7","","-3.6","","87","","27","","14","","24.1","","98.21","","","","-6","","Snow Showers"
"-81.15","43.03","LONDON A","6144473","2020-01-05 06:00","2020","01","05","06:00","-1.7","","-3.7","","86","","27","","19","","24.1","","98.26","","","","-7","","Freezing Drizzle,Snow Showers"
"-81.15","43.03","LONDON A","6144473","2020-01-05 07:00","2020","01","05","07:00","-1.6","","-3.3","","88","","27","","16","","24.1","","98.34","","","","-7","","Freezing Drizzle,Snow Showers"
"-81.15","43.03","LONDON A","6144473","2020-01-05 08:00","2020","01","05","08:00","-1.4","","-4.0","","83","","27","","20","","24.1","","98.41","","","","-7","","Snow Showers"
"-81.15","43.03","LONDON A","6144473","2020-01-05 09:00","2020","01","05","09:00","-1.5","","-4.3","","81","","27","","17","","24.1","","98.46","","","","-7","","Snow"
"-81.15","43.03","LONDON A","6144473","2020-01-05 10:00","2020","01","05","10:00","-1.3","","-4.2","","81","","24","","20","","24.1","","98.49","","","","-7","","Snow"
"-81.15","43.03","LONDON A","6144473","2020-01-05 11:00","2020","01","05","11:00","-1.1","","-4.5","","78","","25","","13","","24.1","","98.45","","","","-5","","NA"
"-81.15","43.03","LONDON A","6144473","2020-01-05 12:00","2020","01","05","12:00","-0.7","","-4.7","","75","","24","","20","","24.1","","98.38","","","","-6","","NA"
"-81.15","43.03","LONDON A","6144473","2020-01-05 13:00","2020","01","05","13:00","0.1","","-5.1","","68","","24","","24","","24.1","","98.25","","","","","","Mostly Cloudy"
"-81.15","43.03","LONDON A","6144473","2020-01-05 14:00","2020","01","05","14:00","0.2","","-5.2","","67","","23","","16","","24.1","","98.12","","","","","","NA"
"-81.15","43.03","LONDON A","6144473","2020-01-05 15:00","2020","01","05","15:00","-0.2","","-5.1","","69","","21","","19","","24.1","","97.99","","","","-5","","NA"
"-81.15","43.03","LONDON A","6144473","2020-01-05 16:00","2020","01","05","16:00","-0.6","","-5.0","","72","","20","","27","","24.1","","97.95","","","","-7","","Cloudy"
"-81.15","43.03","LONDON A","6144473","2020-01-05 17:00","2020","01","05","17:00","-1.9","","-2.9","","93","","19","","21","","1.2","","97.87","","","","-8","","Snow Showers"
"-81.15","43.03","LONDON A","6144473","2020-01-05 18:00","2020","01","05","18:00","-1.5","","-2.5","","93","","20","","21","","4.8","","97.87","","","","-7","","Snow Showers"
"-81.15","43.03","LONDON A","6144473","2020-01-05 19:00","2020","01","05","19:00","-1.5","","-2.1","","96","","20","","18","","1.6","","97.82","","","","-7","","Snow Showers"
"-81.15","43.03","LONDON A","6144473","2020-01-05 20:00","2020","01","05","20:00","-1.2","","-1.7","","97","","17","","16","","1.6","","97.69","","","","-6","","Snow Showers"
"-81.15","43.03","LONDON A","6144473","2020-01-05 21:00","2020","01","05","21:00","-0.8","","-1.2","","97","","17","","17","","2.4","","97.57","","","","-6","","Snow Showers"
"-81.15","43.03","LONDON A","6144473","2020-01-05 22:00","2020","01","05","22:00","-0.5","","-1.0","","96","","19","","17","","2.4","","97.46","","","","-5","","Snow Showers"
"-81.15","43.03","LONDON A","6144473","2020-01-05 23:00","2020","01","05","23:00","0.3","","-0.4","","95","","21","","16","","6.4","","97.38","","","","","","Snow Showers"
"-81.15","43.03","LONDON A","6144473","2020-01-06 00:00","2020","01","06","00:00","0.4","","-0.2","","95","","25","","19","","16.1","","97.37","","","","","","Snow Showers"
"-81.15","43.03","LONDON A","6144473","2020-01-06 01:00","2020","01","06","01:00","0.5","","-0.3","","95","","26","","19","","19.3","","97.38","","","","","","Snow Showers"
"-81.15","43.03","LONDON A","6144473","2020-01-06 02:00","2020","01","06","02:00","0.8","","-0.5","","91","","27","","27","","24.1","","97.45","","","","","","NA"
"-81.15","43.03","LONDON A","6144473","2020-01-06 03:00","2020","01","06","03:00","0.8","","-1.8","","83","","28","","20","","24.1","","97.56","","","","","","NA"
"-81.15","43.03","LONDON A","6144473","2020-01-06 04:00","2020","01","06","04:00","0.8","","-1.9","","82","","27","","24","","24.1","","97.66","","","","","","Cloudy"
"-81.15","43.03","LONDON A","6144473","2020-01-06 05:00","2020","01","06","05:00","0.4","","-2.1","","83","","27","","27","","24.1","","97.72","","","","","","Snow Showers"
"-81.15","43.03","LONDON A","6144473","2020-01-06 06:00","2020","01","06","06:00","0.4","","-3.6","","74","","27","","26","","24.1","","97.77","","","","","","Snow Showers"
"-81.15","43.03","LONDON A","6144473","2020-01-06 07:00","2020","01","06","07:00","0.1","","-5.1","","68","","27","","27","","24.1","","97.83","","","","","","Mostly Cloudy"
"-81.15","43.03","LONDON A","6144473","2020-01-06 08:00","2020","01","06","08:00","-0.2","","-6.4","","63","","27","","25","","24.1","","97.94","","","","-6","","NA"
"-81.15","43.03","LONDON A","6144473","2020-01-06 09:00","2020","01","06","09:00","-0.4","","-6.7","","63","","28","","21","","24.1","","98.07","","","","-6","","NA"
"-81.15","43.03","LONDON A","6144473","2020-01-06 10:00","2020","01","06","10:00","-0.2","","-6.0","","65","","26","","32","","24.1","","98.12","","","","-7","","Mostly Cloudy"
"-81.15","43.03","LONDON A","6144473","2020-01-06 11:00","2020","01","06","11:00","-0.2","","-6.1","","65","","27","","31","","24.1","","98.16","","","","-7","","NA"
"-81.15","43.03","LONDON A","6144473","2020-01-06 12:00","2020","01","06","12:00","0.0","","-5.6","","66","","24","","26","","24.1","","98.10","","","","-6","","NA"
"-81.15","43.03","LONDON A","6144473","2020-01-06 13:00","2020","01","06","13:00","0.5","","-6.0","","62","","24","","30","","24.1","","98.01","","","","","","Mainly Clear"
"-81.15","43.03","LONDON A","6144473","2020-01-06 14:00","2020","01","06","14:00","1.3","","-5.7","","60","","24","","36","","24.1","","97.92","","","","","","NA"
"-81.15","43.03","LONDON A","6144473","2020-01-06 15:00","2020","01","06","15:00","1.8","","-4.1","","65","","23","","32","","24.1","","97.92","","","","","","NA"
"-81.15","43.03","LONDON A","6144473","2020-01-06 16:00","2020","01","06","16:00","2.6","","-4.6","","59","","24","","29","","24.1","","97.92","","","","","","Mainly Clear"
"-81.15","43.03","LONDON A","6144473","2020-01-06 17:00","2020","01","06","17:00","2.3","","-6.4","","53","","26","","19","","24.1","","97.99","","","","","","NA"
"-81.15","43.03","LONDON A","6144473","2020-01-06 18:00","2020","01","06","18:00","1.2","","-7.3","","53","","27","","14","","24.1","","98.08","","","","","","NA"
"-81.15","43.03","LONDON A","6144473","2020-01-06 19:00","2020","01","06","19:00","0.4","","-7.3","","57","","27","","14","","24.1","","98.15","","","","","","Mainly Clear"
"-81.15","43.03","LONDON A","6144473","2020-01-06 20:00","2020","01","06","20:00","-0.6","","-7.0","","62","","26","","13","","24.1","","98.21","","","","-5","","NA"
"-81.15","43.03","LONDON A","6144473","2020-01-06 21:00","2020","01","06","21:00","-0.7","","-7.4","","61","","25","","15","","24.1","","98.24","","","","-5","","NA"
"-81.15","43.03","LONDON A","6144473","2020-01-06 22:00","2020","01","06","22:00","-1.2","","-7.2","","64","","25","","13","","24.1","","98.27","","","","-5","","Clear"
"-81.15","43.03","LONDON A","6144473","2020-01-06 23:00","2020","01","06","23:00","-1.8","","-7.0","","67","","26","","14","","24.1","","98.27","","","","-6","","NA"
"-81.15","43.03","LONDON A","6144473","2020-01-07 00:00","2020","01","07","00:00","-2.3","","-6.6","","72","","26","","14","","24.1","","98.26","","","","-7","","NA"
"-81.15","43.03","LONDON A","6144473","2020-01-07 01:00","2020","01","07","01:00","-2.6","","-6.3","","76","","26","","11","","24.1","","98.26","","","","-7","","Clear"
"-81.15","43.03","LONDON A","6144473","2020-01-07 02:00","2020","01","07","02:00","-3.4","","-6.4","","79","","24","","9","","24.1","","98.26","","","","-7","","NA"
"-81.15","43.03","LONDON A","6144473","2020-01-07 03:00","2020","01","07","03:00","-4.8","","-7.3","","82","","22","","13","","24.1","","98.27","","","","-10","","NA"
"-81.15","43.03","LONDON A","6144473","2020-01-07 04:00","2020","01","07","04:00","-3.9","","-6.7","","81","","23","","12","","24.1","","98.24","","","","-9","","Mostly Cloudy"
"-81.15","43.03","LONDON A","6144473","2020-01-07 05:00","2020","01","07","05:00","-4.5","","-7.1","","82","","19","","5","","24.1","","98.18","","","","-7","","NA"
"-81.15","43.03","LONDON A","6144473","2020-01-07 06:00","2020","01","07","06:00","-4.8","","-6.7","","87","","13","","6","","24.1","","98.09","","","","-8","","NA"
"-81.15","43.03","LONDON A","6144473","2020-01-07 07:00","2020","01","07","07:00","-4.4","","-6.0","","88","","13","","7","","24.1","","98.05","","","","-8","","Cloudy"
"-81.15","43.03","LONDON A","6144473","2020-01-07 08:00","2020","01","07","08:00","-3.6","","-5.2","","89","","19","","7","","19.3","","98.02","","","","-7","","NA"
"-81.15","43.03","LONDON A","6144473","2020-01-07 09:00","2020","01","07","09:00","-2.1","","-4.9","","81","","19","","9","","19.3","","98.06","","","","-6","","NA"
"-81.15","43.03","LONDON A","6144473","2020-01-07 10:00","2020","01","07","10:00","-0.7","","-4.9","","73","","20","","14","","24.1","","98.04","","","","-5","","Mostly Cloudy"
"-81.15","43.03","LONDON A","6144473","2020-01-07 11:00","2020","01","07","11:00","0.2","","-3.4","","77","","21","","15","","24.1","","98.02","","","","","","NA"
"-81.15","43.03","LONDON A","6144473","2020-01-07 12:00","2020","01","07","12:00","1.7","","-3.0","","71","","20","","17","","24.1","","97.92","","","","","","NA"
"-81.15","43.03","LONDON A","6144473","2020-01-07 13:00","2020","01","07","13:00","2.7","","-4.4","","60","","21","","20","","24.1","","97.82","","","","","","Mostly Cloudy"
"-81.15","43.03","LONDON A","6144473","2020-01-07 14:00","2020","01","07","14:00","3.0","","-3.5","","62","","22","","13","","24.1","","97.76","","","","","","NA"
"-81.15","43.03","LONDON A","6144473","2020-01-07 15:00","2020","01","07","15:00","3.0","","-3.8","","61","","22","","15","","24.1","","97.72","","","","","","NA"
"-81.15","43.03","LONDON A","6144473","2020-01-07 16:00","2020","01","07","16:00","2.0","","-2.2","","74","","17","","17","","24.1","","97.72","","","","","","Cloudy"
"-81.15","43.03","LONDON A","6144473","2020-01-07 17:00","2020","01","07","17:00","1.2","","-1.7","","81","","18","","17","","24.1","","97.69","","","","","","NA"
"-81.15","43.03","LONDON A","6144473","2020-01-07 18:00","2020","01","07","18:00","1.0","","-1.9","","81","","21","","14","","24.1","","97.71","","","","","","NA"
"-81.15","43.03","LONDON A","6144473","2020-01-07 19:00","2020","01","07","19:00","1.3","","-3.9","","68","","27","","27","","24.1","","97.77","","","","","","Cloudy"
"-81.15","43.03","LONDON A","6144473","2020-01-07 20:00","2020","01","07","20:00","-0.6","","-3.2","","83","","26","","9","","24.1","","97.74","","","","-4","","NA"
"-81.15","43.03","LONDON A","6144473","2020-01-07 21:00","2020","01","07","21:00","-0.3","","-3.4","","80","","26","","17","","24.1","","97.74","","","","-5","","NA"
"-81.15","43.03","LONDON A","6144473","2020-01-07 22:00","2020","01","07","22:00","-0.8","","-3.3","","83","","26","","19","","24.1","","97.74","","","","-6","","Mainly Clear"
"-81.15","43.03","LONDON A","6144473","2020-01-07 23:00","2020","01","07","23:00","-1.0","","-3.4","","84","","25","","16","","24.1","","97.71","","","","-6","","NA"
"-81.15","43.03","LONDON A","6144473","2020-01-08 00:00","2020","01","08","00:00","-0.6","","-3.3","","82","","24","","21","","16.1","","97.65","","","","-6","","Snow Showers"
"-81.15","43.03","LONDON A","6144473","2020-01-08 01:00","2020","01","08","01:00","-1.2","","-2.1","","94","","23","","21","","0.6","","97.57","","","","-7","","Moderate Snow Showers"
"-81.15","43.03","LONDON A","6144473","2020-01-08 02:00","2020","01","08","02:00","-1.8","","-3.6","","88","","28","","22","","12.9","","97.63","","","","-8","","Snow Showers"
"-81.15","43.03","LONDON A","6144473","2020-01-08 03:00","2020","01","08","03:00","-2.4","","-4.4","","86","","26","","19","","19.3","","97.66","","","","-8","","NA"
"-81.15","43.03","LONDON A","6144473","2020-01-08 04:00","2020","01","08","04:00","-2.7","","-5.7","","80","","28","","19","","24.1","","97.72","","","","-8","","Snow Showers"
"-81.15","43.03","LONDON A","6144473","2020-01-08 05:00","2020","01","08","05:00","-3.2","","-8.4","","68","","28","","12","","24.1","","97.76","","","","-8","","NA"
"-81.15","43.03","LONDON A","6144473","2020-01-08 06:00","2020","01","08","06:00","-3.8","","-7.9","","73","","30","","14","","19.3","","97.88","","","","-9","","Snow Showers"
"-81.15","43.03","LONDON A","6144473","2020-01-08 07:00","2020","01","08","07:00","-5.0","","-7.6","","82","","28","","12","","24.1","","98.03","","","","-10","","Mostly Cloudy"
"-81.15","43.03","LONDON A","6144473","2020-01-08 08:00","2020","01","08","08:00","-5.6","","-11.9","","62","","30","","20","","24.1","","98.18","","","","-12","","NA"
"-81.15","43.03","LONDON A","6144473","2020-01-08 09:00","2020","01","08","09:00","-5.0","","-11.7","","60","","28","","29","","16.1","","98.35","","","","-13","","Snow Showers,Blowing Snow"
"-81.15","43.03","LONDON A","6144473","2020-01-08 10:00","2020","01","08","10:00","-6.3","","-8.2","","86","","31","","21","","2.0","","98.53","","","","-13","","Snow Showers,Blowing Snow"
"-81.15","43.03","LONDON A","6144473","2020-01-08 11:00","2020","01","08","11:00","-5.3","","-11.1","","64","","29","","25","","16.1","","98.66","","","","-13","","Snow Showers,Blowing Snow"
"-81.15","43.03","LONDON A","6144473","2020-01-08 12:00","2020","01","08","12:00","-5.1","","-12.2","","58","","29","","32","","16.1","","98.72","","","","-13","","Snow Showers,Blowing Snow"
"-81.15","43.03","LONDON A","6144473","2020-01-08 13:00","2020","01","08","13:00","-5.8","","-11.2","","66","","31","","28","","16.1","","98.84","","","","-14","","Snow Showers,Blowing Snow"
"-81.15","43.03","LONDON A","6144473","2020-01-08 14:00","2020","01","08","14:00","-6.0","","-11.6","","65","","29","","20","","16.1","","98.97","","","","-13","","Snow Showers,Blowing Snow"
"-81.15","43.03","LONDON A","6144473","2020-01-08 15:00","2020","01","08","15:00","-6.5","","-12.6","","62","","29","","31","","24.1","","99.14","","","","-15","","Snow Showers,Blowing Snow"
"-81.15","43.03","LONDON A","6144473","2020-01-08 16:00","2020","01","08","16:00","-6.8","","-12.8","","63","","29","","26","","24.1","","99.30","","","","-15","","Blowing Snow"
"-81.15","43.03","LONDON A","6144473","2020-01-08 17:00","2020","01","08","17:00","-7.1","","-12.0","","68","","29","","17","","19.3","","99.45","","","","-14","","Snow Showers,Blowing Snow"
"-81.15","43.03","LONDON A","6144473","2020-01-08 18:00","2020","01","08","18:00","-7.4","","-10.6","","78","","31","","10","","16.1","","99.55","","","","-12","","Snow Showers"
"-81.15","43.03","LONDON A","6144473","2020-01-08 19:00","2020","01","08","19:00","-7.4","","-9.3","","86","","34","","9","","2.4","","99.66","","","","-12","","Snow Showers"
"-81.15","43.03","LONDON A","6144473","2020-01-08 20:00","2020","01","08","20:00","-7.6","","-10.3","","81","","28","","7","","24.1","","99.75","","","","-11","","Snow Showers"
"-81.15","43.03","LONDON A","6144473","2020-01-08 21:00","2020","01","08","21:00","-7.5","","-10.6","","79","","27","","6","","24.1","","99.82","","","","-11","","NA"
"-81.15","43.03","LONDON A","6144473","2020-01-08 22:00","2020","01","08","22:00","-7.5","","-10.0","","82","","24","","7","","24.1","","99.90","","","","-11","","Cloudy"
"-81.15","43.03","LONDON A","6144473","2020-01-08 23:00","2020","01","08","23:00","-7.4","","-10.6","","78","","25","","5","","24.1","","99.96","","","","-10","","NA"
"-81.15","43.03","LONDON A","6144473","2020-01-09 00:00","2020","01","09","00:00","-7.2","","-10.6","","77","","24","","3","","24.1","","99.99","","","","-9","","NA"
"-81.15","43.03","LONDON A","6144473","2020-01-09 01:00","2020","01","09","01:00","-7.2","","-11.3","","73","","21","","9","","24.1","","100.01","","","","-12","","Cloudy"
"-81.15","43.03","LONDON A","6144473","2020-01-09 02:00","2020","01","09","02:00","-7.6","","-11.5","","74","","17","","4","","24.1","","100.01","","","","-10","","NA"
"-81.15","43.03","LONDON A","6144473","2020-01-09 03:00","2020","01","09","03:00","-8.4","","-12.0","","75","","17","","7","","24.1","","100.05","","","","-12","","NA"
"-81.15","43.03","LONDON A","6144473","2020-01-09 04:00","2020","01","09","04:00","-9.6","","-12.4","","80","","12","","7","","24.1","","100.09","","","","-14","","Mostly Cloudy"
"-81.15","43.03","LONDON A","6144473","2020-01-09 05:00","2020","01","09","05:00","-9.9","","-12.5","","81","","9","","7","","24.1","","100.13","","","","-14","","NA"
"-81.15","43.03","LONDON A","6144473","2020-01-09 06:00","2020","01","09","06:00","-9.7","","-12.1","","83","","8","","13","","24.1","","100.11","","","","-16","","NA"
"-81.15","43.03","LONDON A","6144473","2020-01-09 07:00","2020","01","09","07:00","-9.1","","-12.3","","78","","11","","16","","24.1","","100.11","","","","-16","","Mostly Cloudy"
"-81.15","43.03","LONDON A","6144473","2020-01-09 08:00","2020","01","09","08:00","-8.9","","-12.9","","73","","11","","20","","24.1","","100.06","","","","-16","","NA"
"-81.15","43.03","LONDON A","6144473","2020-01-09 09:00","2020","01","09","09:00","-8.2","","-12.2","","73","","11","","23","","24.1","","100.04","","","","-16","","NA"
"-81.15","43.03","LONDON A","6144473","2020-01-09 10:00","2020","01","09","10:00","-6.6","","-10.6","","74","","12","","26","","24.1","","100.01","","","","-15","","Cloudy"
"-81.15","43.03","LONDON A","6144473","2020-01-09 11:00","2020","01","09","11:00","-4.7","","-8.7","","74","","13","","35","","24.1","","99.92","","","","-13","","NA"
"-81.15","43.03","LONDON A","6144473","2020-01-09 12:00","2020","01","09","12:00","-3.7","","-8.2","","72","","14","","29","","24.1","","99.72","","","","-11","","NA"
"-81.15","43.03","LONDON A","6144473","2020-01-09 13:00","2020","01","09","13:00","-3.5","","-9.0","","66","","14","","36","","24.1","","99.54","","","","-12","","Blowing Snow"
"-81.15","43.03","LONDON A","6144473","2020-01-09 14:00","2020","01","09","14:00","-3.2","","-8.6","","67","","14","","30","","24.1","","99.44","","","","-11","","NA"
"-81.15","43.03","LONDON A","6144473","2020-01-09 15:00","2020","01","09","15:00","-2.8","","-8.2","","66","","13","","24","","24.1","","99.37","","","","-9","","NA"
"-81.15","43.03","LONDON A","6144473","2020-01-09 16:00","2020","01","09","16:00","-2.8","","-8.3","","66","","12","","27","","24.1","","99.20","","","","-10","","Cloudy"
"-81.15","43.03","LONDON A","6144473","2020-01-09 17:00","2020","01","09","17:00","-2.8","","-8.4","","65","","11","","21","","24.1","","99.20","","","","-9","","NA"
"-81.15","43.03","LONDON A","6144473","2020-01-09 18:00","2020","01","09","18:00","-2.6","","-8.0","","66","","12","","24","","24.1","","99.10","","","","-9","","NA"
"-81.15","43.03","LONDON A","6144473","2020-01-09 19:00","2020","01","09","19:00","-2.0","","-7.3","","68","","11","","21","","24.1","","99.04","","","","-8","","Cloudy"
"-81.15","43.03","LONDON A","6144473","2020-01-09 20:00","2020","01","09","20:00","-1.7","","-6.4","","70","","13","","22","","24.1","","98.90","","","","-8","","NA"
"-81.15","43.03","LONDON A","6144473","2020-01-09 21:00","2020","01","09","21:00","1.3","","-5.1","","62","","16","","22","","24.1","","98.85","","","","","","NA"
"-81.15","43.03","LONDON A","6144473","2020-01-09 22:00","2020","01","09","22:00","3.2","","-3.1","","63","","17","","30","","24.1","","98.71","","","","","","Cloudy"
"-81.15","43.03","LONDON A","6144473","2020-01-09 23:00","2020","01","09","23:00","4.3","","-2.2","","63","","18","","29","","24.1","","98.70","","","","","","NA"
"-81.15","43.03","LONDON A","6144473","2020-01-10 00:00","2020","01","10","00:00","4.9","","-0.9","","66","","18","","25","","24.1","","98.67","","","","","","NA"
"-81.15","43.03","LONDON A","6144473","2020-01-10 01:00","2020","01","10","01:00","5.3","","0.5","","71","","19","","25","","24.1","","98.62","","","","","","Cloudy"
"-81.15","43.03","LONDON A","6144473","2020-01-10 02:00","2020","01","10","02:00","5.1","","0.9","","74","","20","","27","","24.1","","98.67","","","","","","NA"
"-81.15","43.03","LONDON A","6144473","2020-01-10 03:00","2020","01","10","03:00","4.6","","2.3","","85","","20","","26","","12.9","","98.75","","","","","","Rain"
"-81.15","43.03","LONDON A","6144473","2020-01-10 04:00","2020","01","10","04:00","5.0","","3.6","","90","","21","","30","","9.7","","98.73","","","","","","Rain,Fog"
"-81.15","43.03","LONDON A","6144473","2020-01-10 05:00","2020","01","10","05:00","4.7","","4.0","","96","","21","","26","","8.1","","98.74","","","","","","Rain,Fog"
"-81.15","43.03","LONDON A","6144473","2020-01-10 06:00","2020","01","10","06:00","5.0","","4.4","","96","","22","","27","","16.1","","98.79","","","","","","Drizzle"
"-81.15","43.03","LONDON A","6144473","2020-01-10 07:00","2020","01","10","07:00","5.2","","4.7","","97","","21","","23","","6.4","","98.83","","","","","","Drizzle,Fog"
"-81.15","43.03","LONDON A","6144473","2020-01-10 08:00","2020","01","10","08:00","4.8","","4.5","","98","","20","","16","","2.0","","98.88","","","","","","Drizzle,Fog"
"-81.15","43.03","LONDON A","6144473","2020-01-10 09:00","2020","01","10","09:00","5.0","","4.8","","98","","20","","23","","2.4","","98.90","","","","","","Rain,Moderate Drizzle,Fog"
"-81.15","43.03","LONDON A","6144473","2020-01-10 10:00","2020","01","10","10:00","4.7","","4.5","","98","","19","","19","","3.6","","98.92","","","","","","Rain,Fog"
"-81.15","43.03","LONDON A","6144473","2020-01-10 11:00","2020","01","10","11:00","5.4","","5.2","","98","","20","","23","","2.0","","98.93","","","","","","Rain,Drizzle,Fog"
"-81.15","43.03","LONDON A","6144473","2020-01-10 12:00","2020","01","10","12:00","5.8","","5.5","","98","","20","","18","","2.8","","98.87","","","","","","Rain,Drizzle,Fog"
"-81.15","43.03","LONDON A","6144473","2020-01-10 13:00","2020","01","10","13:00","6.2","","6.0","","99","","20","","18","","2.0","","98.79","","","","","","Drizzle,Fog"
"-81.15","43.03","LONDON A","6144473","2020-01-10 14:00","2020","01","10","14:00","6.5","","6.3","","99","","20","","20","","2.8","","98.77","","","","","","Drizzle,Fog"
"-81.15","43.03","LONDON A","6144473","2020-01-10 15:00","2020","01","10","15:00","6.6","","6.5","","99","","20","","18","","2.8","","98.77","","","","","","Drizzle,Fog"
"-81.15","43.03","LONDON A","6144473","2020-01-10 16:00","2020","01","10","16:00","6.5","","6.4","","99","","20","","9","","2.8","","98.86","","","","","","Rain,Fog"
"-81.15","43.03","LONDON A","6144473","2020-01-10 17:00","2020","01","10","17:00","6.4","","6.3","","99","","18","","7","","0.8","","98.84","","","","","","Fog"
"-81.15","43.03","LONDON A","6144473","2020-01-10 18:00","2020","01","10","18:00","6.2","","6.2","","100","","16","","7","","1.2","","98.85","","","","","","Drizzle,Fog"
"-81.15","43.03","LONDON A","6144473","2020-01-10 19:00","2020","01","10","19:00","6.1","","6.1","","100","","16","","11","","1.2","","98.83","","","","","","Fog"
"-81.15","43.03","LONDON A","6144473","2020-01-10 20:00","2020","01","10","20:00","6.1","","6.1","","100","","17","","9","","0.8","","98.86","","","","","","Drizzle,Fog"
"-81.15","43.03","LONDON A","6144473","2020-01-10 21:00","2020","01","10","21:00","5.6","","5.6","","100","","10","","8","","0.8","","98.79","","","","","","Drizzle,Fog"
"-81.15","43.03","LONDON A","6144473","2020-01-10 22:00","2020","01","10","22:00","5.7","","5.7","","100","","11","","11","","1.2","","98.74","","","","","","Rain,Fog"
"-81.15","43.03","LONDON A","6144473","2020-01-10 23:00","2020","01","10","23:00","5.8","","5.8","","100","","10","","12","","1.6","","98.62","","","","","","Rain,Fog"
"-81.15","43.03","LONDON A","6144473","2020-01-11 00:00","2020","01","11","00:00","6.2","","6.2","","100","","12","","14","","1.6","","98.46","","","","","","Rain,Fog"
"-81.15","43.03","LONDON A","6144473","2020-01-11 01:00","2020","01","11","01:00","6.8","","6.8","","100","","12","","13","","0.6","","98.32","","","","","","Rain,Fog"
"-81.15","43.03","LONDON A","6144473","2020-01-11 02:00","2020","01","11","02:00","8.7","","8.7","","100","","17","","18","","11.3","","98.21","","","","","","Rain"
"-81.15","43.03","LONDON A","6144473","2020-01-11 03:00","2020","01","11","03:00","9.6","","9.5","","100","","18","","22","","9.7","","98.14","","","","","","Rain,Fog"
"-81.15","43.03","LONDON A","6144473","2020-01-11 04:00","2020","01","11","04:00","9.8","","9.3","","97","","18","","23","","9.7","","98.01","","","","","","Rain,Fog"
"-81.15","43.03","LONDON A","6144473","2020-01-11 05:00","2020","01","11","05:00","9.5","","9.0","","97","","16","","19","","11.3","","97.84","","","","","","Rain"
"-81.15","43.03","LONDON A","6144473","2020-01-11 06:00","2020","01","11","06:00","9.7","","9.0","","96","","17","","22","","19.3","","97.70","","","","","","NA"
"-81.15","43.03","LONDON A","6144473","2020-01-11 07:00","2020","01","11","07:00","10.8","","9.0","","88","","18","","26","","24.1","","97.62","","","","","","Cloudy"
"-81.15","43.03","LONDON A","6144473","2020-01-11 08:00","2020","01","11","08:00","11.5","","9.0","","85","","18","","27","","19.3","","97.50","","","","","","NA"
"-81.15","43.03","LONDON A","6144473","2020-01-11 09:00","2020","01","11","09:00","10.4","","9.9","","97","","29","","10","","2.4","","97.71","","","","","","Rain,Fog"
"-81.15","43.03","LONDON A","6144473","2020-01-11 10:00","2020","01","11","10:00","10.2","","10.0","","99","","25","","3","","3.2","","97.69","","","","","","Rain,Fog"
"-81.15","43.03","LONDON A","6144473","2020-01-11 11:00","2020","01","11","11:00","10.5","","10.2","","98","","26","","10","","3.2","","97.68","","","","","","Rain,Fog"
"-81.15","43.03","LONDON A","6144473","2020-01-11 12:00","2020","01","11","12:00","6.9","","6.6","","98","","32","","12","","1.6","","97.62","","","","","","Moderate Rain,Fog"
"-81.15","43.03","LONDON A","6144473","2020-01-11 13:00","2020","01","11","13:00","5.0","","4.4","","96","","2","","19","","2.4","","97.51","","","","","","Rain,Fog"
"-81.15","43.03","LONDON A","6144473","2020-01-11 14:00","2020","01","11","14:00","3.8","","3.3","","96","","3","","14","","4.0","","97.43","","","","","","Rain,Fog"
"-81.15","43.03","LONDON A","6144473","2020-01-11 15:00","2020","01","11","15:00","3.4","","2.9","","96","","2","","13","","3.2","","97.33","","","","","","Moderate Rain,Fog"
"-81.15","43.03","LONDON A","6144473","2020-01-11 16:00","2020","01","11","16:00","2.5","","1.9","","96","","2","","22","","6.4","","97.45","","","","","","Rain,Fog"
"-81.15","43.03","LONDON A","6144473","2020-01-11 17:00","2020","01","11","17:00","3.0","","2.6","","97","","6","","25","","6.4","","97.36","","","","","","Drizzle,Fog"
"-81.15","43.03","LONDON A","6144473","2020-01-11 18:00","2020","01","11","18:00","3.2","","2.7","","96","","5","","17","","4.8","","97.47","","","","","","Drizzle,Fog"
"-81.15","43.03","LONDON A","6144473","2020-01-11 19:00","2020","01","11","19:00","3.0","","2.5","","96","","7","","24","","4.8","","97.48","","","","","","Rain,Fog"
"-81.15","43.03","LONDON A","6144473","2020-01-11 20:00","2020","01","11","20:00","2.9","","2.3","","96","","5","","14","","9.7","","97.40","","","","","","Moderate Rain,Fog"
"-81.15","43.03","LONDON A","6144473","2020-01-11 21:00","2020","01","11","21:00","2.8","","2.4","","97","","8","","28","","6.4","","97.28","","","","","","Rain,Fog"
"-81.15","43.03","LONDON A","6144473","2020-01-11 22:00","2020","01","11","22:00","2.6","","2.1","","97","","8","","33","","4.8","","97.16","","","","","","Rain,Fog"
"-81.15","43.03","LONDON A","6144473","2020-01-11 23:00","2020","01","11","23:00","2.7","","2.3","","97","","9","","23","","4.8","","97.08","","","","","","Rain,Fog"
"-81.15","43.03","LONDON A","6144473","2020-01-12 00:00","2020","01","12","00:00","2.6","","2.2","","97","","6","","19","","6.4","","96.85","","","","","","Rain,Fog"
"-81.15","43.03","LONDON A","6144473","2020-01-12 01:00","2020","01","12","01:00","2.5","","2.0","","97","","6","","19","","8.1","","96.77","","","","","","Rain,Fog"
"-81.15","43.03","LONDON A","6144473","2020-01-12 02:00","2020","01","12","02:00","2.4","","1.9","","97","","6","","17","","6.4","","96.77","","","","","","Rain,Fog"
"-81.15","43.03","LONDON A","6144473","2020-01-12 03:00","2020","01","12","03:00","2.1","","1.8","","98","","1","","17","","6.4","","96.86","","","","","","Rain,Fog"
"-81.15","43.03","LONDON A","6144473","2020-01-12 04:00","2020","01","12","04:00","1.9","","1.4","","96","","26","","14","","8.1","","97.26","","","","","","Rain,Fog"
"-81.15","43.03","LONDON A","6144473","2020-01-12 05:00","2020","01","12","05:00","-1.0","","-1.6","","96","","29","","28","","1.2","","97.64","","","","-8","","Snow"
"-81.15","43.03","LONDON A","6144473","2020-01-12 06:00","2020","01","12","06:00","-4.2","","-5.6","","90","","30","","26","","19.3","","97.97","","","","-11","","NA"
"-81.15","43.03","LONDON A","6144473","2020-01-12 07:00","2020","01","12","07:00","-4.8","","-6.8","","86","","30","","25","","19.3","","98.31","","","","-12","","Mostly Cloudy"
"-81.15","43.03","LONDON A","6144473","2020-01-12 08:00","2020","01","12","08:00","-4.8","","-6.3","","89","","30","","19","","19.3","","98.61","","","","-11","","NA"
"-81.15","43.03","LONDON A","6144473","2020-01-12 09:00","2020","01","12","09:00","-3.9","","-5.6","","88","","30","","19","","19.3","","98.87","","","","-10","","Snow"
"-81.15","43.03","LONDON A","6144473","2020-01-12 10:00","2020","01","12","10:00","-3.6","","-5.7","","86","","30","","18","","16.1","","99.08","","","","-9","","Snow"
"-81.15","43.03","LONDON A","6144473","2020-01-12 11:00","2020","01","12","11:00","-3.3","","-5.5","","85","","29","","21","","19.3","","99.22","","","","-10","","Snow"
"-81.15","43.03","LONDON A","6144473","2020-01-12 12:00","2020","01","12","12:00","-3.0","","-5.5","","83","","27","","18","","24.1","","99.24","","","","-9","","Snow"
"-81.15","43.03","LONDON A","6144473","2020-01-12 13:00","2020","01","12","13:00","-3.0","","-5.3","","84","","28","","15","","24.1","","99.29","","","","-8","","Cloudy"
"-81.15","43.03","LONDON A","6144473","2020-01-12 14:00","2020","01","12","14:00","-3.2","","-5.1","","87","","26","","17","","19.3","","99.36","","","","-9","","Snow"
"-81.15","43.03","LONDON A","6144473","2020-01-12 15:00","2020","01","12","15:00","-3.3","","-5.4","","85","","29","","10","","24.1","","99.41","","","","-7","","Snow"
"-81.15","43.03","LONDON A","6144473","2020-01-12 16:00","2020","01","12","16:00","-3.5","","-5.8","","84","","29","","10","","24.1","","99.50","","","","-7","","Snow"
"-81.15","43.03","LONDON A","6144473","2020-01-12 17:00","2020","01","12","17:00","-3.6","","-5.8","","85","","30","","6","","24.1","","99.57","","","","-6","","NA"
"-81.15","43.03","LONDON A","6144473","2020-01-12 18:00","2020","01","12","18:00","-3.7","","-5.8","","85","","36","","1","","24.1","","99.56","","","","-4","","NA"
"-81.15","43.03","LONDON A","6144473","2020-01-12 19:00","2020","01","12","19:00","-3.8","","-5.8","","86","","7","","7","","24.1","","99.54","","","","-7","","Cloudy"
"-81.15","43.03","LONDON A","6144473","2020-01-12 20:00","2020","01","12","20:00","-3.7","","-5.6","","87","","14","","7","","24.1","","99.54","","","","-7","","NA"
"-81.15","43.03","LONDON A","6144473","2020-01-12 21:00","2020","01","12","21:00","-3.6","","-5.2","","88","","13","","13","","24.1","","99.46","","","","-8","","NA"
"-81.15","43.03","LONDON A","6144473","2020-01-12 22:00","2020","01","12","22:00","-3.3","","-5.0","","88","","15","","15","","24.1","","99.46","","","","-8","","Cloudy"
"-81.15","43.03","LONDON A","6144473","2020-01-12 23:00","2020","01","12","23:00","-3.3","","-5.2","","87","","17","","16","","24.1","","99.44","","","","-9","","NA"
"-81.15","43.03","LONDON A","6144473","2020-01-13 00:00","2020","01","13","00:00","-3.0","","-4.4","","90","","10","","13","","24.1","","99.34","","","","-8","","NA"
"-81.15","43.03","LONDON A","6144473","2020-01-13 01:00","2020","01","13","01:00","-2.8","","-4.1","","90","","10","","13","","24.1","","99.24","","","","-7","","Cloudy"
"-81.15","43.03","LONDON A","6144473","2020-01-13 02:00","2020","01","13","02:00","-2.3","","-3.7","","90","","11","","17","","24.1","","99.12","","","","-8","","NA"
"-81.15","43.03","LONDON A","6144473","2020-01-13 03:00","2020","01","13","03:00","-2.0","","-3.0","","93","","9","","10","","9.7","","99.15","","","","-6","","Freezing Drizzle,Fog"
"-81.15","43.03","LONDON A","6144473","2020-01-13 04:00","2020","01","13","04:00","-2.1","","-2.7","","96","","10","","16","","6.4","","99.11","","","","-7","","Freezing Drizzle,Snow,Fog"
"-81.15","43.03","LONDON A","6144473","2020-01-13 05:00","2020","01","13","05:00","-2.3","","-3.1","","94","","10","","17","","6.4","","99.04","","","","-8","","Snow"
"-81.15","43.03","LONDON A","6144473","2020-01-13 06:00","2020","01","13","06:00","-2.3","","-3.1","","94","","10","","10","","8.1","","99.06","","","","-6","","Snow"
"-81.15","43.03","LONDON A","6144473","2020-01-13 07:00","2020","01","13","07:00","-2.2","","-2.9","","95","","11","","12","","4.8","","99.08","","","","-6","","Snow"
"-81.15","43.03","LONDON A","6144473","2020-01-13 08:00","2020","01","13","08:00","-2.1","","-2.8","","95","","11","","14","","8.1","","99.10","","","","-7","","Fog"
"-81.15","43.03","LONDON A","6144473","2020-01-13 09:00","2020","01","13","09:00","-1.6","","-2.2","","95","","13","","10","","4.8","","99.14","","","","-5","","Snow,Fog"
"-81.15","43.03","LONDON A","6144473","2020-01-13 10:00","2020","01","13","10:00","-0.9","","-1.6","","95","","14","","8","","4.8","","99.16","","","","-4","","Fog"
"-81.15","43.03","LONDON A","6144473","2020-01-13 11:00","2020","01","13","11:00","0.1","","-0.5","","96","","19","","8","","6.4","","99.20","","","","","","Fog"
"-81.15","43.03","LONDON A","6144473","2020-01-13 12:00","2020","01","13","12:00","1.2","","0.4","","94","","23","","15","","8.1","","99.20","","","","","","Fog"
"-81.15","43.03","LONDON A","6144473","2020-01-13 13:00","2020","01","13","13:00","1.6","","0.4","","92","","24","","18","","11.3","","99.17","","","","","","Cloudy"
"-81.15","43.03","LONDON A","6144473","2020-01-13 14:00","2020","01","13","14:00","1.6","","0.1","","90","","25","","16","","12.9","","99.20","","","","","","NA"
"-81.15","43.03","LONDON A","6144473","2020-01-13 15:00","2020","01","13","15:00","1.5","","-0.1","","89","","26","","15","","19.3","","99.25","","","","","","NA"
"-81.15","43.03","LONDON A","6144473","2020-01-13 16:00","2020","01","13","16:00","1.3","","-0.2","","90","","27","","16","","16.1","","99.32","","","","","","Cloudy"
"-81.15","43.03","LONDON A","6144473","2020-01-13 17:00","2020","01","13","17:00","1.0","","-0.6","","89","","27","","14","","16.1","","99.38","","","","","","NA"
"-81.15","43.03","LONDON A","6144473","2020-01-13 18:00","2020","01","13","18:00","0.9","","-0.4","","91","","27","","8","","16.1","","99.47","","","","","","NA"
"-81.15","43.03","LONDON A","6144473","2020-01-13 19:00","2020","01","13","19:00","0.7","","-0.4","","92","","26","","6","","12.9","","99.51","","","","","","Cloudy"
"-81.15","43.03","LONDON A","6144473","2020-01-13 20:00","2020","01","13","20:00","0.6","","-0.2","","94","","24","","5","","9.7","","99.53","","","","","","Fog"
"-81.15","43.03","LONDON A","6144473","2020-01-13 21:00","2020","01","13","21:00","0.2","","-0.2","","98","","1","","7","","4.8","","99.49","","","","","","Snow Grains,Fog"
"-81.15","43.03","LONDON A","6144473","2020-01-13 22:00","2020","01","13","22:00","0.1","","-0.2","","98","","9","","4","","4.8","","99.53","","","","","","Snow Grains,Fog"
"-81.15","43.03","LONDON A","6144473","2020-01-13 23:00","2020","01","13","23:00","0.0","","-0.1","","99","","11","","7","","6.4","","99.49","","","","-2","","Snow Grains,Fog"
"-81.15","43.03","LONDON A","6144473","2020-01-14 00:00","2020","01","14","00:00","0.0","","-0.2","","98","","10","","7","","4.8","","99.43","","","","-2","","Fog"
"-81.15","43.03","LONDON A","6144473","2020-01-14 01:00","2020","01","14","01:00","0.0","","-0.3","","98","","12","","10","","9.7","","99.35","","","","-3","","Fog"
"-81.15","43.03","LONDON A","6144473","2020-01-14 02:00","2020","01","14","02:00","0.0","","-0.3","","98","","11","","12","","8.1","","99.32","","","","-4","","Fog"
"-81.15","43.03","LONDON A","6144473","2020-01-14 03:00","2020","01","14","03:00","-0.2","","-0.9","","96","","10","","12","","9.7","","99.23","","","","-4","","Fog"
"-81.15","43.03","LONDON A","6144473","2020-01-14 04:00","2020","01","14","04:00","-1.0","","-1.8","","95","","9","","17","","12.9","","99.05","","","","-6","","Mostly Cloudy"
"-81.15","43.03","LONDON A","6144473","2020-01-14 05:00","2020","01","14","05:00","-1.5","","-2.6","","92","","11","","18","","19.3","","98.97","","","","-7","","NA"
"-81.15","43.03","LONDON A","6144473","2020-01-14 06:00","2020","01","14","06:00","-1.5","","-2.5","","93","","12","","21","","19.3","","98.85","","","","-7","","NA"
"-81.15","43.03","LONDON A","6144473","2020-01-14 07:00","2020","01","14","07:00","-1.0","","-2.0","","93","","11","","23","","19.3","","98.77","","","","-7","","Cloudy"
"-81.15","43.03","LONDON A","6144473","2020-01-14 08:00","2020","01","14","08:00","-0.5","","-1.7","","92","","11","","19","","19.3","","98.69","","","","-6","","NA"
"-81.15","43.03","LONDON A","6144473","2020-01-14 09:00","2020","01","14","09:00","0.1","","-1.4","","90","","10","","16","","19.3","","98.64","","","","","","NA"
"-81.15","43.03","LONDON A","6144473","2020-01-14 10:00","2020","01","14","10:00","1.1","","-1.2","","85","","10","","23","","19.3","","98.55","","","","","","Mainly Clear"
"-81.15","43.03","LONDON A","6144473","2020-01-14 11:00","2020","01","14","11:00","1.7","","-0.7","","84","","11","","19","","19.3","","98.46","","","","","","NA"
"-81.15","43.03","LONDON A","6144473","2020-01-14 12:00","2020","01","14","12:00","1.9","","-0.2","","86","","12","","15","","19.3","","98.38","","","","","","NA"
"-81.15","43.03","LONDON A","6144473","2020-01-14 13:00","2020","01","14","13:00","2.5","","0.3","","86","","14","","15","","19.3","","98.25","","","","","","Cloudy"
"-81.15","43.03","LONDON A","6144473","2020-01-14 14:00","2020","01","14","14:00","3.2","","1.2","","87","","17","","11","","19.3","","98.18","","","","","","NA"
"-81.15","43.03","LONDON A","6144473","2020-01-14 15:00","2020","01","14","15:00","3.5","","1.8","","88","","24","","12","","12.9","","98.24","","","","","","NA"
"-81.15","43.03","LONDON A","6144473","2020-01-14 16:00","2020","01","14","16:00","3.3","","1.7","","89","","25","","17","","16.1","","98.28","","","","","","Mostly Cloudy"
"-81.15","43.03","LONDON A","6144473","2020-01-14 17:00","2020","01","14","17:00","3.3","","1.1","","86","","24","","18","","16.1","","98.33","","","","","","NA"
"-81.15","43.03","LONDON A","6144473","2020-01-14 18:00","2020","01","14","18:00","3.1","","1.2","","87","","26","","15","","16.1","","98.44","","","","","","NA"
"-81.15","43.03","LONDON A","6144473","2020-01-14 19:00","2020","01","14","19:00","3.0","","1.2","","88","","26","","18","","16.1","","98.52","","","","","","Cloudy"
"-81.15","43.03","LONDON A","6144473","2020-01-14 20:00","2020","01","14","20:00","2.7","","0.7","","87","","27","","15","","16.1","","98.56","","","","","","NA"
"-81.15","43.03","LONDON A","6144473","2020-01-14 21:00","2020","01","14","21:00","2.6","","0.3","","85","","25","","18","","16.1","","98.59","","","","","","NA"
"-81.15","43.03","LONDON A","6144473","2020-01-14 22:00","2020","01","14","22:00","2.6","","0.0","","83","","27","","17","","19.3","","98.60","","","","","","Cloudy"
"-81.15","43.03","LONDON A","6144473","2020-01-14 23:00","2020","01","14","23:00","2.6","","-1.0","","78","","26","","22","","24.1","","98.66","","","","","","NA"
"-81.15","43.03","LONDON A","6144473","2020-01-15 00:00","2020","01","15","00:00","2.3","","-1.1","","78","","28","","19","","24.1","","98.72","","","","","","NA"
"-81.15","43.03","LONDON A","6144473","2020-01-15 01:00","2020","01","15","01:00","1.9","","-1.2","","80","","28","","20","","24.1","","98.70","","","","","","Cloudy"
"-81.15","43.03","LONDON A","6144473","2020-01-15 02:00","2020","01","15","02:00","1.7","","-1.0","","82","","28","","15","","24.1","","98.72","","","","","","NA"
"-81.15","43.03","LONDON A","6144473","2020-01-15 03:00","2020","01","15","03:00","1.8","","-1.7","","77","","27","","20","","24.1","","98.83","","","","","","NA"
"-81.15","43.03","LONDON A","6144473","2020-01-15 04:00","2020","01","15","04:00","1.6","","-1.4","","80","","28","","13","","24.1","","98.85","","","","","","Cloudy"
"-81.15","43.03","LONDON A","6144473","2020-01-15 05:00","2020","01","15","05:00","1.0","","-1.7","","82","","32","","8","","24.1","","98.76","","","","","","NA"
"-81.15","43.03","LONDON A","6144473","2020-01-15 06:00","2020","01","15","06:00","0.7","","-1.8","","84","","36","","1","","24.1","","98.75","","","","","","NA"
"-81.15","43.03","LONDON A","6144473","2020-01-15 07:00","2020","01","15","07:00","0.6","","-1.4","","87","","20","","5","","24.1","","98.81","","","","","","Cloudy"
"-81.15","43.03","LONDON A","6144473","2020-01-15 08:00","2020","01","15","08:00","0.4","","-1.6","","86","","20","","12","","24.1","","98.87","","","","","","NA"
"-81.15","43.03","LONDON A","6144473","2020-01-15 09:00","2020","01","15","09:00","1.0","","-1.5","","83","","21","","8","","24.1","","98.92","","","","","","NA"
"-81.15","43.03","LONDON A","6144473","2020-01-15 10:00","2020","01","15","10:00","1.4","","-1.7","","80","","19","","8","","24.1","","98.85","","","","","","Cloudy"
"-81.15","43.03","LONDON A","6144473","2020-01-15 11:00","2020","01","15","11:00","2.1","","-1.2","","79","","20","","7","","24.1","","98.85","","","","","","NA"
"-81.15","43.03","LONDON A","6144473","2020-01-15 12:00","2020","01","15","12:00","2.5","","-1.9","","73","","15","","7","","24.1","","98.78","","","","","","NA"
"-81.15","43.03","LONDON A","6144473","2020-01-15 13:00","2020","01","15","13:00","3.3","","-2.0","","68","","17","","13","","24.1","","98.67","","","","","","Cloudy"
"-81.15","43.03","LONDON A","6144473","2020-01-15 14:00","2020","01","15","14:00","3.8","","-1.5","","69","","12","","12","","24.1","","98.55","","","","","","NA"
"-81.15","43.03","LONDON A","6144473","2020-01-15 15:00","2020","01","15","15:00","3.6","","-0.8","","73","","11","","15","","24.1","","98.40","","","","","","NA"
"-81.15","43.03","LONDON A","6144473","2020-01-15 16:00","2020","01","15","16:00","3.9","","-0.6","","72","","11","","17","","24.1","","98.34","","","","","","Mostly Cloudy"
"-81.15","43.03","LONDON A","6144473","2020-01-15 17:00","2020","01","15","17:00","2.4","","-1.0","","78","","13","","17","","24.1","","98.25","","","","","","NA"
"-81.15","43.03","LONDON A","6144473","2020-01-15 18:00","2020","01","15","18:00","2.4","","-0.8","","80","","7","","6","","24.1","","98.28","","","","","","NA"
"-81.15","43.03","LONDON A","6144473","2020-01-15 19:00","2020","01","15","19:00","2.1","","-1.0","","80","","6","","16","","24.1","","98.20","","","","","","Cloudy"
"-81.15","43.03","LONDON A","6144473","2020-01-15 20:00","2020","01","15","20:00","1.8","","-0.7","","84","","10","","14","","24.1","","98.10","","","","","","NA"
"-81.15","43.03","LONDON A","6144473","2020-01-15 21:00","2020","01","15","21:00","1.5","","-1.0","","83","","7","","9","","24.1","","98.06","","","","","","NA"
"-81.15","43.03","LONDON A","6144473","2020-01-15 22:00","2020","01","15","22:00","1.6","","-1.1","","82","","12","","10","","19.3","","97.99","","","","","","Cloudy"
"-81.15","43.03","LONDON A","6144473","2020-01-15 23:00","2020","01","15","23:00","1.6","","-1.0","","83","","29","","11","","16.1","","98.08","","","","","","Rain"
"-81.15","43.03","LONDON A","6144473","2020-01-16 00:00","2020","01","16","00:00","1.1","","-0.1","","92","","29","","8","","9.7","","98.11","","","","","","Snow,Fog"
"-81.15","43.03","LONDON A","6144473","2020-01-16 01:00","2020","01","16","01:00","0.9","","0.4","","96","","28","","12","","6.4","","98.13","","","","","","Snow,Fog"
"-81.15","43.03","LONDON A","6144473","2020-01-16 02:00","2020","01","16","02:00","1.5","","0.3","","92","","29","","19","","12.9","","98.18","","","","","","NA"
"-81.15","43.03","LONDON A","6144473","2020-01-16 03:00","2020","01","16","03:00","1.1","","-0.3","","90","","28","","26","","8.1","","98.33","","","","","","Snow Showers,Fog"
"-81.15","43.03","LONDON A","6144473","2020-01-16 04:00","2020","01","16","04:00","0.5","","-1.1","","89","","28","","22","","12.9","","98.41","","","","","","Snow Showers"
"-81.15","43.03","LONDON A","6144473","2020-01-16 05:00","2020","01","16","05:00","0.5","","-1.4","","87","","28","","31","","9.7","","98.48","","","","","","Fog"
"-81.15","43.03","LONDON A","6144473","2020-01-16 06:00","2020","01","16","06:00","0.2","","-1.6","","87","","29","","32","","12.9","","98.60","","","","","","NA"
"-81.15","43.03","LONDON A","6144473","2020-01-16 07:00","2020","01","16","07:00","0.0","","-2.8","","82","","29","","26","","19.3","","98.76","","","","-6","","Cloudy"
"-81.15","43.03","LONDON A","6144473","2020-01-16 08:00","2020","01","16","08:00","-0.7","","-3.8","","79","","29","","27","","24.1","","98.87","","","","-7","","Snow Showers"
"-81.15","43.03","LONDON A","6144473","2020-01-16 09:00","2020","01","16","09:00","-0.4","","-3.2","","82","","29","","19","","16.1","","98.92","","","","-6","","Snow Showers"
"-81.15","43.03","LONDON A","6144473","2020-01-16 10:00","2020","01","16","10:00","-1.3","","-2.3","","93","","28","","18","","1.6","","99.00","","","","-7","","Snow Showers"
"-81.15","43.03","LONDON A","6144473","2020-01-16 11:00","2020","01","16","11:00","-1.0","","-3.1","","86","","29","","25","","6.4","","99.09","","","","-7","","Snow Showers"
"-81.15","43.03","LONDON A","6144473","2020-01-16 12:00","2020","01","16","12:00","-0.9","","-3.2","","84","","29","","19","","12.9","","99.10","","","","-6","","Snow Showers"
"-81.15","43.03","LONDON A","6144473","2020-01-16 13:00","2020","01","16","13:00","-2.2","","-3.1","","93","","31","","25","","0.6","","99.13","","","","-9","","Moderate Snow Showers,Moderate Snow Pellets"
"-81.15","43.03","LONDON A","6144473","2020-01-16 14:00","2020","01","16","14:00","-1.2","","-4.0","","81","","29","","24","","16.1","","99.18","","","","-7","","Snow Showers"
"-81.15","43.03","LONDON A","6144473","2020-01-16 15:00","2020","01","16","15:00","-1.5","","-4.2","","81","","29","","26","","1.6","","99.26","","","","-8","","Snow Showers,Blowing Snow"
"-81.15","43.03","LONDON A","6144473","2020-01-16 16:00","2020","01","16","16:00","-2.0","","-4.8","","81","","29","","28","","24.1","","99.35","","","","-9","","Snow Showers,Blowing Snow"
"-81.15","43.03","LONDON A","6144473","2020-01-16 17:00","2020","01","16","17:00","-3.3","","-5.6","","84","","34","","22","","4.8","","99.52","","","","-10","","Snow Showers,Blowing Snow"
"-81.15","43.03","LONDON A","6144473","2020-01-16 18:00","2020","01","16","18:00","-4.1","","-5.9","","87","","34","","20","","2.4","","99.65","","","","-10","","Snow Showers,Blowing Snow"
"-81.15","43.03","LONDON A","6144473","2020-01-16 19:00","2020","01","16","19:00","-4.5","","-6.6","","85","","34","","23","","9.7","","99.82","","","","-11","","Snow Showers,Blowing Snow"
"-81.15","43.03","LONDON A","6144473","2020-01-16 20:00","2020","01","16","20:00","-4.9","","-6.8","","87","","33","","19","","1.6","","99.94","","","","-11","","Snow Showers,Blowing Snow"
"-81.15","43.03","LONDON A","6144473","2020-01-16 21:00","2020","01","16","21:00","-5.0","","-9.2","","72","","32","","28","","16.1","","100.05","","","","-13","","Snow Showers,Blowing Snow"
"-81.15","43.03","LONDON A","6144473","2020-01-16 22:00","2020","01","16","22:00","-6.4","","-10.2","","74","","31","","21","","24.1","","100.11","","","","-13","","Blowing Snow"
"-81.15","43.03","LONDON A","6144473","2020-01-16 23:00","2020","01","16","23:00","-6.1","","-9.3","","78","","33","","21","","6.4","","100.22","","","","-13","","Snow Showers,Blowing Snow"
"-81.15","43.03","LONDON A","6144473","2020-01-17 00:00","2020","01","17","00:00","-6.9","","-9.4","","82","","36","","19","","24.1","","100.32","","","","-14","","Snow Showers,Blowing Snow"
"-81.15","43.03","LONDON A","6144473","2020-01-17 01:00","2020","01","17","01:00","-8.8","","-11.2","","83","","2","","9","","24.1","","100.42","","","","-13","","Snow Showers"
"-81.15","43.03","LONDON A","6144473","2020-01-17 02:00","2020","01","17","02:00","-8.8","","-11.9","","79","","36","","11","","24.1","","100.51","","","","-14","","Snow Showers"
"-81.15","43.03","LONDON A","6144473","2020-01-17 03:00","2020","01","17","03:00","-8.9","","-12.5","","75","","36","","13","","24.1","","100.60","","","","-15","","Snow Showers"
"-81.15","43.03","LONDON A","6144473","2020-01-17 04:00","2020","01","17","04:00","-8.9","","-12.6","","74","","36","","11","","24.1","","100.68","","","","-14","","Snow Showers"
"-81.15","43.03","LONDON A","6144473","2020-01-17 05:00","2020","01","17","05:00","-9.1","","-13.1","","73","","35","","10","","24.1","","100.74","","","","-14","","Snow Showers"
"-81.15","43.03","LONDON A","6144473","2020-01-17 06:00","2020","01","17","06:00","-9.3","","-13.3","","73","","1","","9","","24.1","","100.81","","","","-14","","Snow Showers"
"-81.15","43.03","LONDON A","6144473","2020-01-17 07:00","2020","01","17","07:00","-9.7","","-13.9","","72","","3","","10","","24.1","","100.90","","","","-15","","Snow Showers"
"-81.15","43.03","LONDON A","6144473","2020-01-17 08:00","2020","01","17","08:00","-10.2","","-14.1","","74","","3","","3","","24.1","","100.94","","","","-12","","NA"
"-81.15","43.03","LONDON A","6144473","2020-01-17 09:00","2020","01","17","09:00","-10.3","","-14.1","","74","","36","","2","","24.1","","100.95","","","","-11","","NA"
"-81.15","43.03","LONDON A","6144473","2020-01-17 10:00","2020","01","17","10:00","-9.3","","-14.4","","66","","4","","13","","24.1","","100.97","","","","-15","","Mostly Cloudy"
"-81.15","43.03","LONDON A","6144473","2020-01-17 11:00","2020","01","17","11:00","-8.4","","-14.4","","62","","4","","16","","24.1","","101.00","","","","-15","","NA"
"-81.15","43.03","LONDON A","6144473","2020-01-17 12:00","2020","01","17","12:00","-7.8","","-14.4","","60","","3","","17","","24.1","","100.88","","","","-14","","NA"
"-81.15","43.03","LONDON A","6144473","2020-01-17 13:00","2020","01","17","13:00","-7.9","","-14.9","","58","","4","","14","","24.1","","100.79","","","","-14","","Mostly Cloudy"
"-81.15","43.03","LONDON A","6144473","2020-01-17 14:00","2020","01","17","14:00","-7.7","","-15.2","","56","","5","","7","","24.1","","100.70","","","","-11","","NA"
"-81.15","43.03","LONDON A","6144473","2020-01-17 15:00","2020","01","17","15:00","-8.0","","-14.8","","58","","8","","10","","24.1","","100.62","","","","-13","","NA"
"-81.15","43.03","LONDON A","6144473","2020-01-17 16:00","2020","01","17","16:00","-8.0","","-14.6","","59","","10","","7","","24.1","","100.63","","","","-12","","Cloudy"
"-81.15","43.03","LONDON A","6144473","2020-01-17 17:00","2020","01","17","17:00","-8.1","","-14.1","","62","","13","","11","","24.1","","100.57","","","","-13","","NA"
"-81.15","43.03","LONDON A","6144473","2020-01-17 18:00","2020","01","17","18:00","-8.4","","-13.7","","66","","14","","8","","24.1","","100.48","","","","-13","","NA"
"-81.15","43.03","LONDON A","6144473","2020-01-17 19:00","2020","01","17","19:00","-8.3","","-11.9","","75","","11","","18","","24.1","","100.45","","","","-15","","Cloudy"
"-81.15","43.03","LONDON A","6144473","2020-01-17 20:00","2020","01","17","20:00","-8.4","","-12.2","","74","","14","","12","","24.1","","100.50","","","","-14","","NA"
"-81.15","43.03","LONDON A","6144473","2020-01-17 21:00","2020","01","17","21:00","-8.6","","-11.8","","78","","11","","14","","24.1","","100.36","","","","-15","","NA"
"-81.15","43.03","LONDON A","6144473","2020-01-17 22:00","2020","01","17","22:00","-8.5","","-11.7","","78","","11","","16","","24.1","","100.34","","","","-15","","Cloudy"
"-81.15","43.03","LONDON A","6144473","2020-01-17 23:00","2020","01","17","23:00","-8.2","","-11.3","","79","","9","","18","","24.1","","100.23","","","","-15","","NA"
"-81.15","43.03","LONDON A","6144473","2020-01-18 00:00","2020","01","18","00:00","-8.0","","-11.0","","79","","10","","24","","24.1","","100.09","","","","-16","","NA"
"-81.15","43.03","LONDON A","6144473","2020-01-18 01:00","2020","01","18","01:00","-8.0","","-11.0","","79","","10","","23","","24.1","","100.02","","","","-16","","Cloudy"
"-81.15","43.03","LONDON A","6144473","2020-01-18 02:00","2020","01","18","02:00","-7.9","","-10.6","","81","","9","","24","","24.1","","99.80","","","","-16","","NA"
"-81.15","43.03","LONDON A","6144473","2020-01-18 03:00","2020","01","18","03:00","-7.9","","-9.4","","89","","9","","31","","3.2","","99.61","","","","-17","","Snow,Blowing Snow"
"-81.15","43.03","LONDON A","6144473","2020-01-18 04:00","2020","01","18","04:00","-7.3","","-9.1","","87","","10","","27","","24.1","","99.33","","","","-16","","Snow,Blowing Snow"
"-81.15","43.03","LONDON A","6144473","2020-01-18 05:00","2020","01","18","05:00","-7.0","","-8.9","","86","","10","","33","","24.1","","99.09","","","","-16","","Snow,Blowing Snow"
"-81.15","43.03","LONDON A","6144473","2020-01-18 06:00","2020","01","18","06:00","-6.8","","-8.7","","86","","11","","37","","4.8","","98.90","","","","-16","","Snow,Blowing Snow"
"-81.15","43.03","LONDON A","6144473","2020-01-18 07:00","2020","01","18","07:00","-6.6","","-8.0","","89","","11","","27","","1.6","","98.80","","","","-15","","Snow,Blowing Snow"
"-81.15","43.03","LONDON A","6144473","2020-01-18 08:00","2020","01","18","08:00","-6.5","","-7.9","","90","","11","","26","","1.6","","98.59","","","","-14","","Snow,Blowing Snow"
"-81.15","43.03","LONDON A","6144473","2020-01-18 09:00","2020","01","18","09:00","-6.1","","-7.3","","91","","11","","25","","1.6","","98.39","","","","-14","","Snow,Blowing Snow"
"-81.15","43.03","LONDON A","6144473","2020-01-18 10:00","2020","01","18","10:00","-5.5","","-6.7","","91","","11","","30","","0.8","","98.15","","","","-14","","Moderate Snow,Blowing Snow"
"-81.15","43.03","LONDON A","6144473","2020-01-18 11:00","2020","01","18","11:00","-5.0","","-6.2","","91","","11","","30","","0.8","","97.96","","","","-13","","Moderate Snow,Blowing Snow"
"-81.15","43.03","LONDON A","6144473","2020-01-18 12:00","2020","01","18","12:00","-4.2","","-5.2","","93","","11","","25","","0.8","","97.66","","","","-11","","Moderate Snow,Blowing Snow"
"-81.15","43.03","LONDON A","6144473","2020-01-18 13:00","2020","01","18","13:00","-3.1","","-3.8","","95","","12","","23","","0.8","","97.34","","","","-10","","Moderate Snow,Blowing Snow"
"-81.15","43.03","LONDON A","6144473","2020-01-18 14:00","2020","01","18","14:00","-0.1","","-0.6","","96","","15","","23","","1.6","","97.08","","","","-6","","Snow,Blowing Snow"
"-81.15","43.03","LONDON A","6144473","2020-01-18 15:00","2020","01","18","15:00","0.5","","0.0","","96","","16","","23","","4.0","","96.84","","","","","","Snow Showers,Fog"
"-81.15","43.03","LONDON A","6144473","2020-01-18 16:00","2020","01","18","16:00","1.7","","1.3","","97","","19","","24","","4.0","","96.71","","","","","","Rain Showers,Snow Showers,Fog"
"-81.15","43.03","LONDON A","6144473","2020-01-18 17:00","2020","01","18","17:00","2.6","","2.0","","96","","22","","28","","9.7","","96.62","","","","","","Rain,Fog"
"-81.15","43.03","LONDON A","6144473","2020-01-18 18:00","2020","01","18","18:00","3.0","","2.0","","93","","24","","30","","16.1","","96.62","","","","","","NA"
"-81.15","43.03","LONDON A","6144473","2020-01-18 19:00","2020","01","18","19:00","2.2","","0.2","","87","","27","","30","","24.1","","96.75","","","","","","Cloudy"
"-81.15","43.03","LONDON A","6144473","2020-01-18 20:00","2020","01","18","20:00","0.9","","-0.8","","88","","26","","36","","6.4","","96.86","","","","","","Snow Showers"
"-81.15","43.03","LONDON A","6144473","2020-01-18 21:00","2020","01","18","21:00","0.6","","-1.5","","86","","25","","30","","9.7","","96.88","","","","","","Snow Showers"
"-81.15","43.03","LONDON A","6144473","2020-01-18 22:00","2020","01","18","22:00","0.2","","-1.5","","88","","25","","22","","6.4","","96.92","","","","","","Snow Showers"
"-81.15","43.03","LONDON A","6144473","2020-01-18 23:00","2020","01","18","23:00","-0.5","","-1.8","","91","","26","","21","","4.0","","96.93","","","","-6","","Snow Showers"
"-81.15","43.03","LONDON A","6144473","2020-01-19 00:00","2020","01","19","00:00","-0.8","","-2.4","","88","","27","","26","","6.4","","97.00","","","","-7","","Snow Showers,Blowing Snow"
"-81.15","43.03","LONDON A","6144473","2020-01-19 01:00","2020","01","19","01:00","-0.8","","-3.2","","84","","27","","25","","16.1","","97.02","","","","-7","","Snow Showers"
"-81.15","43.03","LONDON A","6144473","2020-01-19 02:00","2020","01","19","02:00","-1.2","","-3.5","","84","","27","","25","","12.9","","97.11","","","","-7","","Snow Showers,Blowing Snow"
"-81.15","43.03","LONDON A","6144473","2020-01-19 03:00","2020","01","19","03:00","-1.9","","-4.4","","83","","26","","37","","8.1","","97.22","","","","-10","","Snow Showers,Blowing Snow"
"-81.15","43.03","LONDON A","6144473","2020-01-19 04:00","2020","01","19","04:00","-3.2","","-5.4","","85","","26","","35","","9.7","","97.32","","","","-11","","Snow Showers,Blowing Snow"
"-81.15","43.03","LONDON A","6144473","2020-01-19 05:00","2020","01","19","05:00","-4.1","","-6.5","","83","","26","","33","","16.1","","97.43","","","","-12","","Snow Showers,Blowing Snow"
"-81.15","43.03","LONDON A","6144473","2020-01-19 06:00","2020","01","19","06:00","-4.9","","-7.2","","84","","25","","33","","16.1","","97.53","","","","-13","","Snow Showers,Blowing Snow"
"-81.15","43.03","LONDON A","6144473","2020-01-19 07:00","2020","01","19","07:00","-5.1","","-8.0","","80","","27","","23","","16.1","","97.66","","","","-12","","Snow Showers,Blowing Snow"
"-81.15","43.03","LONDON A","6144473","2020-01-19 08:00","2020","01","19","08:00","-5.5","","-7.3","","87","","26","","27","","6.4","","97.72","","","","-13","","Snow Showers,Blowing Snow"
"-81.15","43.03","LONDON A","6144473","2020-01-19 09:00","2020","01","19","09:00","-5.7","","-7.6","","87","","26","","26","","1.6","","97.80","","","","-13","","Snow Showers,Blowing Snow"
"-81.15","43.03","LONDON A","6144473","2020-01-19 10:00","2020","01","19","10:00","-5.9","","-7.4","","89","","25","","26","","1.2","","97.87","","","","-14","","Snow Showers,Blowing Snow"
"-81.15","43.03","LONDON A","6144473","2020-01-19 11:00","2020","01","19","11:00","-5.3","","-7.3","","86","","27","","30","","1.6","","97.96","","","","-13","","Snow,Blowing Snow"
"-81.15","43.03","LONDON A","6144473","2020-01-19 12:00","2020","01","19","12:00","-5.1","","-6.8","","89","","28","","23","","0.6","","98.02","","","","-12","","Moderate Snow,Blowing Snow"
"-81.15","43.03","LONDON A","6144473","2020-01-19 13:00","2020","01","19","13:00","-5.1","","-7.3","","85","","32","","14","","1.6","","98.07","","","","-10","","Snow"
"-81.15","43.03","LONDON A","6144473","2020-01-19 14:00","2020","01","19","14:00","-5.2","","-8.6","","77","","32","","20","","19.3","","98.18","","","","-12","","Snow Showers"
"-81.15","43.03","LONDON A","6144473","2020-01-19 15:00","2020","01","19","15:00","-5.9","","-9.5","","76","","32","","15","","16.1","","98.31","","","","-12","","Snow Showers"
"-81.15","43.03","LONDON A","6144473","2020-01-19 16:00","2020","01","19","16:00","-6.8","","-10.6","","75","","32","","14","","24.1","","98.47","","","","-13","","Mainly Clear"
"-81.15","43.03","LONDON A","6144473","2020-01-19 17:00","2020","01","19","17:00","-7.7","","-11.4","","74","","30","","13","","24.1","","98.59","","","","-13","","NA"
"-81.15","43.03","LONDON A","6144473","2020-01-19 18:00","2020","01","19","18:00","-8.4","","-11.7","","77","","34","","18","","24.1","","98.76","","","","-15","","NA"
"-81.15","43.03","LONDON A","6144473","2020-01-19 19:00","2020","01","19","19:00","-9.3","","-13.0","","75","","35","","17","","24.1","","98.87","","","","-16","","Clear"
"-81.15","43.03","LONDON A","6144473","2020-01-19 20:00","2020","01","19","20:00","-9.5","","-12.9","","76","","33","","14","","24.1","","98.99","","","","-16","","NA"
"-81.15","43.03","LONDON A","6144473","2020-01-19 21:00","2020","01","19","21:00","-9.8","","-13.0","","78","","34","","12","","24.1","","99.06","","","","-16","","NA"
"-81.15","43.03","LONDON A","6144473","2020-01-19 22:00","2020","01","19","22:00","-10.9","","-13.2","","83","","34","","10","","24.1","","99.11","","","","-16","","Clear"
"-81.15","43.03","LONDON A","6144473","2020-01-19 23:00","2020","01","19","23:00","-10.2","","-13.2","","79","","36","","13","","24.1","","99.15","","","","-16","","NA"
"-81.15","43.03","LONDON A","6144473","2020-01-20 00:00","2020","01","20","00:00","-10.8","","-14.0","","78","","35","","10","","24.1","","99.21","","","","-16","","NA"
"-81.15","43.03","LONDON A","6144473","2020-01-20 01:00","2020","01","20","01:00","-11.1","","-13.9","","80","","35","","8","","24.1","","99.23","","","","-16","","Clear"
"-81.15","43.03","LONDON A","6144473","2020-01-20 02:00","2020","01","20","02:00","-13.1","","-14.6","","89","","31","","8","","24.1","","99.28","","","","-18","","NA"
"-81.15","43.03","LONDON A","6144473","2020-01-20 03:00","2020","01","20","03:00","-11.7","","-14.2","","81","","34","","9","","24.1","","99.34","","","","-17","","NA"
"-81.15","43.03","LONDON A","6144473","2020-01-20 04:00","2020","01","20","04:00","-12.4","","-14.6","","84","","34","","5","","24.1","","99.39","","","","-16","","Clear"
"-81.15","43.03","LONDON A","6144473","2020-01-20 05:00","2020","01","20","05:00","-16.0","","-17.4","","89","","27","","7","","24.1","","99.45","","","","-21","","NA"
"-81.15","43.03","LONDON A","6144473","2020-01-20 06:00","2020","01","20","06:00","-15.8","","-17.2","","89","","36","","3","","24.1","","99.54","","","","-18","","NA"
"-81.15","43.03","LONDON A","6144473","2020-01-20 07:00","2020","01","20","07:00","-17.1","","-19.0","","86","","25","","3","","24.1","","99.63","","","","-19","","Mainly Clear"
"-81.15","43.03","LONDON A","6144473","2020-01-20 08:00","2020","01","20","08:00","-16.9","","-18.6","","86","","26","","3","","24.1","","99.70","","","","-19","","NA"
"-81.15","43.03","LONDON A","6144473","2020-01-20 09:00","2020","01","20","09:00","-16.2","","-18.0","","86","","23","","4","","24.1","","99.77","","","","-19","","NA"
"-81.15","43.03","LONDON A","6144473","2020-01-20 10:00","2020","01","20","10:00","-12.2","","-13.7","","88","","22","","4","","24.1","","99.82","","","","-15","","Mainly Clear"
"-81.15","43.03","LONDON A","6144473","2020-01-20 11:00","2020","01","20","11:00","-10.4","","-12.8","","83","","30","","5","","24.1","","99.88","","","","-13","","NA"
"-81.15","43.03","LONDON A","6144473","2020-01-20 12:00","2020","01","20","12:00","-8.4","","-12.9","","70","","35","","6","","24.1","","99.87","","","","-12","","NA"
"-81.15","43.03","LONDON A","6144473","2020-01-20 13:00","2020","01","20","13:00","-7.4","","-12.4","","67","","27","","5","","24.1","","99.84","","","","-10","","Mainly Clear"
"-81.15","43.03","LONDON A","6144473","2020-01-20 14:00","2020","01","20","14:00","-6.5","","-12.0","","65","","30","","5","","24.1","","99.82","","","","-9","","NA"
"-81.15","43.03","LONDON A","6144473","2020-01-20 15:00","2020","01","20","15:00","-6.8","","-12.0","","67","","29","","9","","24.1","","99.83","","","","-11","","NA"
"-81.15","43.03","LONDON A","6144473","2020-01-20 16:00","2020","01","20","16:00","-6.9","","-11.5","","70","","28","","9","","24.1","","99.84","","","","-11","","Snow Showers"
"-81.15","43.03","LONDON A","6144473","2020-01-20 17:00","2020","01","20","17:00","-7.0","","-10.5","","76","","28","","9","","24.1","","99.87","","","","-11","","Snow,Snow Showers"
"-81.15","43.03","LONDON A","6144473","2020-01-20 18:00","2020","01","20","18:00","-7.1","","-9.2","","85","","26","","7","","16.1","","99.88","","","","-11","","Snow Showers"
"-81.15","43.03","LONDON A","6144473","2020-01-20 19:00","2020","01","20","19:00","-6.8","","-8.7","","86","","27","","11","","19.3","","99.89","","","","-12","","Snow Showers"
"-81.15","43.03","LONDON A","6144473","2020-01-20 20:00","2020","01","20","20:00","-6.6","","-9.6","","79","","26","","11","","24.1","","99.88","","","","-12","","Snow Showers"
"-81.15","43.03","LONDON A","6144473","2020-01-20 21:00","2020","01","20","21:00","-6.6","","-10.0","","77","","26","","14","","24.1","","99.87","","","","-12","","Snow Showers"
"-81.15","43.03","LONDON A","6144473","2020-01-20 22:00","2020","01","20","22:00","-6.3","","-10.0","","75","","25","","15","","24.1","","99.87","","","","-12","","Snow Showers"
"-81.15","43.03","LONDON A","6144473","2020-01-20 23:00","2020","01","20","23:00","-6.3","","-10.1","","75","","26","","13","","24.1","","99.88","","","","-12","","Snow Showers"
"-81.15","43.03","LONDON A","6144473","2020-01-21 00:00","2020","01","21","00:00","-6.2","","-9.8","","75","","26","","11","","24.1","","99.90","","","","-11","","NA"
"-81.15","43.03","LONDON A","6144473","2020-01-21 01:00","2020","01","21","01:00","-6.3","","-9.8","","77","","24","","11","","24.1","","99.86","","","","-11","","Snow Showers"
"-81.15","43.03","LONDON A","6144473","2020-01-21 02:00","2020","01","21","02:00","-6.3","","-9.9","","76","","25","","13","","24.1","","99.86","","","","-12","","Snow Showers"
"-81.15","43.03","LONDON A","6144473","2020-01-21 03:00","2020","01","21","03:00","-6.0","","-9.6","","76","","25","","14","","24.1","","99.87","","","","-12","","Snow Showers"
"-81.15","43.03","LONDON A","6144473","2020-01-21 04:00","2020","01","21","04:00","-6.0","","-9.8","","75","","26","","17","","24.1","","99.86","","","","-12","","Snow Showers"
"-81.15","43.03","LONDON A","6144473","2020-01-21 05:00","2020","01","21","05:00","-6.1","","-9.7","","76","","25","","16","","24.1","","99.86","","","","-12","","Snow Showers"
"-81.15","43.03","LONDON A","6144473","2020-01-21 06:00","2020","01","21","06:00","-6.3","","-9.8","","77","","26","","13","","24.1","","99.89","","","","-12","","Snow Showers"
"-81.15","43.03","LONDON A","6144473","2020-01-21 07:00","2020","01","21","07:00","-6.5","","-10.0","","76","","25","","15","","24.1","","99.92","","","","-12","","Snow Showers"
"-81.15","43.03","LONDON A","6144473","2020-01-21 08:00","2020","01","21","08:00","-6.5","","-10.6","","73","","25","","19","","24.1","","99.90","","","","-13","","Snow Showers"
"-81.15","43.03","LONDON A","6144473","2020-01-21 09:00","2020","01","21","09:00","-6.4","","-10.6","","72","","26","","17","","24.1","","99.95","","","","-13","","Snow Showers"
"-81.15","43.03","LONDON A","6144473","2020-01-21 10:00","2020","01","21","10:00","-6.2","","-10.6","","71","","26","","16","","24.1","","99.98","","","","-12","","Snow Showers"
"-81.15","43.03","LONDON A","6144473","2020-01-21 11:00","2020","01","21","11:00","-6.0","","-10.6","","70","","26","","17","","24.1","","99.99","","","","-12","","Snow Showers"
"-81.15","43.03","LONDON A","6144473","2020-01-21 12:00","2020","01","21","12:00","-5.8","","-11.2","","66","","25","","18","","24.1","","99.93","","","","-12","","Snow Showers"
"-81.15","43.03","LONDON A","6144473","2020-01-21 13:00","2020","01","21","13:00","-5.7","","-10.5","","69","","24","","20","","24.1","","99.89","","","","-12","","Cloudy"
"-81.15","43.03","LONDON A","6144473","2020-01-21 14:00","2020","01","21","14:00","-5.2","","-10.7","","66","","26","","18","","24.1","","99.82","","","","-11","","NA"
"-81.15","43.03","LONDON A","6144473","2020-01-21 15:00","2020","01","21","15:00","-5.1","","-10.9","","64","","26","","19","","24.1","","99.79","","","","-12","","NA"
"-81.15","43.03","LONDON A","6144473","2020-01-21 16:00","2020","01","21","16:00","-5.6","","-10.7","","67","","23","","14","","24.1","","99.78","","","","-11","","Mostly Cloudy"
"-81.15","43.03","LONDON A","6144473","2020-01-21 17:00","2020","01","21","17:00","-6.0","","-10.8","","69","","23","","19","","24.1","","99.76","","","","-13","","NA"
"-81.15","43.03","LONDON A","6144473","2020-01-21 18:00","2020","01","21","18:00","-6.7","","-10.6","","74","","20","","13","","24.1","","99.73","","","","-12","","NA"
"-81.15","43.03","LONDON A","6144473","2020-01-21 19:00","2020","01","21","19:00","-7.4","","-10.6","","78","","21","","16","","24.1","","99.74","","","","-14","","Clear"
"-81.15","43.03","LONDON A","6144473","2020-01-21 20:00","2020","01","21","20:00","-8.0","","-11.3","","77","","21","","13","","24.1","","99.72","","","","-14","","NA"
"-81.15","43.03","LONDON A","6144473","2020-01-21 21:00","2020","01","21","21:00","-8.3","","-11.1","","80","","22","","10","","24.1","","99.71","","","","-13","","NA"
"-81.15","43.03","LONDON A","6144473","2020-01-21 22:00","2020","01","21","22:00","-8.2","","-10.9","","81","","21","","12","","24.1","","99.66","","","","-14","","Clear"
"-81.15","43.03","LONDON A","6144473","2020-01-21 23:00","2020","01","21","23:00","-8.4","","-10.7","","84","","23","","8","","24.1","","99.58","","","","-13","","NA"
"-81.15","43.03","LONDON A","6144473","2020-01-22 00:00","2020","01","22","00:00","-7.9","","-10.2","","84","","21","","16","","24.1","","99.54","","","","-14","","NA"
"-81.15","43.03","LONDON A","6144473","2020-01-22 01:00","2020","01","22","01:00","-8.6","","-10.5","","86","","22","","9","","19.3","","99.50","","","","-13","","Mainly Clear"
"-81.15","43.03","LONDON A","6144473","2020-01-22 02:00","2020","01","22","02:00","-7.0","","-9.3","","84","","23","","15","","19.3","","99.49","","","","-13","","NA"
"-81.15","43.03","LONDON A","6144473","2020-01-22 03:00","2020","01","22","03:00","-6.3","","-8.5","","85","","20","","16","","19.3","","99.50","","","","-12","","NA"
"-81.15","43.03","LONDON A","6144473","2020-01-22 04:00","2020","01","22","04:00","-7.0","","-8.5","","89","","21","","13","","19.3","","99.45","","","","-13","","Mainly Clear"
"-81.15","43.03","LONDON A","6144473","2020-01-22 05:00","2020","01","22","05:00","-7.3","","-8.6","","90","","21","","12","","16.1","","99.39","","","","-13","","NA"
"-81.15","43.03","LONDON A","6144473","2020-01-22 06:00","2020","01","22","06:00","-6.3","","-7.7","","90","","22","","16","","24.1","","99.34","","","","-12","","NA"
"-81.15","43.03","LONDON A","6144473","2020-01-22 07:00","2020","01","22","07:00","-6.3","","-8.0","","88","","21","","17","","24.1","","99.35","","","","-13","","Cloudy"
"-81.15","43.03","LONDON A","6144473","2020-01-22 08:00","2020","01","22","08:00","-5.4","","-7.7","","84","","22","","19","","24.1","","99.39","","","","-12","","NA"
"-81.15","43.03","LONDON A","6144473","2020-01-22 09:00","2020","01","22","09:00","-5.0","","-7.4","","83","","23","","19","","24.1","","99.39","","","","-11","","NA"
"-81.15","43.03","LONDON A","6144473","2020-01-22 10:00","2020","01","22","10:00","-4.0","","-7.4","","77","","22","","23","","24.1","","99.39","","","","-11","","Cloudy"
"-81.15","43.03","LONDON A","6144473","2020-01-22 11:00","2020","01","22","11:00","-3.5","","-7.5","","74","","21","","30","","24.1","","99.37","","","","-11","","NA"
"-81.15","43.03","LONDON A","6144473","2020-01-22 12:00","2020","01","22","12:00","-2.5","","-6.3","","75","","20","","32","","24.1","","99.35","","","","-10","","NA"
"-81.15","43.03","LONDON A","6144473","2020-01-22 13:00","2020","01","22","13:00","-1.8","","-6.4","","71","","19","","27","","24.1","","99.26","","","","-8","","Cloudy"
"-81.15","43.03","LONDON A","6144473","2020-01-22 14:00","2020","01","22","14:00","-1.7","","-6.2","","71","","20","","22","","24.1","","99.20","","","","-8","","NA"
"-81.15","43.03","LONDON A","6144473","2020-01-22 15:00","2020","01","22","15:00","-1.6","","-6.5","","69","","19","","24","","24.1","","99.16","","","","-8","","NA"
"-81.15","43.03","LONDON A","6144473","2020-01-22 16:00","2020","01","22","16:00","-2.0","","-6.7","","70","","20","","22","","24.1","","99.20","","","","-8","","Cloudy"
"-81.15","43.03","LONDON A","6144473","2020-01-22 17:00","2020","01","22","17:00","-2.7","","-6.4","","76","","20","","25","","24.1","","99.18","","","","-9","","NA"
"-81.15","43.03","LONDON A","6144473","2020-01-22 18:00","2020","01","22","18:00","-3.1","","-6.1","","80","","19","","18","","24.1","","99.17","","","","-9","","NA"
"-81.15","43.03","LONDON A","6144473","2020-01-22 19:00","2020","01","22","19:00","-3.4","","-6.2","","81","","20","","15","","24.1","","99.20","","","","-9","","Mainly Clear"
"-81.15","43.03","LONDON A","6144473","2020-01-22 20:00","2020","01","22","20:00","-3.3","","-6.6","","78","","19","","13","","24.1","","99.19","","","","-8","","NA"
"-81.15","43.03","LONDON A","6144473","2020-01-22 21:00","2020","01","22","21:00","-4.8","","-7.8","","80","","17","","5","","24.1","","99.16","","","","-7","","NA"
"-81.15","43.03","LONDON A","6144473","2020-01-22 22:00","2020","01","22","22:00","-5.6","","-7.4","","87","","11","","4","","24.1","","99.15","","","","-7","","Mostly Cloudy"
"-81.15","43.03","LONDON A","6144473","2020-01-22 23:00","2020","01","22","23:00","-7.1","","-8.6","","90","","13","","6","","24.1","","99.13","","","","-10","","NA"
"-81.15","43.03","LONDON A","6144473","2020-01-23 00:00","2020","01","23","00:00","-7.7","","-8.9","","91","","10","","7","","24.1","","99.12","","","","-11","","NA"
"-81.15","43.03","LONDON A","6144473","2020-01-23 01:00","2020","01","23","01:00","-7.6","","-8.5","","93","","8","","5","","24.1","","99.10","","","","-10","","Cloudy"
"-81.15","43.03","LONDON A","6144473","2020-01-23 02:00","2020","01","23","02:00","-6.9","","-7.7","","94","","8","","4","","24.1","","99.13","","","","-9","","NA"
"-81.15","43.03","LONDON A","6144473","2020-01-23 03:00","2020","01","23","03:00","-7.2","","-8.6","","90","","13","","7","","24.1","","99.13","","","","-11","","NA"
"-81.15","43.03","LONDON A","6144473","2020-01-23 04:00","2020","01","23","04:00","-7.9","","-9.4","","89","","12","","9","","24.1","","99.05","","","","-12","","Cloudy"
"-81.15","43.03","LONDON A","6144473","2020-01-23 05:00","2020","01","23","05:00","-6.7","","-7.8","","92","","10","","5","","24.1","","99.02","","","","-9","","NA"
"-81.15","43.03","LONDON A","6144473","2020-01-23 06:00","2020","01","23","06:00","-6.9","","-8.1","","91","","10","","5","","24.1","","99.01","","","","-9","","NA"
"-81.15","43.03","LONDON A","6144473","2020-01-23 07:00","2020","01","23","07:00","-5.9","","-7.2","","90","","12","","8","","24.1","","99.06","","","","-10","","Mostly Cloudy"
"-81.15","43.03","LONDON A","6144473","2020-01-23 08:00","2020","01","23","08:00","-6.7","","-7.7","","92","","11","","9","","16.1","","99.06","","","","-11","","NA"
"-81.15","43.03","LONDON A","6144473","2020-01-23 09:00","2020","01","23","09:00","-5.4","","-6.5","","92","","9","","7","","14.5","","99.06","","","","-9","","NA"
"-81.15","43.03","LONDON A","6144473","2020-01-23 10:00","2020","01","23","10:00","-4.4","","-5.9","","90","","9","","6","","12.9","","99.09","","","","-7","","Mostly Cloudy"
"-81.15","43.03","LONDON A","6144473","2020-01-23 11:00","2020","01","23","11:00","-2.5","","-4.8","","85","","9","","4","","14.5","","99.11","","","","-4","","NA"
"-81.15","43.03","LONDON A","6144473","2020-01-23 12:00","2020","01","23","12:00","-0.3","","-3.5","","79","","12","","10","","19.3","","99.03","","","","-4","","NA"
"-81.15","43.03","LONDON A","6144473","2020-01-23 13:00","2020","01","23","13:00","1.3","","-4.0","","68","","13","","9","","19.3","","98.97","","","","","","Cloudy"
"-81.15","43.03","LONDON A","6144473","2020-01-23 14:00","2020","01","23","14:00","1.7","","-4.3","","65","","12","","9","","24.1","","98.94","","","","","","NA"
"-81.15","43.03","LONDON A","6144473","2020-01-23 15:00","2020","01","23","15:00","1.9","","-4.2","","64","","12","","13","","24.1","","98.97","","","","","","NA"
"-81.15","43.03","LONDON A","6144473","2020-01-23 16:00","2020","01","23","16:00","1.3","","-3.5","","70","","11","","8","","24.1","","98.95","","","","","","Cloudy"
"-81.15","43.03","LONDON A","6144473","2020-01-23 17:00","2020","01","23","17:00","1.1","","-3.7","","70","","10","","15","","24.1","","98.92","","","","","","NA"
"-81.15","43.03","LONDON A","6144473","2020-01-23 18:00","2020","01","23","18:00","0.5","","-3.8","","73","","10","","12","","24.1","","98.96","","","","","","NA"
"-81.15","43.03","LONDON A","6144473","2020-01-23 19:00","2020","01","23","19:00","0.2","","-3.9","","74","","9","","10","","24.1","","99.02","","","","","","Cloudy"
"-81.15","43.03","LONDON A","6144473","2020-01-23 20:00","2020","01","23","20:00","-0.2","","-3.9","","76","","9","","13","","24.1","","99.02","","","","-4","","NA"
"-81.15","43.03","LONDON A","6144473","2020-01-23 21:00","2020","01","23","21:00","0.0","","-5.7","","66","","10","","13","","24.1","","98.99","","","","-4","","NA"
"-81.15","43.03","LONDON A","6144473","2020-01-23 22:00","2020","01","23","22:00","-0.4","","-5.2","","71","","9","","10","","24.1","","98.97","","","","-4","","Cloudy"
"-81.15","43.03","LONDON A","6144473","2020-01-23 23:00","2020","01","23","23:00","0.0","","-5.4","","67","","8","","13","","24.1","","98.95","","","","-4","","NA"
"-81.15","43.03","LONDON A","6144473","2020-01-24 00:00","2020","01","24","00:00","0.1","","-4.6","","71","","7","","18","","24.1","","98.93","","","","","","NA"
"-81.15","43.03","LONDON A","6144473","2020-01-24 01:00","2020","01","24","01:00","0.1","","-3.7","","76","","8","","21","","24.1","","98.88","","","","","","Cloudy"
"-81.15","43.03","LONDON A","6144473","2020-01-24 02:00","2020","01","24","02:00","0.0","","-3.5","","77","","9","","10","","24.1","","98.90","","","","-3","","NA"
"-81.15","43.03","LONDON A","6144473","2020-01-24 03:00","2020","01","24","03:00","0.4","","-3.9","","73","","8","","15","","24.1","","98.86","","","","","","NA"
"-81.15","43.03","LONDON A","6144473","2020-01-24 04:00","2020","01","24","04:00","0.3","","-4.4","","71","","8","","19","","24.1","","98.82","","","","","","Cloudy"
"-81.15","43.03","LONDON A","6144473","2020-01-24 05:00","2020","01","24","05:00","0.4","","-4.7","","69","","7","","17","","24.1","","98.79","","","","","","NA"
"-81.15","43.03","LONDON A","6144473","2020-01-24 06:00","2020","01","24","06:00","0.5","","-3.6","","74","","7","","16","","24.1","","98.77","","","","","","NA"
"-81.15","43.03","LONDON A","6144473","2020-01-24 07:00","2020","01","24","07:00","0.7","","-2.4","","80","","8","","23","","24.1","","98.76","","","","","","Rain Showers"
"-81.15","43.03","LONDON A","6144473","2020-01-24 08:00","2020","01","24","08:00","1.1","","-1.9","","80","","7","","28","","19.3","","98.66","","","","","","NA"
"-81.15","43.03","LONDON A","6144473","2020-01-24 09:00","2020","01","24","09:00","1.3","","-1.7","","81","","7","","28","","19.3","","98.61","","","","","","NA"
"-81.15","43.03","LONDON A","6144473","2020-01-24 10:00","2020","01","24","10:00","1.6","","-1.0","","83","","11","","28","","19.3","","98.74","","","","","","Cloudy"
"-81.15","43.03","LONDON A","6144473","2020-01-24 11:00","2020","01","24","11:00","1.9","","-1.0","","81","","8","","26","","19.3","","98.67","","","","","","NA"
"-81.15","43.03","LONDON A","6144473","2020-01-24 12:00","2020","01","24","12:00","2.7","","-1.6","","74","","9","","28","","24.1","","98.60","","","","","","NA"
"-81.15","43.03","LONDON A","6144473","2020-01-24 13:00","2020","01","24","13:00","2.7","","-1.6","","73","","9","","30","","19.3","","98.50","","","","","","Rain Showers"
"-81.15","43.03","LONDON A","6144473","2020-01-24 14:00","2020","01","24","14:00","2.1","","-1.1","","79","","8","","27","","12.9","","98.34","","","","","","Rain Showers"
"-81.15","43.03","LONDON A","6144473","2020-01-24 15:00","2020","01","24","15:00","1.5","","-0.6","","86","","8","","25","","9.7","","98.25","","","","","","Rain,Fog"
"-81.15","43.03","LONDON A","6144473","2020-01-24 16:00","2020","01","24","16:00","1.2","","-0.7","","87","","9","","28","","8.1","","98.20","","","","","","Rain,Fog"
"-81.15","43.03","LONDON A","6144473","2020-01-24 17:00","2020","01","24","17:00","1.0","","-0.5","","90","","8","","34","","9.7","","98.11","","","","","","Rain,Fog"
"-81.15","43.03","LONDON A","6144473","2020-01-24 18:00","2020","01","24","18:00","1.3","","0.2","","92","","10","","24","","9.7","","98.10","","","","","","Rain,Fog"
"-81.15","43.03","LONDON A","6144473","2020-01-24 19:00","2020","01","24","19:00","1.6","","1.0","","96","","9","","26","","8.1","","98.04","","","","","","Rain,Fog"
"-81.15","43.03","LONDON A","6144473","2020-01-24 20:00","2020","01","24","20:00","1.9","","1.3","","96","","9","","26","","6.4","","98.02","","","","","","Moderate Rain,Fog"
"-81.15","43.03","LONDON A","6144473","2020-01-24 21:00","2020","01","24","21:00","2.5","","2.0","","97","","9","","30","","4.8","","97.95","","","","","","Moderate Rain,Fog"
"-81.15","43.03","LONDON A","6144473","2020-01-24 22:00","2020","01","24","22:00","2.8","","2.4","","98","","11","","23","","11.3","","97.94","","","","","","Rain"
"-81.15","43.03","LONDON A","6144473","2020-01-24 23:00","2020","01","24","23:00","3.2","","2.8","","97","","12","","26","","12.9","","97.92","","","","","","NA"
"-81.15","43.03","LONDON A","6144473","2020-01-25 00:00","2020","01","25","00:00","3.2","","2.7","","97","","12","","21","","12.9","","97.91","","","","","","Rain"
"-81.15","43.03","LONDON A","6144473","2020-01-25 01:00","2020","01","25","01:00","2.8","","2.3","","97","","12","","20","","9.7","","97.83","","","","","","Rain,Fog"
"-81.15","43.03","LONDON A","6144473","2020-01-25 02:00","2020","01","25","02:00","2.4","","2.2","","99","","13","","10","","3.2","","97.84","","","","","","Drizzle,Fog"
"-81.15","43.03","LONDON A","6144473","2020-01-25 03:00","2020","01","25","03:00","2.0","","1.9","","99","","10","","11","","1.6","","97.81","","","","","","Rain,Fog"
"-81.15","43.03","LONDON A","6144473","2020-01-25 04:00","2020","01","25","04:00","1.9","","1.9","","100","","10","","8","","1.2","","97.75","","","","","","Rain,Fog"
"-81.15","43.03","LONDON A","6144473","2020-01-25 05:00","2020","01","25","05:00","1.9","","1.8","","100","","9","","10","","0.6","","97.68","","","","","","Drizzle,Fog"
"-81.15","43.03","LONDON A","6144473","2020-01-25 06:00","2020","01","25","06:00","2.1","","2.0","","100","","9","","14","","1.6","","97.61","","","","","","Rain,Fog"
"-81.15","43.03","LONDON A","6144473","2020-01-25 07:00","2020","01","25","07:00","2.2","","2.2","","100","","11","","13","","2.4","","97.64","","","","","","Drizzle,Fog"
"-81.15","43.03","LONDON A","6144473","2020-01-25 08:00","2020","01","25","08:00","2.0","","1.9","","100","","11","","10","","1.6","","97.64","","","","","","Rain,Fog"
"-81.15","43.03","LONDON A","6144473","2020-01-25 09:00","2020","01","25","09:00","1.7","","1.7","","100","","11","","13","","1.2","","97.66","","","","","","Rain,Fog"
"-81.15","43.03","LONDON A","6144473","2020-01-25 10:00","2020","01","25","10:00","2.0","","2.0","","100","","22","","13","","1.6","","97.70","","","","","","Rain,Fog"
"-81.15","43.03","LONDON A","6144473","2020-01-25 11:00","2020","01","25","11:00","2.0","","1.6","","97","","22","","7","","12.9","","97.71","","","","","","Rain"
"-81.15","43.03","LONDON A","6144473","2020-01-25 12:00","2020","01","25","12:00","2.2","","1.2","","93","","22","","22","","16.1","","97.67","","","","","","Rain"
"-81.15","43.03","LONDON A","6144473","2020-01-25 13:00","2020","01","25","13:00","1.8","","0.9","","94","","23","","16","","19.3","","97.64","","","","","","Cloudy"
"-81.15","43.03","LONDON A","6144473","2020-01-25 14:00","2020","01","25","14:00","1.8","","1.1","","94","","23","","16","","16.1","","97.62","","","","","","NA"
"-81.15","43.03","LONDON A","6144473","2020-01-25 15:00","2020","01","25","15:00","1.8","","0.8","","93","","24","","15","","16.1","","97.60","","","","","","NA"
"-81.15","43.03","LONDON A","6144473","2020-01-25 16:00","2020","01","25","16:00","1.5","","0.6","","93","","24","","10","","12.9","","97.59","","","","","","Cloudy"
"-81.15","43.03","LONDON A","6144473","2020-01-25 17:00","2020","01","25","17:00","1.4","","0.1","","91","","23","","11","","16.1","","97.61","","","","","","NA"
"-81.15","43.03","LONDON A","6144473","2020-01-25 18:00","2020","01","25","18:00","1.3","","0.0","","91","","23","","10","","19.3","","97.62","","","","","","NA"
"-81.15","43.03","LONDON A","6144473","2020-01-25 19:00","2020","01","25","19:00","1.3","","-0.3","","89","","21","","14","","24.1","","97.63","","","","","","Mostly Cloudy"
"-81.15","43.03","LONDON A","6144473","2020-01-25 20:00","2020","01","25","20:00","1.1","","-0.4","","90","","22","","11","","19.3","","97.62","","","","","","Snow"
"-81.15","43.03","LONDON A","6144473","2020-01-25 21:00","2020","01","25","21:00","0.6","","-0.3","","94","","21","","11","","11.3","","97.57","","","","","","Snow"
"-81.15","43.03","LONDON A","6144473","2020-01-25 22:00","2020","01","25","22:00","0.3","","-0.3","","96","","21","","15","","11.3","","97.51","","","","","","Snow"
"-81.15","43.03","LONDON A","6144473","2020-01-25 23:00","2020","01","25","23:00","0.2","","-0.6","","95","","22","","19","","12.9","","97.47","","","","","","Snow"
"-81.15","43.03","LONDON A","6144473","2020-01-26 00:00","2020","01","26","00:00","0.1","","-0.8","","94","","23","","19","","24.1","","97.45","","","","","","Snow"
"-81.15","43.03","LONDON A","6144473","2020-01-26 01:00","2020","01","26","01:00","0.0","","-0.5","","96","","25","","13","","24.1","","97.43","","","","-4","","Snow"
"-81.15","43.03","LONDON A","6144473","2020-01-26 02:00","2020","01","26","02:00","0.0","","-0.4","","97","","25","","16","","4.8","","97.44","","","","-5","","Snow,Fog"
"-81.15","43.03","LONDON A","6144473","2020-01-26 03:00","2020","01","26","03:00","0.1","","-0.4","","97","","25","","17","","3.2","","97.45","","","","","","Snow,Fog"
"-81.15","43.03","LONDON A","6144473","2020-01-26 04:00","2020","01","26","04:00","0.2","","-0.4","","96","","24","","18","","9.7","","97.44","","","","","","Fog"
"-81.15","43.03","LONDON A","6144473","2020-01-26 05:00","2020","01","26","05:00","0.2","","-0.2","","97","","25","","16","","3.2","","97.45","","","","","","Snow,Fog"
"-81.15","43.03","LONDON A","6144473","2020-01-26 06:00","2020","01","26","06:00","0.2","","-0.2","","98","","25","","18","","2.4","","97.43","","","","","","Snow,Fog"
"-81.15","43.03","LONDON A","6144473","2020-01-26 07:00","2020","01","26","07:00","0.3","","-0.2","","97","","25","","19","","6.4","","97.45","","","","","","Snow"
"-81.15","43.03","LONDON A","6144473","2020-01-26 08:00","2020","01","26","08:00","0.3","","-0.1","","97","","25","","18","","4.0","","97.48","","","","","","Snow,Fog"
"-81.15","43.03","LONDON A","6144473","2020-01-26 09:00","2020","01","26","09:00","0.5","","0.3","","99","","25","","20","","3.2","","97.48","","","","","","Fog"
"-81.15","43.03","LONDON A","6144473","2020-01-26 10:00","2020","01","26","10:00","1.0","","-0.1","","93","","24","","21","","12.9","","97.49","","","","","","Cloudy"
"-81.15","43.03","LONDON A","6144473","2020-01-26 11:00","2020","01","26","11:00","1.1","","0.0","","93","","24","","18","","12.9","","97.50","","","","","","NA"
"-81.15","43.03","LONDON A","6144473","2020-01-26 12:00","2020","01","26","12:00","0.9","","0.2","","95","","24","","23","","4.8","","97.43","","","","","","Snow,Fog"
"-81.15","43.03","LONDON A","6144473","2020-01-26 13:00","2020","01","26","13:00","1.1","","0.4","","95","","23","","21","","4.8","","97.38","","","","","","Snow Grains,Fog"
"-81.15","43.03","LONDON A","6144473","2020-01-26 14:00","2020","01","26","14:00","1.1","","0.4","","95","","24","","21","","4.8","","97.32","","","","","","Snow Grains,Fog"
"-81.15","43.03","LONDON A","6144473","2020-01-26 15:00","2020","01","26","15:00","1.0","","0.4","","96","","23","","25","","2.4","","97.27","","","","","","Snow,Fog"
"-81.15","43.03","LONDON A","6144473","2020-01-26 16:00","2020","01","26","16:00","0.8","","0.3","","96","","24","","20","","2.0","","97.27","","","","","","Snow Pellets,Fog"
"-81.15","43.03","LONDON A","6144473","2020-01-26 17:00","2020","01","26","17:00","0.6","","0.2","","97","","29","","16","","1.6","","97.27","","","","","","Snow,Fog"
"-81.15","43.03","LONDON A","6144473","2020-01-26 18:00","2020","01","26","18:00","0.3","","-0.1","","97","","26","","17","","2.4","","97.30","","","","","","Snow,Fog"
"-81.15","43.03","LONDON A","6144473","2020-01-26 19:00","2020","01","26","19:00","0.2","","-0.3","","96","","26","","21","","2.4","","97.32","","","","","","Snow,Fog"
"-81.15","43.03","LONDON A","6144473","2020-01-26 20:00","2020","01","26","20:00","0.3","","-0.4","","95","","26","","18","","16.1","","97.34","","","","","","Snow Grains"
"-81.15","43.03","LONDON A","6144473","2020-01-26 21:00","2020","01","26","21:00","0.2","","-0.4","","96","","27","","23","","4.8","","97.33","","","","","","Snow"
"-81.15","43.03","LONDON A","6144473","2020-01-26 22:00","2020","01","26","22:00","0.1","","-0.5","","96","","26","","17","","4.8","","97.32","","","","","","Snow"
"-81.15","43.03","LONDON A","6144473","2020-01-26 23:00","2020","01","26","23:00","0.0","","-0.6","","95","","28","","14","","9.7","","97.34","","","","-4","","NA"
"-81.15","43.03","LONDON A","6144473","2020-01-27 00:00","2020","01","27","00:00","0.0","","-0.8","","94","","28","","16","","24.1","","97.37","","","","-5","","NA"
"-81.15","43.03","LONDON A","6144473","2020-01-27 01:00","2020","01","27","01:00","-0.2","","-1.1","","94","","30","","16","","24.1","","97.37","","","","-5","","Cloudy"
"-81.15","43.03","LONDON A","6144473","2020-01-27 02:00","2020","01","27","02:00","-0.4","","-1.4","","93","","29","","13","","24.1","","97.35","","","","-5","","NA"
"-81.15","43.03","LONDON A","6144473","2020-01-27 03:00","2020","01","27","03:00","-0.5","","-1.1","","95","","28","","10","","6.4","","97.38","","","","-4","","Snow"
"-81.15","43.03","LONDON A","6144473","2020-01-27 04:00","2020","01","27","04:00","-0.5","","-1.4","","94","","28","","15","","24.1","","97.37","","","","-5","","Snow"
"-81.15","43.03","LONDON A","6144473","2020-01-27 05:00","2020","01","27","05:00","-0.6","","-1.5","","93","","29","","12","","24.1","","97.38","","","","-5","","Snow"
"-81.15","43.03","LONDON A","6144473","2020-01-27 06:00","2020","01","27","06:00","-0.7","","-1.2","","97","","28","","13","","2.8","","97.38","","","","-5","","Snow Showers"
"-81.15","43.03","LONDON A","6144473","2020-01-27 07:00","2020","01","27","07:00","-0.5","","-1.1","","96","","28","","12","","4.8","","97.40","","","","-4","","Snow Showers"
"-81.15","43.03","LONDON A","6144473","2020-01-27 08:00","2020","01","27","08:00","-0.3","","-1.4","","93","","31","","13","","19.3","","97.47","","","","-4","","Snow Showers"
"-81.15","43.03","LONDON A","6144473","2020-01-27 09:00","2020","01","27","09:00","-0.5","","-1.9","","90","","32","","12","","24.1","","97.53","","","","-4","","NA"
"-81.15","43.03","LONDON A","6144473","2020-01-27 10:00","2020","01","27","10:00","-0.5","","-2.3","","88","","33","","17","","24.1","","97.58","","","","-5","","Cloudy"
"-81.15","43.03","LONDON A","6144473","2020-01-27 11:00","2020","01","27","11:00","-0.6","","-2.7","","86","","33","","19","","24.1","","97.63","","","","-6","","Snow"
"-81.15","43.03","LONDON A","6144473","2020-01-27 12:00","2020","01","27","12:00","-0.5","","-2.6","","86","","33","","14","","24.1","","97.64","","","","-5","","Snow"
"-81.15","43.03","LONDON A","6144473","2020-01-27 13:00","2020","01","27","13:00","-0.4","","-2.4","","86","","32","","12","","24.1","","97.62","","","","-4","","Snow Grains"
"-81.15","43.03","LONDON A","6144473","2020-01-27 14:00","2020","01","27","14:00","-0.2","","-2.3","","86","","32","","17","","24.1","","97.62","","","","-5","","Snow Grains"
"-81.15","43.03","LONDON A","6144473","2020-01-27 15:00","2020","01","27","15:00","0.1","","-1.8","","87","","34","","12","","24.1","","97.63","","","","","","NA"
"-81.15","43.03","LONDON A","6144473","2020-01-27 16:00","2020","01","27","16:00","0.2","","-1.6","","88","","31","","13","","24.1","","97.68","","","","","","Cloudy"
"-81.15","43.03","LONDON A","6144473","2020-01-27 17:00","2020","01","27","17:00","0.1","","-1.4","","90","","32","","13","","24.1","","97.73","","","","","","NA"
"-81.15","43.03","LONDON A","6144473","2020-01-27 18:00","2020","01","27","18:00","-0.1","","-1.5","","90","","32","","16","","24.1","","97.80","","","","-5","","NA"
"-81.15","43.03","LONDON A","6144473","2020-01-27 19:00","2020","01","27","19:00","-0.2","","-1.5","","91","","31","","15","","24.1","","97.85","","","","-5","","Cloudy"
"-81.15","43.03","LONDON A","6144473","2020-01-27 20:00","2020","01","27","20:00","-0.3","","-1.5","","91","","32","","13","","24.1","","97.90","","","","-4","","NA"
"-81.15","43.03","LONDON A","6144473","2020-01-27 21:00","2020","01","27","21:00","-0.2","","-1.4","","92","","31","","11","","24.1","","97.92","","","","-4","","NA"
"-81.15","43.03","LONDON A","6144473","2020-01-27 22:00","2020","01","27","22:00","-0.4","","-0.9","","97","","30","","10","","6.4","","97.93","","","","-4","","Snow"
"-81.15","43.03","LONDON A","6144473","2020-01-27 23:00","2020","01","27","23:00","-0.4","","-1.1","","95","","31","","10","","24.1","","97.94","","","","-4","","NA"
"-81.15","43.03","LONDON A","6144473","2020-01-28 00:00","2020","01","28","00:00","-0.4","","-1.3","","93","","30","","8","","24.1","","97.95","","","","-3","","Snow"
"-81.15","43.03","LONDON A","6144473","2020-01-28 01:00","2020","01","28","01:00","-0.4","","-1.4","","93","","29","","10","","24.1","","97.96","","","","-4","","Cloudy"
"-81.15","43.03","LONDON A","6144473","2020-01-28 02:00","2020","01","28","02:00","-0.5","","-1.3","","94","","30","","8","","24.1","","97.97","","","","-3","","NA"
"-81.15","43.03","LONDON A","6144473","2020-01-28 03:00","2020","01","28","03:00","-0.6","","-1.6","","92","","30","","11","","24.1","","97.99","","","","-4","","Snow"
"-81.15","43.03","LONDON A","6144473","2020-01-28 04:00","2020","01","28","04:00","-0.8","","-1.4","","96","","30","","7","","3.2","","97.99","","","","-3","","Snow"
"-81.15","43.03","LONDON A","6144473","2020-01-28 05:00","2020","01","28","05:00","-0.7","","-2.1","","91","","31","","9","","24.1","","98.01","","","","-4","","Snow"
"-81.15","43.03","LONDON A","6144473","2020-01-28 06:00","2020","01","28","06:00","-0.7","","-1.7","","93","","29","","8","","12.9","","98.06","","","","-4","","Snow"
"-81.15","43.03","LONDON A","6144473","2020-01-28 07:00","2020","01","28","07:00","-1.0","","-2.4","","90","","29","","8","","19.3","","98.10","","","","-4","","Snow"
"-81.15","43.03","LONDON A","6144473","2020-01-28 08:00","2020","01","28","08:00","-1.1","","-3.0","","87","","29","","7","","19.3","","98.14","","","","-4","","Snow"
"-81.15","43.03","LONDON A","6144473","2020-01-28 09:00","2020","01","28","09:00","-1.0","","-2.9","","87","","30","","8","","24.1","","98.20","","","","-4","","Snow"
"-81.15","43.03","LONDON A","6144473","2020-01-28 10:00","2020","01","28","10:00","-0.8","","-2.8","","87","","30","","12","","24.1","","98.23","","","","-5","","Mostly Cloudy"
"-81.15","43.03","LONDON A","6144473","2020-01-28 11:00","2020","01","28","11:00","-0.8","","-2.4","","89","","31","","9","","12.9","","98.26","","","","-4","","Freezing Drizzle"
"-81.15","43.03","LONDON A","6144473","2020-01-28 12:00","2020","01","28","12:00","-0.9","","-2.3","","90","","31","","12","","8.1","","98.22","","","","-5","","Snow Grains,Snow Showers"
"-81.15","43.03","LONDON A","6144473","2020-01-28 13:00","2020","01","28","13:00","-0.7","","-3.4","","82","","33","","17","","24.1","","98.15","","","","-6","","Mostly Cloudy"
"-81.15","43.03","LONDON A","6144473","2020-01-28 14:00","2020","01","28","14:00","-0.7","","-3.5","","82","","31","","11","","24.1","","98.16","","","","-4","","NA"
"-81.15","43.03","LONDON A","6144473","2020-01-28 15:00","2020","01","28","15:00","-0.5","","-4.5","","74","","33","","17","","24.1","","98.18","","","","-5","","NA"
"-81.15","43.03","LONDON A","6144473","2020-01-28 16:00","2020","01","28","16:00","-1.2","","-4.0","","81","","30","","19","","24.1","","98.23","","","","-7","","Cloudy"
"-81.15","43.03","LONDON A","6144473","2020-01-28 17:00","2020","01","28","17:00","-1.5","","-4.0","","83","","32","","13","","24.1","","98.28","","","","-6","","NA"
"-81.15","43.03","LONDON A","6144473","2020-01-28 18:00","2020","01","28","18:00","-1.8","","-4.4","","83","","31","","11","","24.1","","98.36","","","","-6","","NA"
"-81.15","43.03","LONDON A","6144473","2020-01-28 19:00","2020","01","28","19:00","-2.1","","-5.7","","77","","31","","10","","24.1","","98.42","","","","-6","","Cloudy"
"-81.15","43.03","LONDON A","6144473","2020-01-28 20:00","2020","01","28","20:00","-2.4","","-6.0","","76","","35","","15","","24.1","","98.48","","","","-7","","NA"
"-81.15","43.03","LONDON A","6144473","2020-01-28 21:00","2020","01","28","21:00","-2.9","","-5.2","","84","","27","","7","","24.1","","98.48","","","","-6","","NA"
"-81.15","43.03","LONDON A","6144473","2020-01-28 22:00","2020","01","28","22:00","-2.6","","-4.9","","84","","29","","10","","19.3","","98.51","","","","-6","","Cloudy"
"-81.15","43.03","LONDON A","6144473","2020-01-28 23:00","2020","01","28","23:00","-2.3","","-4.3","","86","","33","","7","","24.1","","98.52","","","","-5","","NA"
"-81.15","43.03","LONDON A","6144473","2020-01-29 00:00","2020","01","29","00:00","-2.3","","-4.1","","88","","33","","7","","24.1","","98.56","","","","-5","","NA"
"-81.15","43.03","LONDON A","6144473","2020-01-29 01:00","2020","01","29","01:00","-2.3","","-4.4","","86","","36","","13","","19.3","","98.57","","","","-7","","Ice Pellets"
"-81.15","43.03","LONDON A","6144473","2020-01-29 02:00","2020","01","29","02:00","-2.5","","-4.8","","84","","36","","11","","19.3","","98.59","","","","-7","","Freezing Drizzle"
"-81.15","43.03","LONDON A","6144473","2020-01-29 03:00","2020","01","29","03:00","-2.6","","-5.1","","83","","2","","5","","19.3","","98.60","","","","-5","","NA"
"-81.15","43.03","LONDON A","6144473","2020-01-29 04:00","2020","01","29","04:00","-2.8","","-5.0","","85","","3","","7","","24.1","","98.62","","","","-6","","Cloudy"
"-81.15","43.03","LONDON A","6144473","2020-01-29 05:00","2020","01","29","05:00","-2.8","","-5.8","","80","","35","","10","","24.1","","98.67","","","","-7","","NA"
"-81.15","43.03","LONDON A","6144473","2020-01-29 06:00","2020","01","29","06:00","-3.0","","-5.9","","80","","1","","11","","24.1","","98.75","","","","-7","","Snow"
"-81.15","43.03","LONDON A","6144473","2020-01-29 07:00","2020","01","29","07:00","-3.3","","-6.2","","80","","32","","13","","24.1","","98.81","","","","-8","","Snow"
"-81.15","43.03","LONDON A","6144473","2020-01-29 08:00","2020","01","29","08:00","-3.3","","-6.1","","81","","35","","7","","24.1","","98.88","","","","-6","","NA"
"-81.15","43.03","LONDON A","6144473","2020-01-29 09:00","2020","01","29","09:00","-3.1","","-6.6","","77","","36","","9","","24.1","","98.93","","","","-7","","NA"
"-81.15","43.03","LONDON A","6144473","2020-01-29 10:00","2020","01","29","10:00","-3.2","","-7.5","","72","","6","","7","","24.1","","98.98","","","","-6","","Cloudy"
"-81.15","43.03","LONDON A","6144473","2020-01-29 11:00","2020","01","29","11:00","-2.6","","-7.6","","69","","8","","9","","24.1","","99.00","","","","-6","","NA"
"-81.15","43.03","LONDON A","6144473","2020-01-29 12:00","2020","01","29","12:00","-2.4","","-7.3","","69","","9","","8","","24.1","","98.96","","","","-6","","NA"
"-81.15","43.03","LONDON A","6144473","2020-01-29 13:00","2020","01","29","13:00","-2.0","","-7.0","","69","","9","","6","","24.1","","98.93","","","","-4","","Cloudy"
"-81.15","43.03","LONDON A","6144473","2020-01-29 14:00","2020","01","29","14:00","-1.6","","-7.6","","64","","2","","8","","24.1","","98.87","","","","-5","","NA"
"-81.15","43.03","LONDON A","6144473","2020-01-29 15:00","2020","01","29","15:00","-1.9","","-7.0","","68","","3","","13","","24.1","","98.85","","","","-6","","NA"
"-81.15","43.03","LONDON A","6144473","2020-01-29 16:00","2020","01","29","16:00","-1.7","","-6.5","","70","","6","","10","","24.1","","98.86","","","","-5","","Mostly Cloudy"
"-81.15","43.03","LONDON A","6144473","2020-01-29 17:00","2020","01","29","17:00","-3.0","","-7.3","","72","","6","","5","","24.1","","98.86","","","","-5","","NA"
"-81.15","43.03","LONDON A","6144473","2020-01-29 18:00","2020","01","29","18:00","-3.7","","-7.3","","76","","6","","5","","24.1","","98.89","","","","-6","","NA"
"-81.15","43.03","LONDON A","6144473","2020-01-29 19:00","2020","01","29","19:00","-4.9","","-6.4","","89","","5","","4","","24.1","","98.96","","","","-7","","Mostly Cloudy"
"-81.15","43.03","LONDON A","6144473","2020-01-29 20:00","2020","01","29","20:00","-4.8","","-7.5","","82","","6","","8","","24.1","","99.03","","","","-8","","NA"
"-81.15","43.03","LONDON A","6144473","2020-01-29 21:00","2020","01","29","21:00","-4.9","","-7.6","","82","","6","","9","","24.1","","99.02","","","","-9","","NA"
"-81.15","43.03","LONDON A","6144473","2020-01-29 22:00","2020","01","29","22:00","-5.2","","-7.4","","84","","6","","7","","24.1","","99.05","","","","-8","","Mostly Cloudy"
"-81.15","43.03","LONDON A","6144473","2020-01-29 23:00","2020","01","29","23:00","-5.0","","-7.5","","82","","7","","7","","24.1","","99.05","","","","-8","","NA"
"-81.15","43.03","LONDON A","6144473","2020-01-30 00:00","2020","01","30","00:00","-5.2","","-7.5","","84","","7","","5","","24.1","","99.04","","","","-7","","NA"
"-81.15","43.03","LONDON A","6144473","2020-01-30 01:00","2020","01","30","01:00","-5.4","","-7.4","","86","","8","","8","","24.1","","99.03","","","","-9","","Cloudy"
"-81.15","43.03","LONDON A","6144473","2020-01-30 02:00","2020","01","30","02:00","-5.9","","-7.4","","89","","8","","8","","24.1","","99.00","","","","-10","","NA"
"-81.15","43.03","LONDON A","6144473","2020-01-30 03:00","2020","01","30","03:00","-6.1","","-7.5","","90","","8","","9","","24.1","","98.99","","","","-10","","NA"
"-81.15","43.03","LONDON A","6144473","2020-01-30 04:00","2020","01","30","04:00","-6.2","","-7.6","","90","","7","","7","","24.1","","98.98","","","","-10","","Cloudy"
"-81.15","43.03","LONDON A","6144473","2020-01-30 05:00","2020","01","30","05:00","-6.4","","-7.8","","90","","8","","7","","24.1","","98.99","","","","-10","","NA"
"-81.15","43.03","LONDON A","6144473","2020-01-30 06:00","2020","01","30","06:00","-7.2","","-8.1","","93","","5","","4","","19.3","","99.00","","","","-9","","NA"
"-81.15","43.03","LONDON A","6144473","2020-01-30 07:00","2020","01","30","07:00","-7.4","","-8.6","","91","","8","","8","","19.3","","99.05","","","","-11","","Cloudy"
"-81.15","43.03","LONDON A","6144473","2020-01-30 08:00","2020","01","30","08:00","-7.1","","-8.5","","90","","9","","8","","16.1","","99.07","","","","-11","","NA"
"-81.15","43.03","LONDON A","6144473","2020-01-30 09:00","2020","01","30","09:00","-6.2","","-8.0","","87","","9","","9","","16.1","","99.09","","","","-10","","NA"
"-81.15","43.03","LONDON A","6144473","2020-01-30 10:00","2020","01","30","10:00","-5.2","","-7.6","","83","","9","","8","","19.3","","99.12","","","","-9","","Cloudy"
"-81.15","43.03","LONDON A","6144473","2020-01-30 11:00","2020","01","30","11:00","-4.1","","-7.4","","78","","7","","11","","19.3","","99.11","","","","-9","","NA"
"-81.15","43.03","LONDON A","6144473","2020-01-30 12:00","2020","01","30","12:00","-2.5","","-6.1","","76","","8","","9","","19.3","","99.06","","","","-6","","NA"
"-81.15","43.03","LONDON A","6144473","2020-01-30 13:00","2020","01","30","13:00","-1.8","","-7.2","","67","","4","","8","","24.1","","98.99","","","","-5","","Cloudy"
"-81.15","43.03","LONDON A","6144473","2020-01-30 14:00","2020","01","30","14:00","-1.3","","-7.5","","63","","3","","5","","24.1","","98.94","","","","-3","","NA"
"-81.15","43.03","LONDON A","6144473","2020-01-30 15:00","2020","01","30","15:00","-1.1","","-7.4","","62","","3","","11","","24.1","","98.89","","","","-5","","NA"
"-81.15","43.03","LONDON A","6144473","2020-01-30 16:00","2020","01","30","16:00","-1.6","","-6.8","","68","","7","","11","","24.1","","98.90","","","","-5","","Mostly Cloudy"
"-81.15","43.03","LONDON A","6144473","2020-01-30 17:00","2020","01","30","17:00","-1.8","","-6.3","","72","","5","","7","","24.1","","98.92","","","","-4","","NA"
"-81.15","43.03","LONDON A","6144473","2020-01-30 18:00","2020","01","30","18:00","-2.0","","-6.4","","72","","2","","5","","24.1","","98.98","","","","-4","","NA"
"-81.15","43.03","LONDON A","6144473","2020-01-30 19:00","2020","01","30","19:00","-2.0","","-6.5","","71","","1","","3","","24.1","","99.03","","","","-3","","Cloudy"
"-81.15","43.03","LONDON A","6144473","2020-01-30 20:00","2020","01","30","20:00","-2.2","","-5.8","","76","","1","","4","","24.1","","99.03","","","","-4","","NA"
"-81.15","43.03","LONDON A","6144473","2020-01-30 21:00","2020","01","30","21:00","-2.4","","-5.9","","77","","2","","4","","24.1","","99.03","","","","-4","","NA"
"-81.15","43.03","LONDON A","6144473","2020-01-30 22:00","2020","01","30","22:00","-2.6","","-5.9","","78","","36","","2","","24.1","","99.02","","","","-3","","Cloudy"
"-81.15","43.03","LONDON A","6144473","2020-01-30 23:00","2020","01","30","23:00","-2.9","","-5.3","","83","","15","","3","","24.1","","99.03","","","","-4","","NA"
"-81.15","43.03","LONDON A","6144473","2020-01-31 00:00","2020","01","31","00:00","-3.9","","-5.8","","87","","9","","5","","24.1","","99.00","","","","-6","","NA"
"-81.15","43.03","LONDON A","6144473","2020-01-31 01:00","2020","01","31","01:00","-3.9","","-5.9","","86","","11","","4","","24.1","","99.01","","","","-6","","Cloudy"
"-81.15","43.03","LONDON A","6144473","2020-01-31 02:00","2020","01","31","02:00","-3.7","","-5.2","","89","","8","","6","","24.1","","98.98","","","","-6","","NA"
"-81.15","43.03","LONDON A","6144473","2020-01-31 03:00","2020","01","31","03:00","-3.5","","-4.9","","90","","14","","4","","24.1","","99.03","","","","-5","","NA"
"-81.15","43.03","LONDON A","6144473","2020-01-31 04:00","2020","01","31","04:00","-3.3","","-4.7","","90","","13","","7","","24.1","","98.98","","","","-6","","Cloudy"
"-81.15","43.03","LONDON A","6144473","2020-01-31 05:00","2020","01","31","05:00","-3.2","","-4.7","","90","","12","","6","","24.1","","98.98","","","","-6","","NA"
"-81.15","43.03","LONDON A","6144473","2020-01-31 06:00","2020","01","31","06:00","-3.3","","-4.7","","90","","9","","7","","19.3","","98.98","","","","-6","","NA"
"-81.15","43.03","LONDON A","6144473","2020-01-31 07:00","2020","01","31","07:00","-3.4","","-4.7","","91","","11","","5","","19.3","","99.02","","","","-5","","Cloudy"
"-81.15","43.03","LONDON A","6144473","2020-01-31 08:00","2020","01","31","08:00","-3.3","","-4.6","","91","","10","","8","","19.3","","98.99","","","","-7","","NA"
"-81.15","43.03","LONDON A","6144473","2020-01-31 09:00","2020","01","31","09:00","-3.1","","-4.6","","89","","10","","8","","19.3","","99.02","","","","-6","","NA"
"-81.15","43.03","LONDON A","6144473","2020-01-31 10:00","2020","01","31","10:00","-2.7","","-4.1","","90","","10","","8","","6.4","","99.01","","","","-6","","Snow,Fog"
"-81.15","43.03","LONDON A","6144473","2020-01-31 11:00","2020","01","31","11:00","-2.4","","-3.5","","92","","10","","8","","9.7","","98.98","","","","-6","","Snow,Fog"
"-81.15","43.03","LONDON A","6144473","2020-01-31 12:00","2020","01","31","12:00","-1.9","","-3.4","","90","","10","","9","","9.7","","98.92","","","","-5","","Snow,Fog"
"-81.15","43.03","LONDON A","6144473","2020-01-31 13:00","2020","01","31","13:00","-1.3","","-3.3","","86","","12","","8","","12.9","","98.87","","","","-4","","Snow"
"-81.15","43.03","LONDON A","6144473","2020-01-31 14:00","2020","01","31","14:00","-1.5","","-3.3","","87","","16","","9","","1.6","","98.82","","","","-5","","Snow,Fog"
"-81.15","43.03","LONDON A","6144473","2020-01-31 15:00","2020","01","31","15:00","-1.6","","-3.0","","90","","10","","5","","4.8","","98.75","","","","-3","","Snow,Fog"
"-81.15","43.03","LONDON A","6144473","2020-01-31 16:00","2020","01","31","16:00","-1.4","","-2.6","","91","","7","","9","","4.0","","98.71","","","","-5","","Snow,Fog"
"-81.15","43.03","LONDON A","6144473","2020-01-31 17:00","2020","01","31","17:00","-1.6","","-3.1","","89","","13","","9","","8.1","","98.73","","","","-5","","Snow,Fog"
"-81.15","43.03","LONDON A","6144473","2020-01-31 18:00","2020","01","31","18:00","-2.0","","-3.0","","93","","11","","5","","3.6","","98.75","","","","-4","","Snow,Fog"
"-81.15","43.03","LONDON A","6144473","2020-01-31 19:00","2020","01","31","19:00","-2.0","","-3.2","","92","","13","","7","","12.9","","98.76","","","","-5","","Cloudy"
"-81.15","43.03","LONDON A","6144473","2020-01-31 20:00","2020","01","31","20:00","-2.0","","-3.3","","91","","12","","8","","16.1","","98.76","","","","-5","","NA"
"-81.15","43.03","LONDON A","6144473","2020-01-31 21:00","2020","01","31","21:00","-2.1","","-3.4","","91","","13","","7","","12.9","","98.73","","","","-5","","NA"
"-81.15","43.03","LONDON A","6144473","2020-01-31 22:00","2020","01","31","22:00","-2.1","","-3.4","","91","","15","","4","","16.1","","98.70","","","","-4","","Cloudy"
"-81.15","43.03","LONDON A","6144473","2020-01-31 23:00","2020","01","31","23:00","-2.1","","-3.3","","91","","12","","6","","12.9","","98.62","","","","-4","","Snow"
