"Longitude (x)","Latitude (y)","Station Name","Climate ID","Date/Time","Year","Month","Day","Time","Temp (°C)","Temp Flag","Dew Point Temp (°C)","Dew Point Temp Flag","Rel Hum (%)","Rel Hum Flag","Wind Dir (10s deg)","Wind Dir Flag","Wind Spd (km/h)","Wind Spd Flag","Visibility (km)","Visibility Flag","Stn Press (kPa)","Stn Press Flag","Hmdx","Hmdx Flag","Wind Chill","Wind Chill Flag","Weather"
"-81.15","43.03","LONDON A","6144473","2019-03-01 00:00","2019","03","01","00:00","-9.0","","-13.1","","72","","13","","10","","24.1","","98.91","","","","-14","","NA"
"-81.15","43.03","LONDON A","6144473","2019-03-01 01:00","2019","03","01","01:00","-10.8","","-14.4","","75","","10","","7","","24.1","","98.86","","","","-15","","Clear"
"-81.15","43.03","LONDON A","6144473","2019-03-01 02:00","2019","03","01","02:00","-11.8","","-14.8","","79","","7","","4","","24.1","","98.89","","","","-14","","NA"
"-81.15","43.03","LONDON A","6144473","2019-03-01 03:00","2019","03","01","03:00","-13.6","","-15.5","","85","","4","","4","","24.1","","98.89","","","","-16","","NA"
"-81.15","43.03","LONDON A","6144473","2019-03-01 04:00","2019","03","01","04:00","-14.7","","-16.9","","83","","7","","5","","24.1","","98.86","","","","-18","","Clear"
"-81.15","43.03","LONDON A","6144473","2019-03-01 05:00","2019","03","01","05:00","-15.2","","-17.2","","85","","4","","5","","24.1","","98.92","","","","-19","","NA"
"-81.15","43.03","LONDON A","6144473","2019-03-01 06:00","2019","03","01","06:00","-16.4","","-18.7","","82","","35","","6","","24.1","","98.99","","","","-21","","NA"
"-81.15","43.03","LONDON A","6144473","2019-03-01 07:00","2019","03","01","07:00","-16.5","","-18.8","","83","","35","","5","","19.3","","99.01","","","","-20","","Clear"
"-81.15","43.03","LONDON A","6144473","2019-03-01 08:00","2019","03","01","08:00","-13.8","","-15.8","","85","","5","","7","","19.3","","99.02","","","","-18","","NA"
"-81.15","43.03","LONDON A","6144473","2019-03-01 09:00","2019","03","01","09:00","-10.9","","-13.6","","81","","7","","4","","19.3","","99.04","","","","-13","","NA"
"-81.15","43.03","LONDON A","6144473","2019-03-01 10:00","2019","03","01","10:00","-7.6","","-12.1","","71","","8","","4","","24.1","","99.03","","","","-10","","Mostly Cloudy"
"-81.15","43.03","LONDON A","6144473","2019-03-01 11:00","2019","03","01","11:00","-5.7","","-13.0","","57","","8","","5","","24.1","","99.00","","","","-8","","NA"
"-81.15","43.03","LONDON A","6144473","2019-03-01 12:00","2019","03","01","12:00","-4.0","","-14.0","","46","","7","","10","","24.1","","99.02","","","","-8","","NA"
"-81.15","43.03","LONDON A","6144473","2019-03-01 13:00","2019","03","01","13:00","-3.2","","-13.9","","44","","9","","8","","24.1","","98.99","","","","-6","","Cloudy"
"-81.15","43.03","LONDON A","6144473","2019-03-01 14:00","2019","03","01","14:00","-2.8","","-12.4","","48","","9","","11","","24.1","","98.86","","","","-7","","NA"
"-81.15","43.03","LONDON A","6144473","2019-03-01 15:00","2019","03","01","15:00","-2.6","","-11.7","","50","","3","","12","","24.1","","98.84","","","","-7","","NA"
"-81.15","43.03","LONDON A","6144473","2019-03-01 16:00","2019","03","01","16:00","-2.2","","-12.1","","47","","7","","9","","24.1","","98.79","","","","-6","","Cloudy"
"-81.15","43.03","LONDON A","6144473","2019-03-01 17:00","2019","03","01","17:00","-2.8","","-11.7","","51","","4","","9","","24.1","","98.78","","","","-6","","NA"
"-81.15","43.03","LONDON A","6144473","2019-03-01 18:00","2019","03","01","18:00","-3.0","","-11.7","","51","","3","","5","","24.1","","98.76","","","","-5","","NA"
"-81.15","43.03","LONDON A","6144473","2019-03-01 19:00","2019","03","01","19:00","-4.1","","-12.0","","54","","1","","9","","24.1","","98.78","","","","-8","","Cloudy"
"-81.15","43.03","LONDON A","6144473","2019-03-01 20:00","2019","03","01","20:00","-5.2","","-11.8","","60","","1","","7","","24.1","","98.79","","","","-8","","NA"
"-81.15","43.03","LONDON A","6144473","2019-03-01 21:00","2019","03","01","21:00","-5.0","","-11.8","","59","","2","","11","","24.1","","98.75","","","","-10","","NA"
"-81.15","43.03","LONDON A","6144473","2019-03-01 22:00","2019","03","01","22:00","-4.6","","-11.1","","61","","2","","6","","24.1","","98.72","","","","-7","","Cloudy"
"-81.15","43.03","LONDON A","6144473","2019-03-01 23:00","2019","03","01","23:00","-4.9","","-10.4","","66","","7","","6","","24.1","","98.70","","","","-8","","NA"
"-81.15","43.03","LONDON A","6144473","2019-03-02 00:00","2019","03","02","00:00","-4.7","","-9.1","","72","","8","","6","","24.1","","98.67","","","","-7","","NA"
"-81.15","43.03","LONDON A","6144473","2019-03-02 01:00","2019","03","02","01:00","-4.5","","-7.4","","80","","8","","11","","24.1","","98.64","","","","-9","","Cloudy"
"-81.15","43.03","LONDON A","6144473","2019-03-02 02:00","2019","03","02","02:00","-4.3","","-7.3","","79","","6","","8","","24.1","","98.59","","","","-8","","NA"
"-81.15","43.03","LONDON A","6144473","2019-03-02 03:00","2019","03","02","03:00","-4.2","","-7.0","","81","","6","","7","","24.1","","98.57","","","","-7","","NA"
"-81.15","43.03","LONDON A","6144473","2019-03-02 04:00","2019","03","02","04:00","-4.3","","-6.8","","82","","9","","7","","24.1","","98.50","","","","-7","","Cloudy"
"-81.15","43.03","LONDON A","6144473","2019-03-02 05:00","2019","03","02","05:00","-4.3","","-6.6","","84","","5","","7","","24.1","","98.46","","","","-7","","NA"
"-81.15","43.03","LONDON A","6144473","2019-03-02 06:00","2019","03","02","06:00","-4.2","","-6.4","","85","","7","","5","","24.1","","98.44","","","","-6","","NA"
"-81.15","43.03","LONDON A","6144473","2019-03-02 07:00","2019","03","02","07:00","-4.7","","-6.8","","85","","30","","5","","19.3","","98.47","","","","-7","","Mostly Cloudy"
"-81.15","43.03","LONDON A","6144473","2019-03-02 08:00","2019","03","02","08:00","-4.0","","-6.3","","84","","31","","8","","19.3","","98.51","","","","-7","","NA"
"-81.15","43.03","LONDON A","6144473","2019-03-02 09:00","2019","03","02","09:00","-3.5","","-6.1","","82","","33","","9","","16.1","","98.57","","","","-7","","NA"
"-81.15","43.03","LONDON A","6144473","2019-03-02 10:00","2019","03","02","10:00","-3.0","","-6.3","","78","","34","","16","","11.3","","98.60","","","","-8","","Snow"
"-81.15","43.03","LONDON A","6144473","2019-03-02 11:00","2019","03","02","11:00","-3.0","","-6.1","","80","","3","","11","","1.6","","98.55","","","","-7","","Snow"
"-81.15","43.03","LONDON A","6144473","2019-03-02 12:00","2019","03","02","12:00","-2.8","","-6.5","","76","","10","","7","","12.9","","98.50","","","","-6","","Snow"
"-81.15","43.03","LONDON A","6144473","2019-03-02 13:00","2019","03","02","13:00","-2.0","","-6.4","","72","","0","","1","","4.0","","98.52","","","","-2","","Snow"
"-81.15","43.03","LONDON A","6144473","2019-03-02 14:00","2019","03","02","14:00","-0.9","","-6.9","","64","","29","","16","","6.4","","98.48","","","","-6","","Snow"
"-81.15","43.03","LONDON A","6144473","2019-03-02 15:00","2019","03","02","15:00","-1.2","","-5.3","","74","","31","","17","","6.4","","98.51","","","","-6","","Snow,Fog"
"-81.15","43.03","LONDON A","6144473","2019-03-02 16:00","2019","03","02","16:00","-2.4","","-5.8","","77","","29","","22","","9.7","","98.64","","","","-9","","Snow,Fog"
"-81.15","43.03","LONDON A","6144473","2019-03-02 17:00","2019","03","02","17:00","-2.9","","-5.8","","80","","29","","16","","9.7","","98.71","","","","-8","","Snow,Fog"
"-81.15","43.03","LONDON A","6144473","2019-03-02 18:00","2019","03","02","18:00","-3.4","","-6.0","","83","","31","","17","","4.8","","98.78","","","","-9","","Snow,Fog"
"-81.15","43.03","LONDON A","6144473","2019-03-02 19:00","2019","03","02","19:00","-3.7","","-6.1","","83","","31","","14","","12.9","","98.82","","","","-9","","Snow"
"-81.15","43.03","LONDON A","6144473","2019-03-02 20:00","2019","03","02","20:00","-4.0","","-6.7","","82","","33","","16","","24.1","","98.84","","","","-10","","NA"
"-81.15","43.03","LONDON A","6144473","2019-03-02 21:00","2019","03","02","21:00","-5.0","","-8.9","","74","","33","","14","","24.1","","98.86","","","","-10","","NA"
"-81.15","43.03","LONDON A","6144473","2019-03-02 22:00","2019","03","02","22:00","-6.2","","-9.3","","79","","32","","5","","24.1","","98.87","","","","-9","","Mainly Clear"
"-81.15","43.03","LONDON A","6144473","2019-03-02 23:00","2019","03","02","23:00","-9.5","","-11.2","","88","","23","","7","","24.1","","98.82","","","","-13","","NA"
"-81.15","43.03","LONDON A","6144473","2019-03-03 00:00","2019","03","03","00:00","-7.6","","-9.6","","86","","29","","5","","24.1","","98.83","","","","-10","","NA"
"-81.15","43.03","LONDON A","6144473","2019-03-03 01:00","2019","03","03","01:00","-8.8","","-10.0","","91","","26","","6","","24.1","","98.83","","","","-12","","Mainly Clear"
"-81.15","43.03","LONDON A","6144473","2019-03-03 02:00","2019","03","03","02:00","-9.2","","-10.6","","89","","29","","7","","24.1","","98.87","","","","-13","","NA"
"-81.15","43.03","LONDON A","6144473","2019-03-03 03:00","2019","03","03","03:00","-9.7","","-11.0","","90","","30","","9","","24.1","","98.82","","","","-15","","NA"
"-81.15","43.03","LONDON A","6144473","2019-03-03 04:00","2019","03","03","04:00","-9.9","","-11.0","","91","","30","","4","","24.1","","98.77","","","","-12","","Mainly Clear"
"-81.15","43.03","LONDON A","6144473","2019-03-03 05:00","2019","03","03","05:00","-11.2","","-12.4","","90","","13","","4","","24.1","","98.77","","","","-14","","NA"
"-81.15","43.03","LONDON A","6144473","2019-03-03 06:00","2019","03","03","06:00","-11.3","","-12.9","","88","","36","","1","","24.1","","98.79","","","","-12","","NA"
"-81.15","43.03","LONDON A","6144473","2019-03-03 07:00","2019","03","03","07:00","-11.2","","-12.6","","89","","36","","1","","24.1","","98.75","","","","-12","","Mostly Cloudy"
"-81.15","43.03","LONDON A","6144473","2019-03-03 08:00","2019","03","03","08:00","-10.9","","-12.6","","87","","12","","5","","24.1","","98.77","","","","-14","","NA"
"-81.15","43.03","LONDON A","6144473","2019-03-03 09:00","2019","03","03","09:00","-9.3","","-10.8","","89","","13","","3","","24.1","","98.77","","","","-11","","NA"
"-81.15","43.03","LONDON A","6144473","2019-03-03 10:00","2019","03","03","10:00","-6.2","","-8.4","","84","","11","","7","","24.1","","98.68","","","","-10","","Mostly Cloudy"
"-81.15","43.03","LONDON A","6144473","2019-03-03 11:00","2019","03","03","11:00","-4.5","","-9.1","","70","","8","","7","","24.1","","98.64","","","","-8","","NA"
"-81.15","43.03","LONDON A","6144473","2019-03-03 12:00","2019","03","03","12:00","-3.4","","-9.3","","64","","20","","8","","24.1","","98.49","","","","-7","","NA"
"-81.15","43.03","LONDON A","6144473","2019-03-03 13:00","2019","03","03","13:00","-3.5","","-9.4","","64","","36","","2","","24.1","","98.41","","","","-4","","Cloudy"
"-81.15","43.03","LONDON A","6144473","2019-03-03 14:00","2019","03","03","14:00","-3.3","","-9.0","","65","","24","","7","","24.1","","98.28","","","","-6","","Snow"
"-81.15","43.03","LONDON A","6144473","2019-03-03 15:00","2019","03","03","15:00","-3.8","","-8.2","","71","","21","","15","","24.1","","98.23","","","","-9","","Snow"
"-81.15","43.03","LONDON A","6144473","2019-03-03 16:00","2019","03","03","16:00","-4.5","","-7.1","","83","","21","","17","","2.4","","98.28","","","","-10","","Snow"
"-81.15","43.03","LONDON A","6144473","2019-03-03 17:00","2019","03","03","17:00","-4.8","","-6.6","","87","","22","","10","","1.6","","98.21","","","","-9","","Snow"
"-81.15","43.03","LONDON A","6144473","2019-03-03 18:00","2019","03","03","18:00","-5.2","","-6.7","","89","","31","","9","","1.6","","98.14","","","","-9","","Snow"
"-81.15","43.03","LONDON A","6144473","2019-03-03 19:00","2019","03","03","19:00","-6.3","","-7.8","","89","","32","","12","","2.4","","98.21","","","","-11","","Snow"
"-81.15","43.03","LONDON A","6144473","2019-03-03 20:00","2019","03","03","20:00","-7.0","","-9.1","","85","","31","","10","","4.8","","98.22","","","","-12","","Snow"
"-81.15","43.03","LONDON A","6144473","2019-03-03 21:00","2019","03","03","21:00","-7.3","","-9.0","","88","","29","","10","","4.8","","98.24","","","","-12","","Snow"
"-81.15","43.03","LONDON A","6144473","2019-03-03 22:00","2019","03","03","22:00","-8.2","","-10.1","","86","","30","","14","","8.1","","98.24","","","","-14","","Snow"
"-81.15","43.03","LONDON A","6144473","2019-03-03 23:00","2019","03","03","23:00","-9.1","","-11.9","","80","","30","","13","","16.1","","98.26","","","","-15","","Snow"
"-81.15","43.03","LONDON A","6144473","2019-03-04 00:00","2019","03","04","00:00","-10.7","","-13.8","","78","","30","","12","","24.1","","98.25","","","","-17","","NA"
"-81.15","43.03","LONDON A","6144473","2019-03-04 01:00","2019","03","04","01:00","-12.8","","-15.1","","84","","31","","9","","24.1","","98.24","","","","-18","","Mainly Clear"
"-81.15","43.03","LONDON A","6144473","2019-03-04 02:00","2019","03","04","02:00","-14.0","","-15.9","","86","","33","","9","","24.1","","98.24","","","","-20","","NA"
"-81.15","43.03","LONDON A","6144473","2019-03-04 03:00","2019","03","04","03:00","-15.0","","-16.8","","87","","29","","9","","24.1","","98.20","","","","-21","","NA"
"-81.15","43.03","LONDON A","6144473","2019-03-04 04:00","2019","03","04","04:00","-15.5","","-17.4","","86","","30","","10","","24.1","","98.19","","","","-22","","Mainly Clear"
"-81.15","43.03","LONDON A","6144473","2019-03-04 05:00","2019","03","04","05:00","-13.7","","-15.8","","84","","30","","13","","24.1","","98.22","","","","-21","","NA"
"-81.15","43.03","LONDON A","6144473","2019-03-04 06:00","2019","03","04","06:00","-13.8","","-16.2","","82","","29","","11","","24.1","","98.24","","","","-20","","NA"
"-81.15","43.03","LONDON A","6144473","2019-03-04 07:00","2019","03","04","07:00","-13.8","","-16.9","","78","","29","","12","","24.1","","98.25","","","","-21","","Mostly Cloudy"
"-81.15","43.03","LONDON A","6144473","2019-03-04 08:00","2019","03","04","08:00","-13.6","","-17.0","","76","","30","","10","","24.1","","98.29","","","","-20","","NA"
"-81.15","43.03","LONDON A","6144473","2019-03-04 09:00","2019","03","04","09:00","-13.1","","-18.1","","66","","28","","17","","24.1","","98.34","","","","-21","","NA"
"-81.15","43.03","LONDON A","6144473","2019-03-04 10:00","2019","03","04","10:00","-12.8","","-18.1","","65","","30","","17","","24.1","","98.33","","","","-21","","Mostly Cloudy"
"-81.15","43.03","LONDON A","6144473","2019-03-04 11:00","2019","03","04","11:00","-11.7","","-18.2","","59","","29","","17","","24.1","","98.29","","","","-19","","NA"
"-81.15","43.03","LONDON A","6144473","2019-03-04 12:00","2019","03","04","12:00","-11.0","","-18.1","","56","","28","","15","","24.1","","98.28","","","","-18","","NA"
"-81.15","43.03","LONDON A","6144473","2019-03-04 13:00","2019","03","04","13:00","-11.0","","-18.4","","55","","26","","26","","19.3","","98.24","","","","-20","","Blowing Snow"
"-81.15","43.03","LONDON A","6144473","2019-03-04 14:00","2019","03","04","14:00","-10.3","","-17.0","","59","","27","","18","","12.9","","98.19","","","","-18","","Blowing Snow"
"-81.15","43.03","LONDON A","6144473","2019-03-04 15:00","2019","03","04","15:00","-9.9","","-16.9","","57","","27","","18","","24.1","","98.15","","","","-17","","Snow Showers"
"-81.15","43.03","LONDON A","6144473","2019-03-04 16:00","2019","03","04","16:00","-9.6","","-17.0","","55","","24","","22","","24.1","","98.15","","","","-18","","Snow Showers"
"-81.15","43.03","LONDON A","6144473","2019-03-04 17:00","2019","03","04","17:00","-9.7","","-14.5","","68","","24","","22","","3.2","","98.13","","","","-18","","Snow Showers"
"-81.15","43.03","LONDON A","6144473","2019-03-04 18:00","2019","03","04","18:00","-10.7","","-13.5","","80","","29","","16","","1.6","","98.15","","","","-18","","Snow Showers"
"-81.15","43.03","LONDON A","6144473","2019-03-04 19:00","2019","03","04","19:00","-11.1","","-14.3","","77","","27","","13","","8.1","","98.23","","","","-18","","Snow Showers"
"-81.15","43.03","LONDON A","6144473","2019-03-04 20:00","2019","03","04","20:00","-11.3","","-14.6","","77","","27","","10","","9.7","","98.25","","","","-17","","Snow Showers"
"-81.15","43.03","LONDON A","6144473","2019-03-04 21:00","2019","03","04","21:00","-12.0","","-17.3","","65","","28","","22","","24.1","","98.30","","","","-21","","NA"
"-81.15","43.03","LONDON A","6144473","2019-03-04 22:00","2019","03","04","22:00","-13.7","","-18.4","","68","","26","","13","","24.1","","98.35","","","","-21","","Mainly Clear"
"-81.15","43.03","LONDON A","6144473","2019-03-04 23:00","2019","03","04","23:00","-14.3","","-19.2","","67","","27","","17","","24.1","","98.35","","","","-23","","NA"
"-81.15","43.03","LONDON A","6144473","2019-03-05 00:00","2019","03","05","00:00","-15.4","","-20.2","","67","","25","","12","","24.1","","98.33","","","","-22","","NA"
"-81.15","43.03","LONDON A","6144473","2019-03-05 01:00","2019","03","05","01:00","-15.2","","-20.0","","67","","24","","14","","24.1","","98.30","","","","-23","","Clear"
"-81.15","43.03","LONDON A","6144473","2019-03-05 02:00","2019","03","05","02:00","-15.2","","-19.8","","68","","23","","19","","24.1","","98.26","","","","-24","","NA"
"-81.15","43.03","LONDON A","6144473","2019-03-05 03:00","2019","03","05","03:00","-14.5","","-18.8","","70","","22","","18","","24.1","","98.21","","","","-23","","NA"
"-81.15","43.03","LONDON A","6144473","2019-03-05 04:00","2019","03","05","04:00","-14.1","","-17.8","","74","","23","","21","","24.1","","98.14","","","","-23","","Cloudy"
"-81.15","43.03","LONDON A","6144473","2019-03-05 05:00","2019","03","05","05:00","-13.9","","-17.6","","74","","23","","24","","24.1","","98.13","","","","-24","","NA"
"-81.15","43.03","LONDON A","6144473","2019-03-05 06:00","2019","03","05","06:00","-13.8","","-17.0","","77","","22","","22","","24.1","","98.11","","","","-23","","NA"
"-81.15","43.03","LONDON A","6144473","2019-03-05 07:00","2019","03","05","07:00","-13.6","","-16.7","","77","","23","","20","","4.8","","98.06","","","","-22","","Snow,Blowing Snow"
"-81.15","43.03","LONDON A","6144473","2019-03-05 08:00","2019","03","05","08:00","-12.9","","-16.1","","77","","23","","24","","4.8","","98.03","","","","-22","","Snow,Blowing Snow"
"-81.15","43.03","LONDON A","6144473","2019-03-05 09:00","2019","03","05","09:00","-12.5","","-15.8","","77","","23","","27","","1.6","","98.01","","","","-22","","Snow,Blowing Snow"
"-81.15","43.03","LONDON A","6144473","2019-03-05 10:00","2019","03","05","10:00","-11.9","","-15.9","","73","","24","","27","","1.6","","98.01","","","","-22","","Snow,Blowing Snow"
"-81.15","43.03","LONDON A","6144473","2019-03-05 11:00","2019","03","05","11:00","-11.3","","-15.3","","72","","23","","27","","2.4","","98.00","","","","-21","","Snow,Blowing Snow"
"-81.15","43.03","LONDON A","6144473","2019-03-05 12:00","2019","03","05","12:00","-10.5","","-15.0","","70","","24","","23","","2.4","","98.01","","","","-19","","Snow,Blowing Snow"
"-81.15","43.03","LONDON A","6144473","2019-03-05 13:00","2019","03","05","13:00","-10.4","","-15.5","","67","","25","","24","","2.4","","98.01","","","","-19","","Snow,Blowing Snow"
"-81.15","43.03","LONDON A","6144473","2019-03-05 14:00","2019","03","05","14:00","-10.7","","-14.2","","76","","24","","19","","1.2","","98.02","","","","-19","","Snow Showers,Blowing Snow"
"-81.15","43.03","LONDON A","6144473","2019-03-05 15:00","2019","03","05","15:00","-9.4","","-14.8","","65","","24","","26","","24.1","","98.05","","","","-18","","Snow Showers,Blowing Snow"
"-81.15","43.03","LONDON A","6144473","2019-03-05 16:00","2019","03","05","16:00","-10.7","","-13.9","","77","","27","","22","","0.8","","98.11","","","","-19","","Moderate Snow Showers,Blowing Snow"
"-81.15","43.03","LONDON A","6144473","2019-03-05 17:00","2019","03","05","17:00","-10.3","","-15.2","","67","","29","","10","","4.8","","98.15","","","","-16","","Snow Showers"
"-81.15","43.03","LONDON A","6144473","2019-03-05 18:00","2019","03","05","18:00","-11.1","","-15.6","","70","","29","","14","","3.2","","98.22","","","","-18","","Snow Showers,Blowing Snow"
"-81.15","43.03","LONDON A","6144473","2019-03-05 19:00","2019","03","05","19:00","-11.4","","-16.9","","64","","29","","9","","16.1","","98.29","","","","-17","","Snow Showers"
"-81.15","43.03","LONDON A","6144473","2019-03-05 20:00","2019","03","05","20:00","-12.6","","-17.7","","66","","26","","9","","24.1","","98.34","","","","-18","","NA"
"-81.15","43.03","LONDON A","6144473","2019-03-05 21:00","2019","03","05","21:00","-12.7","","-17.6","","67","","26","","13","","24.1","","98.36","","","","-20","","NA"
"-81.15","43.03","LONDON A","6144473","2019-03-05 22:00","2019","03","05","22:00","-12.8","","-17.9","","66","","26","","15","","24.1","","98.40","","","","-20","","Mostly Cloudy"
"-81.15","43.03","LONDON A","6144473","2019-03-05 23:00","2019","03","05","23:00","-13.1","","-18.5","","64","","25","","14","","24.1","","98.38","","","","-20","","NA"
"-81.15","43.03","LONDON A","6144473","2019-03-06 00:00","2019","03","06","00:00","-12.8","","-17.4","","69","","26","","18","","24.1","","98.39","","","","-21","","Snow"
"-81.15","43.03","LONDON A","6144473","2019-03-06 01:00","2019","03","06","01:00","-12.6","","-15.9","","77","","25","","18","","4.8","","98.42","","","","-21","","Snow"
"-81.15","43.03","LONDON A","6144473","2019-03-06 02:00","2019","03","06","02:00","-11.8","","-14.9","","78","","26","","18","","24.1","","98.47","","","","-20","","NA"
"-81.15","43.03","LONDON A","6144473","2019-03-06 03:00","2019","03","06","03:00","-11.7","","-15.9","","71","","27","","19","","24.1","","98.49","","","","-20","","NA"
"-81.15","43.03","LONDON A","6144473","2019-03-06 04:00","2019","03","06","04:00","-12.9","","-16.4","","75","","27","","15","","24.1","","98.53","","","","-20","","Mostly Cloudy"
"-81.15","43.03","LONDON A","6144473","2019-03-06 05:00","2019","03","06","05:00","-12.8","","-16.4","","75","","29","","25","","0.2","","98.62","","","","-22","","Moderate Snow"
"-81.15","43.03","LONDON A","6144473","2019-03-06 06:00","2019","03","06","06:00","-14.6","","-19.3","","68","","28","","16","","24.1","","98.70","","","","-23","","NA"
"-81.15","43.03","LONDON A","6144473","2019-03-06 07:00","2019","03","06","07:00","-15.7","","-20.4","","68","","28","","15","","24.1","","98.76","","","","-24","","Clear"
"-81.15","43.03","LONDON A","6144473","2019-03-06 08:00","2019","03","06","08:00","-15.1","","-21.4","","59","","28","","14","","24.1","","98.82","","","","-23","","NA"
"-81.15","43.03","LONDON A","6144473","2019-03-06 09:00","2019","03","06","09:00","-14.2","","-21.4","","55","","27","","22","","24.1","","98.91","","","","-24","","NA"
"-81.15","43.03","LONDON A","6144473","2019-03-06 10:00","2019","03","06","10:00","-13.2","","-21.4","","51","","27","","26","","24.1","","98.96","","","","-23","","Clear"
"-81.15","43.03","LONDON A","6144473","2019-03-06 11:00","2019","03","06","11:00","-12.5","","-21.7","","47","","29","","25","","24.1","","98.99","","","","-22","","Blowing Snow"
"-81.15","43.03","LONDON A","6144473","2019-03-06 12:00","2019","03","06","12:00","-11.6","","-20.0","","50","","30","","22","","24.1","","99.02","","","","-20","","NA"
"-81.15","43.03","LONDON A","6144473","2019-03-06 13:00","2019","03","06","13:00","-11.7","","-19.9","","51","","29","","26","","24.1","","99.00","","","","-21","","Mostly Cloudy"
"-81.15","43.03","LONDON A","6144473","2019-03-06 14:00","2019","03","06","14:00","-10.7","","-18.9","","51","","28","","26","","24.1","","98.95","","","","-20","","NA"
"-81.15","43.03","LONDON A","6144473","2019-03-06 15:00","2019","03","06","15:00","-9.6","","-18.1","","50","","28","","23","","24.1","","98.92","","","","-18","","NA"
"-81.15","43.03","LONDON A","6144473","2019-03-06 16:00","2019","03","06","16:00","-9.7","","-17.8","","52","","27","","18","","24.1","","98.87","","","","-17","","Mostly Cloudy"
"-81.15","43.03","LONDON A","6144473","2019-03-06 17:00","2019","03","06","17:00","-10.4","","-15.9","","65","","27","","14","","24.1","","98.81","","","","-17","","NA"
"-81.15","43.03","LONDON A","6144473","2019-03-06 18:00","2019","03","06","18:00","-10.6","","-14.4","","74","","25","","10","","6.4","","98.82","","","","-16","","Snow Showers"
"-81.15","43.03","LONDON A","6144473","2019-03-06 19:00","2019","03","06","19:00","-10.9","","-13.6","","81","","22","","4","","4.8","","98.81","","","","-13","","Snow Showers"
"-81.15","43.03","LONDON A","6144473","2019-03-06 20:00","2019","03","06","20:00","-10.6","","-13.0","","83","","12","","7","","2.0","","98.80","","","","-15","","Snow Showers"
"-81.15","43.03","LONDON A","6144473","2019-03-06 21:00","2019","03","06","21:00","-11.0","","-12.9","","86","","3","","4","","1.2","","98.80","","","","-13","","Snow Showers"
"-81.15","43.03","LONDON A","6144473","2019-03-06 22:00","2019","03","06","22:00","-11.0","","-12.8","","87","","13","","3","","1.6","","98.78","","","","-13","","Snow Showers"
"-81.15","43.03","LONDON A","6144473","2019-03-06 23:00","2019","03","06","23:00","-10.1","","-11.7","","88","","20","","8","","6.4","","98.74","","","","-15","","Snow Showers"
"-81.15","43.03","LONDON A","6144473","2019-03-07 00:00","2019","03","07","00:00","-9.2","","-11.7","","82","","24","","11","","24.1","","98.70","","","","-15","","Snow Showers"
"-81.15","43.03","LONDON A","6144473","2019-03-07 01:00","2019","03","07","01:00","-8.9","","-11.2","","83","","24","","17","","4.8","","98.71","","","","-16","","Snow Showers"
"-81.15","43.03","LONDON A","6144473","2019-03-07 02:00","2019","03","07","02:00","-9.0","","-11.0","","85","","25","","13","","1.6","","98.69","","","","-15","","Snow Showers"
"-81.15","43.03","LONDON A","6144473","2019-03-07 03:00","2019","03","07","03:00","-9.2","","-10.9","","87","","26","","9","","8.1","","98.69","","","","-14","","Snow Showers"
"-81.15","43.03","LONDON A","6144473","2019-03-07 04:00","2019","03","07","04:00","-9.4","","-11.2","","87","","29","","7","","8.1","","98.69","","","","-13","","Snow Showers"
"-81.15","43.03","LONDON A","6144473","2019-03-07 05:00","2019","03","07","05:00","-10.2","","-11.7","","89","","28","","6","","4.8","","98.78","","","","-14","","Snow Showers"
"-81.15","43.03","LONDON A","6144473","2019-03-07 06:00","2019","03","07","06:00","-10.9","","-13.0","","84","","33","","8","","12.9","","98.88","","","","-16","","Snow Showers"
"-81.15","43.03","LONDON A","6144473","2019-03-07 07:00","2019","03","07","07:00","-11.4","","-13.1","","88","","27","","5","","24.1","","98.95","","","","-15","","Mostly Cloudy"
"-81.15","43.03","LONDON A","6144473","2019-03-07 08:00","2019","03","07","08:00","-11.3","","-13.3","","85","","29","","5","","24.1","","99.06","","","","-14","","NA"
"-81.15","43.03","LONDON A","6144473","2019-03-07 09:00","2019","03","07","09:00","-9.4","","-12.8","","77","","28","","13","","24.1","","99.16","","","","-15","","NA"
"-81.15","43.03","LONDON A","6144473","2019-03-07 10:00","2019","03","07","10:00","-8.5","","-13.2","","69","","27","","11","","19.3","","99.22","","","","-14","","Snow Showers"
"-81.15","43.03","LONDON A","6144473","2019-03-07 11:00","2019","03","07","11:00","-8.1","","-12.9","","68","","28","","13","","8.1","","99.26","","","","-14","","Snow Showers"
"-81.15","43.03","LONDON A","6144473","2019-03-07 12:00","2019","03","07","12:00","-8.5","","-13.5","","67","","32","","19","","9.7","","99.34","","","","-16","","Snow Showers"
"-81.15","43.03","LONDON A","6144473","2019-03-07 13:00","2019","03","07","13:00","-8.2","","-13.1","","68","","30","","13","","16.1","","99.36","","","","-14","","Snow Showers"
"-81.15","43.03","LONDON A","6144473","2019-03-07 14:00","2019","03","07","14:00","-8.1","","-14.1","","63","","29","","17","","19.3","","99.35","","","","-15","","Snow Showers"
"-81.15","43.03","LONDON A","6144473","2019-03-07 15:00","2019","03","07","15:00","-8.0","","-15.7","","54","","29","","19","","24.1","","99.35","","","","-15","","NA"
"-81.15","43.03","LONDON A","6144473","2019-03-07 16:00","2019","03","07","16:00","-8.6","","-14.9","","61","","30","","14","","24.1","","99.37","","","","-15","","Mostly Cloudy"
"-81.15","43.03","LONDON A","6144473","2019-03-07 17:00","2019","03","07","17:00","-9.2","","-15.5","","60","","30","","10","","24.1","","99.35","","","","-14","","NA"
"-81.15","43.03","LONDON A","6144473","2019-03-07 18:00","2019","03","07","18:00","-10.3","","-15.8","","64","","33","","4","","24.1","","99.35","","","","-13","","NA"
"-81.15","43.03","LONDON A","6144473","2019-03-07 19:00","2019","03","07","19:00","-12.4","","-16.4","","72","","31","","4","","24.1","","99.39","","","","-15","","Mostly Cloudy"
"-81.15","43.03","LONDON A","6144473","2019-03-07 20:00","2019","03","07","20:00","-13.6","","-16.5","","79","","24","","3","","24.1","","99.37","","","","-16","","NA"
"-81.15","43.03","LONDON A","6144473","2019-03-07 21:00","2019","03","07","21:00","-14.3","","-16.9","","81","","36","","1","","24.1","","99.35","","","","-15","","NA"
"-81.15","43.03","LONDON A","6144473","2019-03-07 22:00","2019","03","07","22:00","-15.5","","-17.6","","84","","36","","2","","24.1","","99.33","","","","-17","","Mainly Clear"
"-81.15","43.03","LONDON A","6144473","2019-03-07 23:00","2019","03","07","23:00","-17.0","","-19.1","","84","","10","","4","","24.1","","99.33","","","","-20","","NA"
"-81.15","43.03","LONDON A","6144473","2019-03-08 00:00","2019","03","08","00:00","-17.1","","-19.3","","83","","11","","4","","24.1","","99.32","","","","-20","","NA"
"-81.15","43.03","LONDON A","6144473","2019-03-08 01:00","2019","03","08","01:00","-18.0","","-20.3","","83","","8","","4","","24.1","","99.30","","","","-21","","Mostly Cloudy"
"-81.15","43.03","LONDON A","6144473","2019-03-08 02:00","2019","03","08","02:00","-18.8","","-21.2","","81","","36","","2","","24.1","","99.28","","","","-20","","NA"
"-81.15","43.03","LONDON A","6144473","2019-03-08 03:00","2019","03","08","03:00","-19.8","","-22.3","","81","","9","","3","","24.1","","99.26","","","","-22","","NA"
"-81.15","43.03","LONDON A","6144473","2019-03-08 04:00","2019","03","08","04:00","-20.1","","-22.8","","79","","6","","3","","24.1","","99.19","","","","-23","","Mainly Clear"
"-81.15","43.03","LONDON A","6144473","2019-03-08 05:00","2019","03","08","05:00","-20.3","","-22.9","","80","","6","","5","","24.1","","99.16","","","","-25","","NA"
"-81.15","43.03","LONDON A","6144473","2019-03-08 06:00","2019","03","08","06:00","-20.1","","-22.8","","79","","8","","5","","24.1","","99.18","","","","-24","","NA"
"-81.15","43.03","LONDON A","6144473","2019-03-08 07:00","2019","03","08","07:00","-18.5","","-21.2","","80","","7","","7","","19.3","","99.18","","","","-24","","Mostly Cloudy"
"-81.15","43.03","LONDON A","6144473","2019-03-08 08:00","2019","03","08","08:00","-16.8","","-19.4","","81","","8","","4","","19.3","","99.21","","","","-20","","NA"
"-81.15","43.03","LONDON A","6144473","2019-03-08 09:00","2019","03","08","09:00","-14.1","","-16.3","","83","","9","","6","","19.3","","99.19","","","","-18","","NA"
"-81.15","43.03","LONDON A","6144473","2019-03-08 10:00","2019","03","08","10:00","-9.5","","-11.9","","83","","12","","8","","17.7","","99.16","","","","-14","","Mostly Cloudy"
"-81.15","43.03","LONDON A","6144473","2019-03-08 11:00","2019","03","08","11:00","-5.1","","-12.6","","56","","16","","13","","24.1","","99.10","","","","-10","","NA"
"-81.15","43.03","LONDON A","6144473","2019-03-08 12:00","2019","03","08","12:00","-4.3","","-12.9","","52","","14","","10","","24.1","","99.05","","","","-8","","NA"
"-81.15","43.03","LONDON A","6144473","2019-03-08 13:00","2019","03","08","13:00","-3.7","","-12.2","","52","","13","","14","","24.1","","98.99","","","","-9","","Mainly Clear"
"-81.15","43.03","LONDON A","6144473","2019-03-08 14:00","2019","03","08","14:00","-3.3","","-12.3","","50","","12","","16","","24.1","","98.90","","","","-9","","NA"
"-81.15","43.03","LONDON A","6144473","2019-03-08 15:00","2019","03","08","15:00","-2.9","","-11.7","","51","","12","","12","","24.1","","98.81","","","","-7","","NA"
"-81.15","43.03","LONDON A","6144473","2019-03-08 16:00","2019","03","08","16:00","-2.7","","-11.7","","50","","10","","10","","24.1","","98.78","","","","-7","","Mainly Clear"
"-81.15","43.03","LONDON A","6144473","2019-03-08 17:00","2019","03","08","17:00","-3.0","","-11.9","","51","","11","","9","","24.1","","98.75","","","","-7","","NA"
"-81.15","43.03","LONDON A","6144473","2019-03-08 18:00","2019","03","08","18:00","-4.1","","-12.8","","51","","9","","8","","24.1","","98.75","","","","-8","","NA"
"-81.15","43.03","LONDON A","6144473","2019-03-08 19:00","2019","03","08","19:00","-5.1","","-13.2","","53","","5","","5","","24.1","","98.80","","","","-7","","Clear"
"-81.15","43.03","LONDON A","6144473","2019-03-08 20:00","2019","03","08","20:00","-6.9","","-13.3","","61","","7","","5","","24.1","","98.81","","","","-9","","NA"
"-81.15","43.03","LONDON A","6144473","2019-03-08 21:00","2019","03","08","21:00","-9.0","","-13.8","","69","","36","","3","","24.1","","98.82","","","","-11","","NA"
"-81.15","43.03","LONDON A","6144473","2019-03-08 22:00","2019","03","08","22:00","-10.2","","-14.2","","73","","36","","1","","24.1","","98.84","","","","-11","","Clear"
"-81.15","43.03","LONDON A","6144473","2019-03-08 23:00","2019","03","08","23:00","-12.0","","-15.2","","78","","0","","1","","24.1","","98.86","","","","-13","","NA"
"-81.15","43.03","LONDON A","6144473","2019-03-09 00:00","2019","03","09","00:00","-12.5","","-14.9","","83","","5","","7","","24.1","","98.89","","","","-17","","NA"
"-81.15","43.03","LONDON A","6144473","2019-03-09 01:00","2019","03","09","01:00","-12.7","","-15.4","","80","","5","","3","","24.1","","98.90","","","","-15","","Clear"
"-81.15","43.03","LONDON A","6144473","2019-03-09 02:00","2019","03","09","02:00","-14.1","","-16.4","","83","","36","","2","","24.1","","98.94","","","","-15","","NA"
"-81.15","43.03","LONDON A","6144473","2019-03-09 03:00","2019","03","09","03:00","-14.9","","-17.6","","81","","9","","7","","24.1","","98.94","","","","-20","","NA"
"-81.15","43.03","LONDON A","6144473","2019-03-09 04:00","2019","03","09","04:00","-15.2","","-17.4","","84","","5","","4","","24.1","","98.98","","","","-18","","Clear"
"-81.15","43.03","LONDON A","6144473","2019-03-09 05:00","2019","03","09","05:00","-14.6","","-16.6","","85","","7","","3","","24.1","","99.00","","","","-17","","NA"
"-81.15","43.03","LONDON A","6144473","2019-03-09 06:00","2019","03","09","06:00","-15.5","","-17.6","","84","","7","","5","","24.1","","99.08","","","","-19","","NA"
"-81.15","43.03","LONDON A","6144473","2019-03-09 07:00","2019","03","09","07:00","-15.3","","-17.5","","83","","6","","6","","24.1","","99.08","","","","-20","","Mainly Clear"
"-81.15","43.03","LONDON A","6144473","2019-03-09 08:00","2019","03","09","08:00","-13.1","","-16.3","","77","","7","","10","","19.3","","99.09","","","","-19","","NA"
"-81.15","43.03","LONDON A","6144473","2019-03-09 09:00","2019","03","09","09:00","-7.7","","-13.4","","64","","8","","12","","19.3","","99.08","","","","-13","","NA"
"-81.15","43.03","LONDON A","6144473","2019-03-09 10:00","2019","03","09","10:00","-4.5","","-11.7","","58","","8","","18","","24.1","","99.07","","","","-11","","Mostly Cloudy"
"-81.15","43.03","LONDON A","6144473","2019-03-09 11:00","2019","03","09","11:00","-2.5","","-11.1","","52","","11","","27","","24.1","","99.05","","","","-9","","NA"
"-81.15","43.03","LONDON A","6144473","2019-03-09 12:00","2019","03","09","12:00","-1.5","","-11.4","","47","","9","","32","","24.1","","98.96","","","","-9","","NA"
"-81.15","43.03","LONDON A","6144473","2019-03-09 13:00","2019","03","09","13:00","-0.3","","-11.5","","43","","9","","31","","24.1","","98.84","","","","-7","","Mostly Cloudy"
"-81.15","43.03","LONDON A","6144473","2019-03-09 14:00","2019","03","09","14:00","0.6","","-10.8","","42","","11","","27","","24.1","","98.83","","","","","","NA"
"-81.15","43.03","LONDON A","6144473","2019-03-09 15:00","2019","03","09","15:00","0.5","","-8.3","","52","","8","","25","","24.1","","98.63","","","","","","NA"
"-81.15","43.03","LONDON A","6144473","2019-03-09 16:00","2019","03","09","16:00","-0.2","","-8.8","","52","","8","","29","","24.1","","98.45","","","","-7","","Cloudy"
"-81.15","43.03","LONDON A","6144473","2019-03-09 17:00","2019","03","09","17:00","-0.7","","-7.9","","58","","8","","37","","24.1","","98.29","","","","-8","","NA"
"-81.15","43.03","LONDON A","6144473","2019-03-09 18:00","2019","03","09","18:00","-1.6","","-6.4","","70","","9","","37","","24.1","","98.15","","","","-9","","NA"
"-81.15","43.03","LONDON A","6144473","2019-03-09 19:00","2019","03","09","19:00","-1.8","","-5.5","","76","","9","","40","","24.1","","98.02","","","","-10","","Cloudy"
"-81.15","43.03","LONDON A","6144473","2019-03-09 20:00","2019","03","09","20:00","-1.5","","-5.0","","77","","9","","43","","24.1","","97.81","","","","-10","","NA"
"-81.15","43.03","LONDON A","6144473","2019-03-09 21:00","2019","03","09","21:00","-0.7","","-5.1","","72","","9","","40","","24.1","","97.66","","","","-8","","NA"
"-81.15","43.03","LONDON A","6144473","2019-03-09 22:00","2019","03","09","22:00","-0.2","","-5.5","","68","","9","","37","","24.1","","97.47","","","","-7","","Cloudy"
"-81.15","43.03","LONDON A","6144473","2019-03-09 23:00","2019","03","09","23:00","0.1","","-3.6","","76","","10","","45","","9.7","","97.21","","","","","","Freezing Rain"
"-81.15","43.03","LONDON A","6144473","2019-03-10 00:00","2019","03","10","00:00","-0.2","","-1.9","","88","","10","","39","","16.1","","97.00","","","","-8","","Freezing Rain"
"-81.15","43.03","LONDON A","6144473","2019-03-10 01:00","2019","03","10","01:00","0.5","","-0.3","","95","","11","","28","","6.4","","96.95","","","","","","Rain,Fog"
"-81.15","43.03","LONDON A","6144473","2019-03-10 02:00","2019","03","10","02:00","1.8","","1.4","","97","","13","","32","","9.7","","96.82","","","","","","Rain,Fog"
"-81.15","43.03","LONDON A","6144473","2019-03-10 03:00","2019","03","10","03:00","3.1","","2.1","","94","","16","","25","","24.1","","96.73","","","","","","NA"
"-81.15","43.03","LONDON A","6144473","2019-03-10 04:00","2019","03","10","04:00","3.5","","3.0","","96","","16","","25","","24.1","","96.67","","","","","","Cloudy"
"-81.15","43.03","LONDON A","6144473","2019-03-10 05:00","2019","03","10","05:00","4.5","","4.3","","99","","18","","24","","12.9","","96.63","","","","","","Rain Showers"
"-81.15","43.03","LONDON A","6144473","2019-03-10 06:00","2019","03","10","06:00","5.8","","5.8","","100","","20","","32","","12.9","","96.66","","","","","","NA"
"-81.15","43.03","LONDON A","6144473","2019-03-10 07:00","2019","03","10","07:00","5.7","","4.9","","95","","21","","38","","19.3","","96.68","","","","","","Cloudy"
"-81.15","43.03","LONDON A","6144473","2019-03-10 08:00","2019","03","10","08:00","4.3","","1.7","","83","","23","","51","","24.1","","96.86","","","","","","NA"
"-81.15","43.03","LONDON A","6144473","2019-03-10 09:00","2019","03","10","09:00","3.8","","0.9","","81","","23","","46","","24.1","","96.95","","","","","","NA"
"-81.15","43.03","LONDON A","6144473","2019-03-10 10:00","2019","03","10","10:00","3.3","","0.2","","80","","23","","42","","24.1","","97.03","","","","","","Cloudy"
"-81.15","43.03","LONDON A","6144473","2019-03-10 11:00","2019","03","10","11:00","2.6","","-0.2","","82","","23","","43","","24.1","","97.12","","","","","","NA"
"-81.15","43.03","LONDON A","6144473","2019-03-10 12:00","2019","03","10","12:00","2.5","","-0.4","","82","","23","","49","","19.3","","97.21","","","","","","Drizzle"
"-81.15","43.03","LONDON A","6144473","2019-03-10 13:00","2019","03","10","13:00","2.5","","-0.5","","81","","23","","41","","19.3","","97.27","","","","","","Drizzle"
"-81.15","43.03","LONDON A","6144473","2019-03-10 14:00","2019","03","10","14:00","2.2","","-0.3","","84","","24","","31","","19.3","","97.36","","","","","","Drizzle"
"-81.15","43.03","LONDON A","6144473","2019-03-10 15:00","2019","03","10","15:00","1.9","","0.2","","89","","24","","34","","12.9","","97.46","","","","","","Drizzle"
"-81.15","43.03","LONDON A","6144473","2019-03-10 16:00","2019","03","10","16:00","1.7","","0.1","","89","","24","","31","","9.7","","97.57","","","","","","Drizzle,Fog"
"-81.15","43.03","LONDON A","6144473","2019-03-10 17:00","2019","03","10","17:00","2.0","","-0.9","","81","","23","","34","","16.1","","97.68","","","","","","Ice Pellets"
"-81.15","43.03","LONDON A","6144473","2019-03-10 18:00","2019","03","10","18:00","2.0","","-1.7","","76","","24","","37","","16.1","","97.79","","","","","","NA"
"-81.15","43.03","LONDON A","6144473","2019-03-10 19:00","2019","03","10","19:00","1.8","","-2.1","","75","","25","","35","","24.1","","97.93","","","","","","Cloudy"
"-81.15","43.03","LONDON A","6144473","2019-03-10 20:00","2019","03","10","20:00","1.6","","-2.3","","75","","26","","29","","19.3","","98.06","","","","","","NA"
"-81.15","43.03","LONDON A","6144473","2019-03-10 21:00","2019","03","10","21:00","1.5","","-2.4","","75","","26","","28","","16.1","","98.15","","","","","","Snow Showers"
"-81.15","43.03","LONDON A","6144473","2019-03-10 22:00","2019","03","10","22:00","1.5","","-2.7","","74","","26","","34","","24.1","","98.23","","","","","","Cloudy"
"-81.15","43.03","LONDON A","6144473","2019-03-10 23:00","2019","03","10","23:00","1.2","","-2.6","","76","","26","","28","","24.1","","98.27","","","","","","NA"
"-81.15","43.03","LONDON A","6144473","2019-03-11 00:00","2019","03","11","00:00","1.2","","-2.8","","75","","25","","25","","19.3","","98.30","","","","","","NA"
"-81.15","43.03","LONDON A","6144473","2019-03-11 01:00","2019","03","11","01:00","0.9","","-2.9","","76","","25","","23","","24.1","","98.33","","","","","","Snow Showers"
"-81.15","43.03","LONDON A","6144473","2019-03-11 02:00","2019","03","11","02:00","0.8","","-3.2","","75","","24","","18","","24.1","","98.36","","","","","","NA"
"-81.15","43.03","LONDON A","6144473","2019-03-11 03:00","2019","03","11","03:00","0.6","","-4.2","","70","","26","","31","","24.1","","98.37","","","","","","NA"
"-81.15","43.03","LONDON A","6144473","2019-03-11 04:00","2019","03","11","04:00","0.4","","-5.5","","65","","26","","31","","24.1","","98.39","","","","","","Cloudy"
"-81.15","43.03","LONDON A","6144473","2019-03-11 05:00","2019","03","11","05:00","0.0","","-4.9","","70","","26","","26","","19.3","","98.46","","","","-6","","NA"
"-81.15","43.03","LONDON A","6144473","2019-03-11 06:00","2019","03","11","06:00","-0.5","","-5.1","","71","","26","","25","","24.1","","98.51","","","","-7","","NA"
"-81.15","43.03","LONDON A","6144473","2019-03-11 07:00","2019","03","11","07:00","-1.1","","-5.6","","72","","25","","24","","24.1","","98.57","","","","-7","","Mainly Clear"
"-81.15","43.03","LONDON A","6144473","2019-03-11 08:00","2019","03","11","08:00","-0.9","","-5.4","","71","","26","","22","","16.1","","98.65","","","","-7","","NA"
"-81.15","43.03","LONDON A","6144473","2019-03-11 09:00","2019","03","11","09:00","-0.9","","-5.8","","70","","27","","31","","19.3","","98.71","","","","-8","","NA"
"-81.15","43.03","LONDON A","6144473","2019-03-11 10:00","2019","03","11","10:00","-0.8","","-6.2","","67","","28","","30","","24.1","","98.76","","","","-8","","Mostly Cloudy"
"-81.15","43.03","LONDON A","6144473","2019-03-11 11:00","2019","03","11","11:00","-0.9","","-6.4","","67","","28","","28","","19.3","","98.75","","","","-7","","NA"
"-81.15","43.03","LONDON A","6144473","2019-03-11 12:00","2019","03","11","12:00","-0.7","","-6.5","","65","","27","","25","","24.1","","98.79","","","","-7","","NA"
"-81.15","43.03","LONDON A","6144473","2019-03-11 13:00","2019","03","11","13:00","-0.5","","-5.9","","67","","28","","25","","19.3","","98.79","","","","-7","","Mostly Cloudy"
"-81.15","43.03","LONDON A","6144473","2019-03-11 14:00","2019","03","11","14:00","-0.1","","-6.2","","63","","29","","22","","24.1","","98.74","","","","-6","","NA"
"-81.15","43.03","LONDON A","6144473","2019-03-11 15:00","2019","03","11","15:00","0.3","","-6.2","","62","","30","","28","","24.1","","98.74","","","","","","NA"
"-81.15","43.03","LONDON A","6144473","2019-03-11 16:00","2019","03","11","16:00","0.3","","-5.6","","65","","31","","22","","24.1","","98.77","","","","","","Mostly Cloudy"
"-81.15","43.03","LONDON A","6144473","2019-03-11 17:00","2019","03","11","17:00","-0.4","","-6.0","","66","","31","","22","","24.1","","98.83","","","","-6","","NA"
"-81.15","43.03","LONDON A","6144473","2019-03-11 18:00","2019","03","11","18:00","-0.8","","-6.4","","66","","30","","20","","24.1","","98.87","","","","-6","","NA"
"-81.15","43.03","LONDON A","6144473","2019-03-11 19:00","2019","03","11","19:00","-2.1","","-6.3","","73","","31","","14","","24.1","","98.95","","","","-7","","Mainly Clear"
"-81.15","43.03","LONDON A","6144473","2019-03-11 20:00","2019","03","11","20:00","-2.6","","-6.6","","74","","30","","9","","24.1","","99.01","","","","-6","","NA"
"-81.15","43.03","LONDON A","6144473","2019-03-11 21:00","2019","03","11","21:00","-2.9","","-6.9","","74","","29","","7","","24.1","","99.03","","","","-6","","NA"
"-81.15","43.03","LONDON A","6144473","2019-03-11 22:00","2019","03","11","22:00","-3.3","","-6.9","","77","","28","","7","","24.1","","99.07","","","","-6","","Mainly Clear"
"-81.15","43.03","LONDON A","6144473","2019-03-11 23:00","2019","03","11","23:00","-3.2","","-6.6","","77","","27","","8","","24.1","","99.11","","","","-6","","NA"
"-81.15","43.03","LONDON A","6144473","2019-03-12 00:00","2019","03","12","00:00","-2.5","","-6.9","","72","","30","","9","","24.1","","99.15","","","","-6","","NA"
"-81.15","43.03","LONDON A","6144473","2019-03-12 01:00","2019","03","12","01:00","-2.5","","-6.7","","73","","32","","15","","24.1","","99.17","","","","-7","","Cloudy"
"-81.15","43.03","LONDON A","6144473","2019-03-12 02:00","2019","03","12","02:00","-2.8","","-7.1","","72","","31","","17","","24.1","","99.20","","","","-8","","NA"
"-81.15","43.03","LONDON A","6144473","2019-03-12 03:00","2019","03","12","03:00","-2.9","","-8.6","","65","","31","","19","","24.1","","99.22","","","","-9","","NA"
"-81.15","43.03","LONDON A","6144473","2019-03-12 04:00","2019","03","12","04:00","-3.0","","-7.8","","70","","33","","18","","24.1","","99.22","","","","-9","","Cloudy"
"-81.15","43.03","LONDON A","6144473","2019-03-12 05:00","2019","03","12","05:00","-3.5","","-7.8","","72","","32","","12","","19.3","","99.27","","","","-8","","NA"
"-81.15","43.03","LONDON A","6144473","2019-03-12 06:00","2019","03","12","06:00","-3.8","","-8.4","","71","","30","","8","","24.1","","99.33","","","","-7","","NA"
"-81.15","43.03","LONDON A","6144473","2019-03-12 07:00","2019","03","12","07:00","-3.4","","-8.5","","68","","32","","13","","24.1","","99.35","","","","-8","","Mostly Cloudy"
"-81.15","43.03","LONDON A","6144473","2019-03-12 08:00","2019","03","12","08:00","-3.0","","-8.1","","68","","29","","13","","24.1","","99.36","","","","-8","","NA"
"-81.15","43.03","LONDON A","6144473","2019-03-12 09:00","2019","03","12","09:00","-2.2","","-7.8","","65","","31","","13","","24.1","","99.41","","","","-7","","NA"
"-81.15","43.03","LONDON A","6144473","2019-03-12 10:00","2019","03","12","10:00","-0.8","","-7.2","","62","","28","","11","","24.1","","99.45","","","","-5","","Clear"
"-81.15","43.03","LONDON A","6144473","2019-03-12 11:00","2019","03","12","11:00","0.1","","-7.4","","57","","30","","8","","24.1","","99.40","","","","","","NA"
"-81.15","43.03","LONDON A","6144473","2019-03-12 12:00","2019","03","12","12:00","1.3","","-6.9","","55","","25","","11","","24.1","","99.38","","","","","","NA"
"-81.15","43.03","LONDON A","6144473","2019-03-12 13:00","2019","03","12","13:00","2.1","","-6.4","","53","","21","","16","","24.1","","99.36","","","","","","Mainly Clear"
"-81.15","43.03","LONDON A","6144473","2019-03-12 14:00","2019","03","12","14:00","2.5","","-7.0","","50","","26","","16","","24.1","","99.28","","","","","","NA"
"-81.15","43.03","LONDON A","6144473","2019-03-12 15:00","2019","03","12","15:00","2.8","","-6.7","","50","","24","","10","","24.1","","99.25","","","","","","NA"
"-81.15","43.03","LONDON A","6144473","2019-03-12 16:00","2019","03","12","16:00","3.2","","-5.7","","52","","22","","16","","24.1","","99.23","","","","","","Clear"
"-81.15","43.03","LONDON A","6144473","2019-03-12 17:00","2019","03","12","17:00","1.1","","-3.9","","69","","18","","25","","24.1","","99.23","","","","","","NA"
"-81.15","43.03","LONDON A","6144473","2019-03-12 18:00","2019","03","12","18:00","-0.4","","-4.2","","76","","19","","20","","24.1","","99.22","","","","-6","","NA"
"-81.15","43.03","LONDON A","6144473","2019-03-12 19:00","2019","03","12","19:00","-1.6","","-5.6","","75","","19","","21","","24.1","","99.23","","","","-7","","Mainly Clear"
"-81.15","43.03","LONDON A","6144473","2019-03-12 20:00","2019","03","12","20:00","-2.2","","-6.6","","72","","20","","16","","24.1","","99.25","","","","-7","","NA"
"-81.15","43.03","LONDON A","6144473","2019-03-12 21:00","2019","03","12","21:00","-2.8","","-7.3","","71","","19","","7","","24.1","","99.20","","","","-6","","NA"
"-81.15","43.03","LONDON A","6144473","2019-03-12 22:00","2019","03","12","22:00","-3.1","","-6.8","","75","","15","","6","","24.1","","99.13","","","","-6","","Mainly Clear"
"-81.15","43.03","LONDON A","6144473","2019-03-12 23:00","2019","03","12","23:00","-3.2","","-6.8","","76","","15","","6","","24.1","","99.07","","","","-6","","NA"
"-81.15","43.03","LONDON A","6144473","2019-03-13 00:00","2019","03","13","00:00","-3.2","","-6.7","","77","","15","","8","","24.1","","99.00","","","","-6","","NA"
"-81.15","43.03","LONDON A","6144473","2019-03-13 01:00","2019","03","13","01:00","-3.5","","-6.4","","80","","17","","4","","24.1","","98.98","","","","-5","","Mainly Clear"
"-81.15","43.03","LONDON A","6144473","2019-03-13 02:00","2019","03","13","02:00","-3.3","","-6.6","","78","","17","","9","","24.1","","98.92","","","","-7","","NA"
"-81.15","43.03","LONDON A","6144473","2019-03-13 03:00","2019","03","13","03:00","-2.7","","-6.8","","73","","16","","11","","24.1","","98.85","","","","-7","","NA"
"-81.15","43.03","LONDON A","6144473","2019-03-13 04:00","2019","03","13","04:00","-2.0","","-6.6","","71","","15","","12","","24.1","","98.82","","","","-6","","Cloudy"
"-81.15","43.03","LONDON A","6144473","2019-03-13 05:00","2019","03","13","05:00","-1.4","","-6.2","","70","","14","","8","","24.1","","98.87","","","","-4","","NA"
"-81.15","43.03","LONDON A","6144473","2019-03-13 06:00","2019","03","13","06:00","-0.8","","-6.2","","67","","15","","11","","24.1","","98.81","","","","-5","","NA"
"-81.15","43.03","LONDON A","6144473","2019-03-13 07:00","2019","03","13","07:00","-0.6","","-4.6","","75","","10","","9","","24.1","","98.75","","","","-4","","Cloudy"
"-81.15","43.03","LONDON A","6144473","2019-03-13 08:00","2019","03","13","08:00","0.4","","-4.9","","68","","14","","18","","19.3","","98.70","","","","","","NA"
"-81.15","43.03","LONDON A","6144473","2019-03-13 09:00","2019","03","13","09:00","0.9","","-4.9","","65","","16","","15","","19.3","","98.66","","","","","","NA"
"-81.15","43.03","LONDON A","6144473","2019-03-13 10:00","2019","03","13","10:00","1.7","","-4.5","","63","","16","","17","","19.3","","98.63","","","","","","Cloudy"
"-81.15","43.03","LONDON A","6144473","2019-03-13 11:00","2019","03","13","11:00","3.1","","-4.0","","60","","18","","19","","24.1","","98.57","","","","","","NA"
"-81.15","43.03","LONDON A","6144473","2019-03-13 12:00","2019","03","13","12:00","4.8","","-3.9","","53","","17","","16","","24.1","","98.49","","","","","","NA"
"-81.15","43.03","LONDON A","6144473","2019-03-13 13:00","2019","03","13","13:00","4.9","","-3.3","","55","","17","","17","","19.3","","98.39","","","","","","Cloudy"
"-81.15","43.03","LONDON A","6144473","2019-03-13 14:00","2019","03","13","14:00","5.9","","-4.5","","47","","20","","22","","24.1","","98.36","","","","","","NA"
"-81.15","43.03","LONDON A","6144473","2019-03-13 15:00","2019","03","13","15:00","5.5","","-3.5","","52","","18","","17","","24.1","","98.37","","","","","","NA"
"-81.15","43.03","LONDON A","6144473","2019-03-13 16:00","2019","03","13","16:00","5.6","","-1.9","","59","","18","","12","","19.3","","98.37","","","","","","Rain"
"-81.15","43.03","LONDON A","6144473","2019-03-13 17:00","2019","03","13","17:00","6.1","","2.0","","75","","18","","11","","24.1","","98.30","","","","","","NA"
"-81.15","43.03","LONDON A","6144473","2019-03-13 18:00","2019","03","13","18:00","5.6","","2.3","","79","","18","","13","","24.1","","98.30","","","","","","NA"
"-81.15","43.03","LONDON A","6144473","2019-03-13 19:00","2019","03","13","19:00","4.5","","1.5","","80","","13","","4","","24.1","","98.36","","","","","","Mostly Cloudy"
"-81.15","43.03","LONDON A","6144473","2019-03-13 20:00","2019","03","13","20:00","3.6","","0.8","","82","","12","","11","","24.1","","98.32","","","","","","NA"
"-81.15","43.03","LONDON A","6144473","2019-03-13 21:00","2019","03","13","21:00","3.1","","0.2","","81","","8","","10","","24.1","","98.37","","","","","","NA"
"-81.15","43.03","LONDON A","6144473","2019-03-13 22:00","2019","03","13","22:00","2.8","","0.0","","81","","8","","14","","24.1","","98.32","","","","","","Mostly Cloudy"
"-81.15","43.03","LONDON A","6144473","2019-03-13 23:00","2019","03","13","23:00","2.7","","0.1","","83","","10","","15","","24.1","","98.27","","","","","","NA"
"-81.15","43.03","LONDON A","6144473","2019-03-14 00:00","2019","03","14","00:00","2.3","","0.5","","88","","10","","9","","24.1","","98.31","","","","","","NA"
"-81.15","43.03","LONDON A","6144473","2019-03-14 01:00","2019","03","14","01:00","2.4","","-0.3","","82","","10","","14","","24.1","","98.27","","","","","","Mostly Cloudy"
"-81.15","43.03","LONDON A","6144473","2019-03-14 02:00","2019","03","14","02:00","1.7","","-0.5","","85","","10","","15","","24.1","","98.19","","","","","","NA"
"-81.15","43.03","LONDON A","6144473","2019-03-14 03:00","2019","03","14","03:00","2.4","","-0.6","","81","","9","","18","","24.1","","98.11","","","","","","NA"
"-81.15","43.03","LONDON A","6144473","2019-03-14 04:00","2019","03","14","04:00","2.9","","-0.6","","77","","11","","14","","24.1","","98.02","","","","","","Mostly Cloudy"
"-81.15","43.03","LONDON A","6144473","2019-03-14 05:00","2019","03","14","05:00","3.0","","-0.8","","76","","11","","17","","24.1","","98.00","","","","","","NA"
"-81.15","43.03","LONDON A","6144473","2019-03-14 06:00","2019","03","14","06:00","3.0","","-0.8","","76","","11","","17","","24.1","","97.94","","","","","","NA"
"-81.15","43.03","LONDON A","6144473","2019-03-14 07:00","2019","03","14","07:00","2.7","","-0.7","","78","","11","","13","","19.3","","97.91","","","","","","Mostly Cloudy"
"-81.15","43.03","LONDON A","6144473","2019-03-14 08:00","2019","03","14","08:00","4.7","","0.3","","73","","12","","14","","24.1","","97.86","","","","","","NA"
"-81.15","43.03","LONDON A","6144473","2019-03-14 09:00","2019","03","14","09:00","6.0","","1.7","","74","","13","","16","","19.3","","97.82","","","","","","NA"
"-81.15","43.03","LONDON A","6144473","2019-03-14 10:00","2019","03","14","10:00","7.9","","1.9","","66","","14","","13","","24.1","","97.74","","","","","","Cloudy"
"-81.15","43.03","LONDON A","6144473","2019-03-14 11:00","2019","03","14","11:00","7.9","","4.3","","78","","15","","18","","16.1","","97.63","","","","","","Rain Showers"
"-81.15","43.03","LONDON A","6144473","2019-03-14 12:00","2019","03","14","12:00","9.7","","6.4","","80","","16","","31","","19.3","","97.49","","","","","","NA"
"-81.15","43.03","LONDON A","6144473","2019-03-14 13:00","2019","03","14","13:00","11.0","","6.9","","75","","18","","20","","19.3","","97.42","","","","","","Rain Showers"
"-81.15","43.03","LONDON A","6144473","2019-03-14 14:00","2019","03","14","14:00","11.2","","7.6","","78","","19","","23","","24.1","","97.36","","","","","","NA"
"-81.15","43.03","LONDON A","6144473","2019-03-14 15:00","2019","03","14","15:00","11.6","","7.0","","73","","18","","16","","24.1","","97.25","","","","","","NA"
"-81.15","43.03","LONDON A","6144473","2019-03-14 16:00","2019","03","14","16:00","8.4","","7.4","","93","","16","","17","","9.7","","97.25","","","","","","Rain Showers,Fog"
"-81.15","43.03","LONDON A","6144473","2019-03-14 17:00","2019","03","14","17:00","8.1","","7.8","","98","","12","","26","","12.9","","96.90","","","","","","Thunderstorms,Rain Showers"
"-81.15","43.03","LONDON A","6144473","2019-03-14 18:00","2019","03","14","18:00","12.4","","10.8","","90","","14","","57","","24.1","","96.50","","","","","","Rain Showers"
"-81.15","43.03","LONDON A","6144473","2019-03-14 19:00","2019","03","14","19:00","12.2","","10.0","","87","","15","","28","","24.1","","96.64","","","","","","Mostly Cloudy"
"-81.15","43.03","LONDON A","6144473","2019-03-14 20:00","2019","03","14","20:00","11.8","","9.4","","85","","15","","32","","24.1","","96.54","","","","","","NA"
"-81.15","43.03","LONDON A","6144473","2019-03-14 21:00","2019","03","14","21:00","12.8","","11.4","","91","","20","","33","","19.3","","96.59","","","","","","NA"
"-81.15","43.03","LONDON A","6144473","2019-03-14 22:00","2019","03","14","22:00","12.4","","10.3","","87","","18","","19","","24.1","","96.51","","","","","","Mainly Clear"
"-81.15","43.03","LONDON A","6144473","2019-03-14 23:00","2019","03","14","23:00","12.7","","10.9","","89","","23","","24","","24.1","","96.60","","","","","","NA"
"-81.15","43.03","LONDON A","6144473","2019-03-15 00:00","2019","03","15","00:00","11.2","","7.2","","76","","24","","28","","24.1","","96.70","","","","","","NA"
"-81.15","43.03","LONDON A","6144473","2019-03-15 01:00","2019","03","15","01:00","8.9","","4.7","","75","","23","","20","","24.1","","96.71","","","","","","Mostly Cloudy"
"-81.15","43.03","LONDON A","6144473","2019-03-15 02:00","2019","03","15","02:00","7.4","","3.0","","73","","23","","31","","24.1","","96.80","","","","","","NA"
"-81.15","43.03","LONDON A","6144473","2019-03-15 03:00","2019","03","15","03:00","6.5","","2.5","","76","","22","","26","","24.1","","96.82","","","","","","NA"
"-81.15","43.03","LONDON A","6144473","2019-03-15 04:00","2019","03","15","04:00","6.1","","2.2","","76","","23","","34","","24.1","","96.86","","","","","","Cloudy"
"-81.15","43.03","LONDON A","6144473","2019-03-15 05:00","2019","03","15","05:00","5.7","","1.9","","76","","23","","32","","24.1","","96.95","","","","","","NA"
"-81.15","43.03","LONDON A","6144473","2019-03-15 06:00","2019","03","15","06:00","5.2","","1.5","","77","","23","","29","","24.1","","97.07","","","","","","NA"
"-81.15","43.03","LONDON A","6144473","2019-03-15 07:00","2019","03","15","07:00","5.0","","1.4","","77","","23","","31","","24.1","","97.13","","","","","","Cloudy"
"-81.15","43.03","LONDON A","6144473","2019-03-15 08:00","2019","03","15","08:00","5.0","","2.0","","81","","22","","31","","24.1","","97.16","","","","","","NA"
"-81.15","43.03","LONDON A","6144473","2019-03-15 09:00","2019","03","15","09:00","5.1","","2.1","","81","","22","","37","","24.1","","97.23","","","","","","NA"
"-81.15","43.03","LONDON A","6144473","2019-03-15 10:00","2019","03","15","10:00","5.2","","2.3","","82","","23","","32","","24.1","","97.25","","","","","","Cloudy"
"-81.15","43.03","LONDON A","6144473","2019-03-15 11:00","2019","03","15","11:00","5.0","","2.2","","82","","23","","34","","24.1","","97.27","","","","","","NA"
"-81.15","43.03","LONDON A","6144473","2019-03-15 12:00","2019","03","15","12:00","4.5","","2.4","","86","","22","","39","","16.1","","97.32","","","","","","Drizzle"
"-81.15","43.03","LONDON A","6144473","2019-03-15 13:00","2019","03","15","13:00","4.2","","2.8","","91","","23","","22","","9.7","","97.31","","","","","","Rain,Fog"
"-81.15","43.03","LONDON A","6144473","2019-03-15 14:00","2019","03","15","14:00","4.0","","3.2","","95","","22","","26","","4.8","","97.29","","","","","","Rain,Fog"
"-81.15","43.03","LONDON A","6144473","2019-03-15 15:00","2019","03","15","15:00","3.8","","2.6","","92","","24","","31","","12.9","","97.32","","","","","","Rain"
"-81.15","43.03","LONDON A","6144473","2019-03-15 16:00","2019","03","15","16:00","3.1","","1.9","","92","","23","","30","","12.9","","97.38","","","","","","Rain"
"-81.15","43.03","LONDON A","6144473","2019-03-15 17:00","2019","03","15","17:00","2.5","","1.4","","93","","24","","28","","12.9","","97.44","","","","","","Rain"
"-81.15","43.03","LONDON A","6144473","2019-03-15 18:00","2019","03","15","18:00","2.0","","1.1","","93","","24","","33","","12.9","","97.53","","","","","","Rain"
"-81.15","43.03","LONDON A","6144473","2019-03-15 19:00","2019","03","15","19:00","1.9","","1.2","","95","","25","","18","","16.1","","97.62","","","","","","Rain"
"-81.15","43.03","LONDON A","6144473","2019-03-15 20:00","2019","03","15","20:00","0.6","","-0.1","","95","","26","","29","","1.6","","97.75","","","","","","Rain,Snow,Fog"
"-81.15","43.03","LONDON A","6144473","2019-03-15 21:00","2019","03","15","21:00","0.3","","-0.2","","96","","27","","21","","1.6","","97.83","","","","","","Snow Showers,Fog"
"-81.15","43.03","LONDON A","6144473","2019-03-15 22:00","2019","03","15","22:00","0.0","","-0.6","","95","","28","","24","","1.6","","97.91","","","","-6","","Snow Showers,Fog"
"-81.15","43.03","LONDON A","6144473","2019-03-15 23:00","2019","03","15","23:00","-0.2","","-0.8","","96","","28","","18","","1.6","","97.95","","","","-5","","Snow Showers"
"-81.15","43.03","LONDON A","6144473","2019-03-16 00:00","2019","03","16","00:00","-0.6","","-1.4","","94","","28","","28","","1.6","","98.03","","","","-7","","Snow Showers"
"-81.15","43.03","LONDON A","6144473","2019-03-16 01:00","2019","03","16","01:00","-0.8","","-2.7","","87","","28","","24","","16.1","","98.08","","","","-7","","Snow Showers"
"-81.15","43.03","LONDON A","6144473","2019-03-16 02:00","2019","03","16","02:00","-1.3","","-4.7","","77","","29","","21","","12.9","","98.16","","","","-7","","Snow Showers"
"-81.15","43.03","LONDON A","6144473","2019-03-16 03:00","2019","03","16","03:00","-1.7","","-4.8","","80","","29","","22","","24.1","","98.20","","","","-8","","NA"
"-81.15","43.03","LONDON A","6144473","2019-03-16 04:00","2019","03","16","04:00","-2.1","","-4.5","","84","","29","","20","","6.4","","98.26","","","","-8","","Snow Showers"
"-81.15","43.03","LONDON A","6144473","2019-03-16 05:00","2019","03","16","05:00","-2.4","","-6.2","","75","","28","","18","","24.1","","98.35","","","","-8","","NA"
"-81.15","43.03","LONDON A","6144473","2019-03-16 06:00","2019","03","16","06:00","-2.5","","-6.3","","75","","29","","26","","24.1","","98.44","","","","-9","","NA"
"-81.15","43.03","LONDON A","6144473","2019-03-16 07:00","2019","03","16","07:00","-2.8","","-6.8","","74","","29","","19","","24.1","","98.51","","","","-9","","Mostly Cloudy"
"-81.15","43.03","LONDON A","6144473","2019-03-16 08:00","2019","03","16","08:00","-2.5","","-7.0","","71","","28","","20","","24.1","","98.57","","","","-8","","NA"
"-81.15","43.03","LONDON A","6144473","2019-03-16 09:00","2019","03","16","09:00","-2.6","","-6.1","","77","","28","","21","","19.3","","98.62","","","","-9","","Snow Showers"
"-81.15","43.03","LONDON A","6144473","2019-03-16 10:00","2019","03","16","10:00","-1.6","","-7.6","","63","","29","","20","","24.1","","98.69","","","","-7","","Mainly Clear"
"-81.15","43.03","LONDON A","6144473","2019-03-16 11:00","2019","03","16","11:00","-1.1","","-7.5","","62","","30","","22","","24.1","","98.74","","","","-7","","NA"
"-81.15","43.03","LONDON A","6144473","2019-03-16 12:00","2019","03","16","12:00","-0.7","","-7.6","","60","","29","","28","","24.1","","98.79","","","","-7","","NA"
"-81.15","43.03","LONDON A","6144473","2019-03-16 13:00","2019","03","16","13:00","-1.1","","-8.1","","59","","30","","26","","24.1","","98.82","","","","-7","","Mostly Cloudy"
"-81.15","43.03","LONDON A","6144473","2019-03-16 14:00","2019","03","16","14:00","-0.9","","-6.8","","65","","29","","20","","24.1","","98.78","","","","-6","","NA"
"-81.15","43.03","LONDON A","6144473","2019-03-16 15:00","2019","03","16","15:00","-0.8","","-6.4","","66","","29","","20","","24.1","","98.79","","","","-6","","NA"
"-81.15","43.03","LONDON A","6144473","2019-03-16 16:00","2019","03","16","16:00","-0.9","","-5.9","","69","","29","","18","","24.1","","98.82","","","","-6","","Cloudy"
"-81.15","43.03","LONDON A","6144473","2019-03-16 17:00","2019","03","16","17:00","-1.3","","-6.3","","69","","30","","20","","24.1","","98.86","","","","-7","","NA"
"-81.15","43.03","LONDON A","6144473","2019-03-16 18:00","2019","03","16","18:00","-1.9","","-5.7","","75","","29","","12","","24.1","","98.91","","","","-6","","Snow Showers"
"-81.15","43.03","LONDON A","6144473","2019-03-16 19:00","2019","03","16","19:00","-2.3","","-5.7","","77","","28","","14","","24.1","","98.93","","","","-7","","Mostly Cloudy"
"-81.15","43.03","LONDON A","6144473","2019-03-16 20:00","2019","03","16","20:00","-2.1","","-6.6","","71","","29","","15","","24.1","","98.98","","","","-7","","NA"
"-81.15","43.03","LONDON A","6144473","2019-03-16 21:00","2019","03","16","21:00","-2.5","","-7.7","","68","","28","","13","","24.1","","98.98","","","","-7","","NA"
"-81.15","43.03","LONDON A","6144473","2019-03-16 22:00","2019","03","16","22:00","-2.9","","-9.1","","62","","29","","18","","24.1","","98.98","","","","-9","","Mainly Clear"
"-81.15","43.03","LONDON A","6144473","2019-03-16 23:00","2019","03","16","23:00","-3.2","","-8.6","","67","","30","","16","","24.1","","99.01","","","","-9","","NA"
"-81.15","43.03","LONDON A","6144473","2019-03-17 00:00","2019","03","17","00:00","-3.6","","-9.1","","66","","31","","18","","24.1","","99.01","","","","-9","","NA"
"-81.15","43.03","LONDON A","6144473","2019-03-17 01:00","2019","03","17","01:00","-4.3","","-9.0","","70","","29","","13","","24.1","","99.03","","","","-9","","Mainly Clear"
"-81.15","43.03","LONDON A","6144473","2019-03-17 02:00","2019","03","17","02:00","-4.0","","-10.2","","62","","30","","16","","24.1","","99.05","","","","-10","","NA"
"-81.15","43.03","LONDON A","6144473","2019-03-17 03:00","2019","03","17","03:00","-4.6","","-9.8","","67","","30","","7","","24.1","","99.03","","","","-8","","NA"
"-81.15","43.03","LONDON A","6144473","2019-03-17 04:00","2019","03","17","04:00","-3.7","","-8.9","","68","","30","","12","","24.1","","99.03","","","","-8","","Mostly Cloudy"
"-81.15","43.03","LONDON A","6144473","2019-03-17 05:00","2019","03","17","05:00","-3.9","","-8.1","","73","","30","","6","","24.1","","99.05","","","","-7","","Snow"
"-81.15","43.03","LONDON A","6144473","2019-03-17 06:00","2019","03","17","06:00","-3.7","","-8.9","","67","","34","","13","","24.1","","99.08","","","","-9","","Snow"
"-81.15","43.03","LONDON A","6144473","2019-03-17 07:00","2019","03","17","07:00","-4.1","","-8.7","","71","","1","","7","","24.1","","99.10","","","","-7","","Mostly Cloudy"
"-81.15","43.03","LONDON A","6144473","2019-03-17 08:00","2019","03","17","08:00","-3.7","","-9.0","","67","","33","","5","","24.1","","99.17","","","","-6","","NA"
"-81.15","43.03","LONDON A","6144473","2019-03-17 09:00","2019","03","17","09:00","-2.7","","-8.8","","63","","36","","2","","24.1","","99.19","","","","-3","","NA"
"-81.15","43.03","LONDON A","6144473","2019-03-17 10:00","2019","03","17","10:00","-2.0","","-8.7","","60","","23","","7","","24.1","","99.17","","","","-5","","Mostly Cloudy"
"-81.15","43.03","LONDON A","6144473","2019-03-17 11:00","2019","03","17","11:00","-0.8","","-8.1","","58","","24","","13","","24.1","","99.16","","","","-5","","NA"
"-81.15","43.03","LONDON A","6144473","2019-03-17 12:00","2019","03","17","12:00","-0.4","","-8.8","","54","","22","","5","","24.1","","99.14","","","","-2","","NA"
"-81.15","43.03","LONDON A","6144473","2019-03-17 13:00","2019","03","17","13:00","0.7","","-7.4","","55","","27","","13","","24.1","","99.08","","","","","","Cloudy"
"-81.15","43.03","LONDON A","6144473","2019-03-17 14:00","2019","03","17","14:00","0.1","","-8.0","","55","","27","","10","","24.1","","99.00","","","","","","NA"
"-81.15","43.03","LONDON A","6144473","2019-03-17 15:00","2019","03","17","15:00","-0.1","","-7.0","","60","","21","","19","","24.1","","98.98","","","","-5","","NA"
"-81.15","43.03","LONDON A","6144473","2019-03-17 16:00","2019","03","17","16:00","-0.2","","-6.7","","61","","25","","13","","24.1","","98.96","","","","-4","","Snow Showers"
"-81.15","43.03","LONDON A","6144473","2019-03-17 17:00","2019","03","17","17:00","0.7","","-6.7","","58","","28","","12","","24.1","","98.95","","","","","","NA"
"-81.15","43.03","LONDON A","6144473","2019-03-17 18:00","2019","03","17","18:00","0.1","","-7.9","","55","","28","","12","","24.1","","98.96","","","","","","NA"
"-81.15","43.03","LONDON A","6144473","2019-03-17 19:00","2019","03","17","19:00","-1.0","","-7.4","","62","","25","","5","","24.1","","98.97","","","","-3","","Clear"
"-81.15","43.03","LONDON A","6144473","2019-03-17 20:00","2019","03","17","20:00","-2.5","","-7.2","","70","","18","","10","","24.1","","98.98","","","","-6","","NA"
"-81.15","43.03","LONDON A","6144473","2019-03-17 21:00","2019","03","17","21:00","-3.1","","-7.3","","73","","21","","8","","24.1","","98.98","","","","-6","","NA"
"-81.15","43.03","LONDON A","6144473","2019-03-17 22:00","2019","03","17","22:00","-3.5","","-7.2","","75","","21","","5","","24.1","","98.99","","","","-6","","Clear"
"-81.15","43.03","LONDON A","6144473","2019-03-17 23:00","2019","03","17","23:00","-3.8","","-7.2","","77","","22","","7","","24.1","","99.01","","","","-7","","NA"
"-81.15","43.03","LONDON A","6144473","2019-03-18 00:00","2019","03","18","00:00","-4.2","","-8.8","","70","","21","","8","","24.1","","98.99","","","","-8","","NA"
"-81.15","43.03","LONDON A","6144473","2019-03-18 01:00","2019","03","18","01:00","-5.0","","-6.9","","86","","20","","3","","24.1","","99.01","","","","-6","","Clear"
"-81.15","43.03","LONDON A","6144473","2019-03-18 02:00","2019","03","18","02:00","-4.8","","-8.2","","77","","22","","3","","24.1","","99.03","","","","-6","","NA"
"-81.15","43.03","LONDON A","6144473","2019-03-18 03:00","2019","03","18","03:00","-4.0","","-6.8","","81","","24","","9","","24.1","","99.02","","","","-8","","NA"
"-81.15","43.03","LONDON A","6144473","2019-03-18 04:00","2019","03","18","04:00","-3.9","","-6.0","","86","","25","","8","","24.1","","98.98","","","","-7","","Mainly Clear"
"-81.15","43.03","LONDON A","6144473","2019-03-18 05:00","2019","03","18","05:00","-4.7","","-6.0","","91","","26","","4","","24.1","","99.00","","","","-6","","NA"
"-81.15","43.03","LONDON A","6144473","2019-03-18 06:00","2019","03","18","06:00","-5.1","","-6.3","","91","","24","","5","","24.1","","99.05","","","","-7","","NA"
"-81.15","43.03","LONDON A","6144473","2019-03-18 07:00","2019","03","18","07:00","-4.2","","-5.3","","92","","36","","3","","24.1","","99.08","","","","-5","","Mostly Cloudy"
"-81.15","43.03","LONDON A","6144473","2019-03-18 08:00","2019","03","18","08:00","-3.0","","-4.3","","90","","27","","9","","19.3","","99.13","","","","-7","","NA"
"-81.15","43.03","LONDON A","6144473","2019-03-18 09:00","2019","03","18","09:00","-0.5","","-2.8","","85","","28","","10","","19.3","","99.16","","","","-4","","NA"
"-81.15","43.03","LONDON A","6144473","2019-03-18 10:00","2019","03","18","10:00","1.6","","-4.1","","66","","29","","10","","24.1","","99.18","","","","","","Mainly Clear"
"-81.15","43.03","LONDON A","6144473","2019-03-18 11:00","2019","03","18","11:00","1.6","","-4.7","","63","","29","","16","","24.1","","99.22","","","","","","NA"
"-81.15","43.03","LONDON A","6144473","2019-03-18 12:00","2019","03","18","12:00","1.9","","-6.2","","55","","28","","19","","24.1","","99.24","","","","","","NA"
"-81.15","43.03","LONDON A","6144473","2019-03-18 13:00","2019","03","18","13:00","1.5","","-5.7","","59","","32","","22","","24.1","","99.24","","","","","","Mostly Cloudy"
"-81.15","43.03","LONDON A","6144473","2019-03-18 14:00","2019","03","18","14:00","2.2","","-6.2","","54","","31","","24","","24.1","","99.24","","","","","","NA"
"-81.15","43.03","LONDON A","6144473","2019-03-18 15:00","2019","03","18","15:00","2.3","","-6.7","","51","","30","","18","","24.1","","99.24","","","","","","NA"
"-81.15","43.03","LONDON A","6144473","2019-03-18 16:00","2019","03","18","16:00","2.2","","-6.7","","52","","28","","21","","24.1","","99.26","","","","","","Mainly Clear"
"-81.15","43.03","LONDON A","6144473","2019-03-18 17:00","2019","03","18","17:00","2.0","","-6.8","","52","","30","","16","","24.1","","99.27","","","","","","NA"
"-81.15","43.03","LONDON A","6144473","2019-03-18 18:00","2019","03","18","18:00","1.2","","-6.1","","58","","32","","8","","24.1","","99.28","","","","","","NA"
"-81.15","43.03","LONDON A","6144473","2019-03-18 19:00","2019","03","18","19:00","-0.2","","-6.5","","63","","29","","3","","24.1","","99.32","","","","-1","","Mainly Clear"
"-81.15","43.03","LONDON A","6144473","2019-03-18 20:00","2019","03","18","20:00","-1.6","","-5.3","","76","","36","","3","","24.1","","99.34","","","","-3","","NA"
"-81.15","43.03","LONDON A","6144473","2019-03-18 21:00","2019","03","18","21:00","-1.5","","-5.5","","74","","16","","7","","24.1","","99.36","","","","-4","","NA"
"-81.15","43.03","LONDON A","6144473","2019-03-18 22:00","2019","03","18","22:00","-1.6","","-4.1","","83","","18","","5","","24.1","","99.36","","","","-3","","Mainly Clear"
"-81.15","43.03","LONDON A","6144473","2019-03-18 23:00","2019","03","18","23:00","-1.8","","-3.6","","87","","22","","4","","24.1","","99.36","","","","-3","","NA"
"-81.15","43.03","LONDON A","6144473","2019-03-19 00:00","2019","03","19","00:00","-1.8","","-4.3","","83","","22","","10","","24.1","","99.37","","","","-5","","NA"
"-81.15","43.03","LONDON A","6144473","2019-03-19 01:00","2019","03","19","01:00","-0.5","","-5.6","","68","","23","","14","","24.1","","99.36","","","","-5","","Mostly Cloudy"
"-81.15","43.03","LONDON A","6144473","2019-03-19 02:00","2019","03","19","02:00","-0.7","","-5.2","","72","","25","","13","","24.1","","99.38","","","","-5","","NA"
"-81.15","43.03","LONDON A","6144473","2019-03-19 03:00","2019","03","19","03:00","-1.6","","-5.0","","78","","24","","10","","24.1","","99.34","","","","-5","","NA"
"-81.15","43.03","LONDON A","6144473","2019-03-19 04:00","2019","03","19","04:00","-2.2","","-5.0","","81","","26","","5","","24.1","","99.33","","","","-4","","Mainly Clear"
"-81.15","43.03","LONDON A","6144473","2019-03-19 05:00","2019","03","19","05:00","-3.2","","-5.3","","86","","36","","2","","24.1","","99.35","","","","-4","","NA"
"-81.15","43.03","LONDON A","6144473","2019-03-19 06:00","2019","03","19","06:00","-3.9","","-5.4","","89","","36","","3","","19.3","","99.38","","","","-5","","NA"
"-81.15","43.03","LONDON A","6144473","2019-03-19 07:00","2019","03","19","07:00","-3.3","","-4.8","","89","","36","","2","","16.1","","99.44","","","","-4","","Mainly Clear"
"-81.15","43.03","LONDON A","6144473","2019-03-19 08:00","2019","03","19","08:00","-0.9","","-4.0","","80","","25","","7","","16.1","","99.48","","","","-3","","NA"
"-81.15","43.03","LONDON A","6144473","2019-03-19 09:00","2019","03","19","09:00","1.2","","-3.9","","69","","29","","11","","19.3","","99.52","","","","","","NA"
"-81.15","43.03","LONDON A","6144473","2019-03-19 10:00","2019","03","19","10:00","3.0","","-5.0","","56","","28","","10","","24.1","","99.55","","","","","","Mainly Clear"
"-81.15","43.03","LONDON A","6144473","2019-03-19 11:00","2019","03","19","11:00","4.3","","-6.9","","44","","27","","17","","24.1","","99.55","","","","","","NA"
"-81.15","43.03","LONDON A","6144473","2019-03-19 12:00","2019","03","19","12:00","4.7","","-7.5","","41","","26","","11","","24.1","","99.55","","","","","","NA"
"-81.15","43.03","LONDON A","6144473","2019-03-19 13:00","2019","03","19","13:00","5.6","","-6.7","","41","","31","","12","","24.1","","99.52","","","","","","Mainly Clear"
"-81.15","43.03","LONDON A","6144473","2019-03-19 14:00","2019","03","19","14:00","5.0","","-7.0","","42","","28","","13","","24.1","","99.44","","","","","","NA"
"-81.15","43.03","LONDON A","6144473","2019-03-19 15:00","2019","03","19","15:00","5.6","","-7.7","","38","","28","","15","","24.1","","99.42","","","","","","NA"
"-81.15","43.03","LONDON A","6144473","2019-03-19 16:00","2019","03","19","16:00","4.8","","-5.9","","46","","27","","12","","24.1","","99.36","","","","","","Mostly Cloudy"
"-81.15","43.03","LONDON A","6144473","2019-03-19 17:00","2019","03","19","17:00","3.9","","-3.1","","60","","21","","21","","24.1","","99.32","","","","","","NA"
"-81.15","43.03","LONDON A","6144473","2019-03-19 18:00","2019","03","19","18:00","2.8","","-3.1","","65","","20","","18","","24.1","","99.33","","","","","","NA"
"-81.15","43.03","LONDON A","6144473","2019-03-19 19:00","2019","03","19","19:00","1.1","","-3.5","","71","","18","","11","","24.1","","99.31","","","","","","Mainly Clear"
"-81.15","43.03","LONDON A","6144473","2019-03-19 20:00","2019","03","19","20:00","0.6","","-3.8","","72","","19","","12","","24.1","","99.31","","","","","","NA"
"-81.15","43.03","LONDON A","6144473","2019-03-19 21:00","2019","03","19","21:00","-0.6","","-4.1","","78","","17","","9","","24.1","","99.28","","","","-4","","NA"
"-81.15","43.03","LONDON A","6144473","2019-03-19 22:00","2019","03","19","22:00","-1.0","","-4.3","","78","","17","","6","","24.1","","99.25","","","","-3","","Clear"
"-81.15","43.03","LONDON A","6144473","2019-03-19 23:00","2019","03","19","23:00","-1.2","","-4.5","","79","","18","","8","","24.1","","99.22","","","","-4","","NA"
"-81.15","43.03","LONDON A","6144473","2019-03-20 00:00","2019","03","20","00:00","-0.2","","-3.7","","77","","20","","15","","24.1","","99.19","","","","-5","","NA"
"-81.15","43.03","LONDON A","6144473","2019-03-20 01:00","2019","03","20","01:00","-0.7","","-4.1","","78","","20","","11","","24.1","","99.15","","","","-4","","Clear"
"-81.15","43.03","LONDON A","6144473","2019-03-20 02:00","2019","03","20","02:00","-0.8","","-4.4","","76","","21","","10","","24.1","","99.13","","","","-4","","NA"
"-81.15","43.03","LONDON A","6144473","2019-03-20 03:00","2019","03","20","03:00","-1.0","","-4.2","","79","","17","","8","","24.1","","99.07","","","","-4","","NA"
"-81.15","43.03","LONDON A","6144473","2019-03-20 04:00","2019","03","20","04:00","-2.1","","-4.1","","86","","18","","8","","24.1","","99.03","","","","-5","","Mainly Clear"
"-81.15","43.03","LONDON A","6144473","2019-03-20 05:00","2019","03","20","05:00","-2.4","","-4.1","","88","","19","","6","","24.1","","99.01","","","","-5","","NA"
"-81.15","43.03","LONDON A","6144473","2019-03-20 06:00","2019","03","20","06:00","-2.4","","-4.0","","89","","18","","9","","16.1","","98.96","","","","-6","","NA"
"-81.15","43.03","LONDON A","6144473","2019-03-20 07:00","2019","03","20","07:00","-1.5","","-3.7","","85","","18","","10","","16.1","","98.97","","","","-5","","Mainly Clear"
"-81.15","43.03","LONDON A","6144473","2019-03-20 08:00","2019","03","20","08:00","1.6","","-2.6","","73","","20","","14","","24.1","","98.97","","","","","","NA"
"-81.15","43.03","LONDON A","6144473","2019-03-20 09:00","2019","03","20","09:00","4.3","","-2.0","","64","","19","","18","","24.1","","98.95","","","","","","NA"
"-81.15","43.03","LONDON A","6144473","2019-03-20 10:00","2019","03","20","10:00","5.7","","-1.4","","60","","18","","20","","24.1","","98.88","","","","","","Mainly Clear"
"-81.15","43.03","LONDON A","6144473","2019-03-20 11:00","2019","03","20","11:00","6.4","","-1.4","","58","","19","","22","","24.1","","98.85","","","","","","NA"
"-81.15","43.03","LONDON A","6144473","2019-03-20 12:00","2019","03","20","12:00","7.1","","-2.6","","50","","20","","24","","24.1","","98.78","","","","","","NA"
"-81.15","43.03","LONDON A","6144473","2019-03-20 13:00","2019","03","20","13:00","7.0","","-2.4","","51","","20","","23","","24.1","","98.70","","","","","","Mostly Cloudy"
"-81.15","43.03","LONDON A","6144473","2019-03-20 14:00","2019","03","20","14:00","7.3","","-1.9","","52","","19","","23","","24.1","","98.62","","","","","","NA"
"-81.15","43.03","LONDON A","6144473","2019-03-20 15:00","2019","03","20","15:00","6.9","","-2.7","","50","","18","","24","","24.1","","98.56","","","","","","NA"
"-81.15","43.03","LONDON A","6144473","2019-03-20 16:00","2019","03","20","16:00","6.3","","-2.7","","52","","18","","18","","24.1","","98.51","","","","","","Cloudy"
"-81.15","43.03","LONDON A","6144473","2019-03-20 17:00","2019","03","20","17:00","5.2","","-2.3","","58","","18","","16","","24.1","","98.47","","","","","","NA"
"-81.15","43.03","LONDON A","6144473","2019-03-20 18:00","2019","03","20","18:00","2.7","","0.1","","83","","22","","28","","12.9","","98.52","","","","","","Rain"
"-81.15","43.03","LONDON A","6144473","2019-03-20 19:00","2019","03","20","19:00","2.1","","1.0","","92","","18","","12","","12.9","","98.51","","","","","","Rain"
"-81.15","43.03","LONDON A","6144473","2019-03-20 20:00","2019","03","20","20:00","1.1","","0.5","","96","","13","","14","","4.8","","98.50","","","","","","Rain"
"-81.15","43.03","LONDON A","6144473","2019-03-20 21:00","2019","03","20","21:00","0.7","","0.4","","98","","13","","15","","2.4","","98.46","","","","","","Rain,Fog"
"-81.15","43.03","LONDON A","6144473","2019-03-20 22:00","2019","03","20","22:00","0.6","","0.3","","98","","12","","14","","2.4","","98.42","","","","","","Rain,Fog"
"-81.15","43.03","LONDON A","6144473","2019-03-20 23:00","2019","03","20","23:00","0.7","","0.4","","98","","13","","16","","4.0","","98.36","","","","","","Rain,Snow,Fog"
"-81.15","43.03","LONDON A","6144473","2019-03-21 00:00","2019","03","21","00:00","0.5","","0.2","","98","","12","","13","","2.0","","98.30","","","","","","Rain,Snow,Fog"
"-81.15","43.03","LONDON A","6144473","2019-03-21 01:00","2019","03","21","01:00","0.8","","0.5","","98","","11","","14","","2.4","","98.20","","","","","","Rain,Fog"
"-81.15","43.03","LONDON A","6144473","2019-03-21 02:00","2019","03","21","02:00","1.2","","1.0","","98","","12","","12","","4.8","","98.16","","","","","","Rain,Fog"
"-81.15","43.03","LONDON A","6144473","2019-03-21 03:00","2019","03","21","03:00","1.4","","1.2","","98","","12","","9","","4.0","","98.07","","","","","","Rain,Fog"
"-81.15","43.03","LONDON A","6144473","2019-03-21 04:00","2019","03","21","04:00","1.6","","1.4","","98","","12","","9","","3.2","","98.02","","","","","","Rain,Fog"
"-81.15","43.03","LONDON A","6144473","2019-03-21 05:00","2019","03","21","05:00","1.6","","1.4","","99","","9","","10","","6.4","","98.00","","","","","","Rain,Fog"
"-81.15","43.03","LONDON A","6144473","2019-03-21 06:00","2019","03","21","06:00","1.7","","1.5","","99","","6","","7","","6.4","","97.97","","","","","","Rain,Fog"
"-81.15","43.03","LONDON A","6144473","2019-03-21 07:00","2019","03","21","07:00","1.8","","1.6","","99","","9","","11","","4.8","","97.94","","","","","","Drizzle,Fog"
"-81.15","43.03","LONDON A","6144473","2019-03-21 08:00","2019","03","21","08:00","2.2","","2.0","","99","","11","","7","","6.4","","97.95","","","","","","Fog"
"-81.15","43.03","LONDON A","6144473","2019-03-21 09:00","2019","03","21","09:00","2.7","","2.5","","98","","10","","11","","6.4","","97.92","","","","","","Fog"
"-81.15","43.03","LONDON A","6144473","2019-03-21 10:00","2019","03","21","10:00","3.5","","2.9","","96","","13","","6","","8.1","","97.92","","","","","","Fog"
"-81.15","43.03","LONDON A","6144473","2019-03-21 11:00","2019","03","21","11:00","4.6","","3.8","","95","","19","","8","","9.7","","97.87","","","","","","Fog"
"-81.15","43.03","LONDON A","6144473","2019-03-21 12:00","2019","03","21","12:00","4.8","","4.1","","95","","22","","10","","12.9","","97.88","","","","","","NA"
"-81.15","43.03","LONDON A","6144473","2019-03-21 13:00","2019","03","21","13:00","4.9","","4.5","","97","","28","","9","","8.1","","97.81","","","","","","Fog"
"-81.15","43.03","LONDON A","6144473","2019-03-21 14:00","2019","03","21","14:00","5.6","","4.3","","91","","27","","8","","9.7","","97.73","","","","","","Fog"
"-81.15","43.03","LONDON A","6144473","2019-03-21 15:00","2019","03","21","15:00","5.7","","4.1","","90","","27","","12","","12.9","","97.67","","","","","","NA"
"-81.15","43.03","LONDON A","6144473","2019-03-21 16:00","2019","03","21","16:00","4.0","","3.4","","96","","31","","17","","4.0","","97.68","","","","","","Fog"
"-81.15","43.03","LONDON A","6144473","2019-03-21 17:00","2019","03","21","17:00","4.2","","2.6","","89","","29","","13","","12.9","","97.67","","","","","","NA"
"-81.15","43.03","LONDON A","6144473","2019-03-21 18:00","2019","03","21","18:00","3.1","","1.8","","91","","29","","9","","12.9","","97.70","","","","","","NA"
"-81.15","43.03","LONDON A","6144473","2019-03-21 19:00","2019","03","21","19:00","2.4","","1.4","","93","","31","","11","","12.9","","97.70","","","","","","Cloudy"
"-81.15","43.03","LONDON A","6144473","2019-03-21 20:00","2019","03","21","20:00","2.2","","1.2","","93","","30","","8","","12.9","","97.71","","","","","","Drizzle"
"-81.15","43.03","LONDON A","6144473","2019-03-21 21:00","2019","03","21","21:00","2.1","","1.4","","95","","29","","11","","12.9","","97.70","","","","","","NA"
"-81.15","43.03","LONDON A","6144473","2019-03-21 22:00","2019","03","21","22:00","2.2","","0.4","","88","","28","","12","","24.1","","97.66","","","","","","Cloudy"
"-81.15","43.03","LONDON A","6144473","2019-03-21 23:00","2019","03","21","23:00","2.1","","0.1","","86","","25","","10","","24.1","","97.59","","","","","","Drizzle"
"-81.15","43.03","LONDON A","6144473","2019-03-22 00:00","2019","03","22","00:00","2.2","","0.0","","85","","26","","12","","24.1","","97.54","","","","","","NA"
"-81.15","43.03","LONDON A","6144473","2019-03-22 01:00","2019","03","22","01:00","2.2","","-0.1","","85","","27","","17","","24.1","","97.49","","","","","","Cloudy"
"-81.15","43.03","LONDON A","6144473","2019-03-22 02:00","2019","03","22","02:00","1.8","","0.0","","88","","26","","13","","24.1","","97.44","","","","","","NA"
"-81.15","43.03","LONDON A","6144473","2019-03-22 03:00","2019","03","22","03:00","1.6","","0.0","","89","","26","","14","","24.1","","97.36","","","","","","NA"
"-81.15","43.03","LONDON A","6144473","2019-03-22 04:00","2019","03","22","04:00","1.4","","-0.5","","88","","27","","13","","24.1","","97.28","","","","","","Drizzle"
"-81.15","43.03","LONDON A","6144473","2019-03-22 05:00","2019","03","22","05:00","1.2","","-0.7","","87","","27","","18","","24.1","","97.26","","","","","","Snow"
"-81.15","43.03","LONDON A","6144473","2019-03-22 06:00","2019","03","22","06:00","1.1","","-0.9","","87","","30","","17","","24.1","","97.27","","","","","","NA"
"-81.15","43.03","LONDON A","6144473","2019-03-22 07:00","2019","03","22","07:00","0.7","","-2.6","","79","","31","","22","","24.1","","97.29","","","","","","Cloudy"
"-81.15","43.03","LONDON A","6144473","2019-03-22 08:00","2019","03","22","08:00","0.6","","-1.1","","88","","31","","23","","24.1","","97.28","","","","","","NA"
"-81.15","43.03","LONDON A","6144473","2019-03-22 09:00","2019","03","22","09:00","0.9","","-1.8","","82","","32","","24","","24.1","","97.31","","","","","","NA"
"-81.15","43.03","LONDON A","6144473","2019-03-22 10:00","2019","03","22","10:00","1.3","","-2.6","","75","","33","","34","","24.1","","97.35","","","","","","Mostly Cloudy"
"-81.15","43.03","LONDON A","6144473","2019-03-22 11:00","2019","03","22","11:00","1.7","","-3.3","","69","","33","","30","","24.1","","97.43","","","","","","NA"
"-81.15","43.03","LONDON A","6144473","2019-03-22 12:00","2019","03","22","12:00","2.1","","-4.1","","64","","32","","30","","24.1","","97.50","","","","","","NA"
"-81.15","43.03","LONDON A","6144473","2019-03-22 13:00","2019","03","22","13:00","2.0","","-4.3","","63","","31","","31","","24.1","","97.55","","","","","","Mostly Cloudy"
"-81.15","43.03","LONDON A","6144473","2019-03-22 14:00","2019","03","22","14:00","0.8","","-5.3","","64","","32","","40","","24.1","","97.61","","","","","","NA"
"-81.15","43.03","LONDON A","6144473","2019-03-22 15:00","2019","03","22","15:00","-1.2","","-5.8","","71","","32","","30","","24.1","","97.74","","","","-8","","NA"
"-81.15","43.03","LONDON A","6144473","2019-03-22 16:00","2019","03","22","16:00","-2.0","","-7.1","","68","","33","","36","","24.1","","97.81","","","","-10","","Cloudy"
"-81.15","43.03","LONDON A","6144473","2019-03-22 17:00","2019","03","22","17:00","-2.6","","-7.7","","68","","32","","33","","24.1","","97.89","","","","-10","","Snow Showers"
"-81.15","43.03","LONDON A","6144473","2019-03-22 18:00","2019","03","22","18:00","-2.5","","-7.9","","67","","33","","39","","24.1","","98.00","","","","-11","","NA"
"-81.15","43.03","LONDON A","6144473","2019-03-22 19:00","2019","03","22","19:00","-2.5","","-7.4","","69","","33","","33","","24.1","","98.10","","","","-10","","Cloudy"
"-81.15","43.03","LONDON A","6144473","2019-03-22 20:00","2019","03","22","20:00","-2.2","","-8.0","","65","","33","","37","","24.1","","98.17","","","","-10","","NA"
"-81.15","43.03","LONDON A","6144473","2019-03-22 21:00","2019","03","22","21:00","-2.4","","-8.4","","63","","31","","27","","24.1","","98.23","","","","-9","","NA"
"-81.15","43.03","LONDON A","6144473","2019-03-22 22:00","2019","03","22","22:00","-2.2","","-8.8","","61","","32","","26","","24.1","","98.29","","","","-9","","Mainly Clear"
"-81.15","43.03","LONDON A","6144473","2019-03-22 23:00","2019","03","22","23:00","-2.4","","-8.7","","62","","33","","28","","24.1","","98.32","","","","-9","","NA"
"-81.15","43.03","LONDON A","6144473","2019-03-23 00:00","2019","03","23","00:00","-2.9","","-10.4","","57","","33","","30","","24.1","","98.37","","","","-10","","NA"
"-81.15","43.03","LONDON A","6144473","2019-03-23 01:00","2019","03","23","01:00","-3.6","","-10.1","","61","","33","","23","","24.1","","98.40","","","","-10","","Clear"
"-81.15","43.03","LONDON A","6144473","2019-03-23 02:00","2019","03","23","02:00","-4.2","","-11.4","","57","","32","","23","","24.1","","98.46","","","","-11","","NA"
"-81.15","43.03","LONDON A","6144473","2019-03-23 03:00","2019","03","23","03:00","-5.0","","-10.7","","65","","33","","24","","24.1","","98.49","","","","-12","","NA"
"-81.15","43.03","LONDON A","6144473","2019-03-23 04:00","2019","03","23","04:00","-5.5","","-10.6","","67","","33","","22","","24.1","","98.56","","","","-13","","Clear"
"-81.15","43.03","LONDON A","6144473","2019-03-23 05:00","2019","03","23","05:00","-5.8","","-10.5","","70","","33","","17","","24.1","","98.60","","","","-12","","NA"
"-81.15","43.03","LONDON A","6144473","2019-03-23 06:00","2019","03","23","06:00","-6.0","","-10.6","","70","","32","","16","","24.1","","98.68","","","","-12","","NA"
"-81.15","43.03","LONDON A","6144473","2019-03-23 07:00","2019","03","23","07:00","-5.6","","-10.3","","70","","32","","17","","24.1","","98.82","","","","-12","","Clear"
"-81.15","43.03","LONDON A","6144473","2019-03-23 08:00","2019","03","23","08:00","-4.3","","-9.7","","66","","33","","26","","24.1","","98.89","","","","-12","","NA"
"-81.15","43.03","LONDON A","6144473","2019-03-23 09:00","2019","03","23","09:00","-3.0","","-9.7","","60","","32","","26","","24.1","","98.95","","","","-10","","NA"
"-81.15","43.03","LONDON A","6144473","2019-03-23 10:00","2019","03","23","10:00","-0.8","","-9.2","","54","","30","","17","","24.1","","99.00","","","","-6","","Clear"
"-81.15","43.03","LONDON A","6144473","2019-03-23 11:00","2019","03","23","11:00","0.1","","-8.8","","52","","30","","21","","24.1","","99.05","","","","","","NA"
"-81.15","43.03","LONDON A","6144473","2019-03-23 12:00","2019","03","23","12:00","0.3","","-8.1","","53","","30","","20","","24.1","","99.06","","","","","","NA"
"-81.15","43.03","LONDON A","6144473","2019-03-23 13:00","2019","03","23","13:00","1.5","","-7.7","","51","","31","","18","","24.1","","99.06","","","","","","Clear"
"-81.15","43.03","LONDON A","6144473","2019-03-23 14:00","2019","03","23","14:00","2.0","","-7.4","","50","","30","","19","","24.1","","99.04","","","","","","NA"
"-81.15","43.03","LONDON A","6144473","2019-03-23 15:00","2019","03","23","15:00","2.4","","-8.6","","44","","29","","25","","24.1","","99.05","","","","","","NA"
"-81.15","43.03","LONDON A","6144473","2019-03-23 16:00","2019","03","23","16:00","2.8","","-8.8","","42","","29","","17","","24.1","","99.06","","","","","","Clear"
"-81.15","43.03","LONDON A","6144473","2019-03-23 17:00","2019","03","23","17:00","3.1","","-9.3","","40","","28","","18","","24.1","","99.02","","","","","","NA"
"-81.15","43.03","LONDON A","6144473","2019-03-23 18:00","2019","03","23","18:00","2.7","","-8.5","","44","","28","","13","","24.1","","98.99","","","","","","NA"
"-81.15","43.03","LONDON A","6144473","2019-03-23 19:00","2019","03","23","19:00","0.8","","-7.9","","52","","25","","5","","24.1","","98.95","","","","","","Clear"
"-81.15","43.03","LONDON A","6144473","2019-03-23 20:00","2019","03","23","20:00","-0.4","","-4.5","","74","","20","","14","","24.1","","98.98","","","","-5","","NA"
"-81.15","43.03","LONDON A","6144473","2019-03-23 21:00","2019","03","23","21:00","-1.2","","-4.3","","80","","21","","10","","24.1","","98.99","","","","-5","","NA"
"-81.15","43.03","LONDON A","6144473","2019-03-23 22:00","2019","03","23","22:00","-0.6","","-4.9","","73","","24","","12","","24.1","","98.95","","","","-5","","Clear"
"-81.15","43.03","LONDON A","6144473","2019-03-23 23:00","2019","03","23","23:00","-0.6","","-5.8","","68","","24","","13","","24.1","","98.91","","","","-5","","NA"
"-81.15","43.03","LONDON A","6144473","2019-03-24 00:00","2019","03","24","00:00","-0.9","","-5.9","","69","","25","","12","","24.1","","98.88","","","","-5","","NA"
"-81.15","43.03","LONDON A","6144473","2019-03-24 01:00","2019","03","24","01:00","-1.4","","-5.9","","71","","24","","10","","24.1","","98.88","","","","-5","","Clear"
"-81.15","43.03","LONDON A","6144473","2019-03-24 02:00","2019","03","24","02:00","-1.6","","-6.2","","71","","25","","7","","24.1","","98.82","","","","-4","","NA"
"-81.15","43.03","LONDON A","6144473","2019-03-24 03:00","2019","03","24","03:00","-1.8","","-6.2","","72","","25","","8","","24.1","","98.80","","","","-5","","NA"
"-81.15","43.03","LONDON A","6144473","2019-03-24 04:00","2019","03","24","04:00","-2.8","","-6.2","","77","","23","","11","","24.1","","98.76","","","","-7","","Clear"
"-81.15","43.03","LONDON A","6144473","2019-03-24 05:00","2019","03","24","05:00","-3.0","","-5.6","","82","","24","","7","","24.1","","98.76","","","","-6","","NA"
"-81.15","43.03","LONDON A","6144473","2019-03-24 06:00","2019","03","24","06:00","-2.2","","-5.7","","77","","24","","5","","24.1","","98.76","","","","-4","","NA"
"-81.15","43.03","LONDON A","6144473","2019-03-24 07:00","2019","03","24","07:00","-2.2","","-5.3","","80","","22","","9","","24.1","","98.76","","","","-6","","Cloudy"
"-81.15","43.03","LONDON A","6144473","2019-03-24 08:00","2019","03","24","08:00","1.0","","-3.5","","72","","23","","9","","24.1","","98.77","","","","","","NA"
"-81.15","43.03","LONDON A","6144473","2019-03-24 09:00","2019","03","24","09:00","4.5","","-2.9","","59","","24","","15","","24.1","","98.72","","","","","","NA"
"-81.15","43.03","LONDON A","6144473","2019-03-24 10:00","2019","03","24","10:00","5.7","","-2.5","","56","","24","","16","","24.1","","98.65","","","","","","Cloudy"
"-81.15","43.03","LONDON A","6144473","2019-03-24 11:00","2019","03","24","11:00","7.9","","-1.6","","51","","24","","21","","24.1","","98.60","","","","","","NA"
"-81.15","43.03","LONDON A","6144473","2019-03-24 12:00","2019","03","24","12:00","8.3","","-0.7","","53","","25","","16","","24.1","","98.54","","","","","","NA"
"-81.15","43.03","LONDON A","6144473","2019-03-24 13:00","2019","03","24","13:00","9.0","","-0.2","","52","","22","","24","","24.1","","98.49","","","","","","Mostly Cloudy"
"-81.15","43.03","LONDON A","6144473","2019-03-24 14:00","2019","03","24","14:00","9.2","","-0.5","","51","","24","","16","","24.1","","98.42","","","","","","NA"
"-81.15","43.03","LONDON A","6144473","2019-03-24 15:00","2019","03","24","15:00","10.1","","-1.1","","45","","25","","20","","24.1","","98.36","","","","","","NA"
"-81.15","43.03","LONDON A","6144473","2019-03-24 16:00","2019","03","24","16:00","10.5","","0.1","","49","","26","","20","","24.1","","98.34","","","","","","Cloudy"
"-81.15","43.03","LONDON A","6144473","2019-03-24 17:00","2019","03","24","17:00","9.4","","-0.2","","51","","27","","17","","24.1","","98.37","","","","","","NA"
"-81.15","43.03","LONDON A","6144473","2019-03-24 18:00","2019","03","24","18:00","7.7","","0.3","","59","","32","","10","","24.1","","98.40","","","","","","NA"
"-81.15","43.03","LONDON A","6144473","2019-03-24 19:00","2019","03","24","19:00","4.9","","-0.4","","69","","34","","14","","24.1","","98.46","","","","","","Mostly Cloudy"
"-81.15","43.03","LONDON A","6144473","2019-03-24 20:00","2019","03","24","20:00","3.4","","-1.4","","71","","35","","14","","24.1","","98.55","","","","","","NA"
"-81.15","43.03","LONDON A","6144473","2019-03-24 21:00","2019","03","24","21:00","2.4","","-2.1","","72","","35","","7","","24.1","","98.60","","","","","","NA"
"-81.15","43.03","LONDON A","6144473","2019-03-24 22:00","2019","03","24","22:00","1.3","","-2.8","","74","","35","","9","","24.1","","98.62","","","","","","Mainly Clear"
"-81.15","43.03","LONDON A","6144473","2019-03-24 23:00","2019","03","24","23:00","0.2","","-3.2","","78","","1","","11","","24.1","","98.66","","","","","","NA"
"-81.15","43.03","LONDON A","6144473","2019-03-25 00:00","2019","03","25","00:00","-0.4","","-3.4","","80","","36","","12","","24.1","","98.70","","","","-4","","NA"
"-81.15","43.03","LONDON A","6144473","2019-03-25 01:00","2019","03","25","01:00","-0.9","","-3.7","","81","","1","","13","","24.1","","98.69","","","","-5","","Mainly Clear"
"-81.15","43.03","LONDON A","6144473","2019-03-25 02:00","2019","03","25","02:00","-1.2","","-4.2","","80","","3","","11","","24.1","","98.72","","","","-5","","NA"
"-81.15","43.03","LONDON A","6144473","2019-03-25 03:00","2019","03","25","03:00","-0.6","","-7.0","","62","","3","","16","","24.1","","98.77","","","","-5","","NA"
"-81.15","43.03","LONDON A","6144473","2019-03-25 04:00","2019","03","25","04:00","-0.9","","-8.9","","55","","3","","17","","24.1","","98.83","","","","-6","","Mostly Cloudy"
"-81.15","43.03","LONDON A","6144473","2019-03-25 05:00","2019","03","25","05:00","-1.8","","-12.4","","44","","4","","21","","24.1","","98.85","","","","-8","","NA"
"-81.15","43.03","LONDON A","6144473","2019-03-25 06:00","2019","03","25","06:00","-2.6","","-12.7","","46","","4","","21","","24.1","","98.86","","","","-9","","NA"
"-81.15","43.03","LONDON A","6144473","2019-03-25 07:00","2019","03","25","07:00","-2.8","","-11.4","","52","","4","","16","","24.1","","98.95","","","","-8","","Clear"
"-81.15","43.03","LONDON A","6144473","2019-03-25 08:00","2019","03","25","08:00","-1.5","","-10.6","","50","","5","","16","","24.1","","99.04","","","","-6","","NA"
"-81.15","43.03","LONDON A","6144473","2019-03-25 09:00","2019","03","25","09:00","-0.7","","-10.3","","48","","4","","17","","24.1","","99.07","","","","-6","","NA"
"-81.15","43.03","LONDON A","6144473","2019-03-25 10:00","2019","03","25","10:00","0.6","","-11.3","","41","","5","","15","","24.1","","99.04","","","","","","Mainly Clear"
"-81.15","43.03","LONDON A","6144473","2019-03-25 11:00","2019","03","25","11:00","1.2","","-11.9","","37","","5","","17","","24.1","","99.02","","","","","","NA"
"-81.15","43.03","LONDON A","6144473","2019-03-25 12:00","2019","03","25","12:00","2.0","","-14.1","","30","","1","","13","","24.1","","99.01","","","","","","NA"
"-81.15","43.03","LONDON A","6144473","2019-03-25 13:00","2019","03","25","13:00","3.2","","-13.1","","29","","2","","15","","24.1","","98.99","","","","","","Clear"
"-81.15","43.03","LONDON A","6144473","2019-03-25 14:00","2019","03","25","14:00","2.9","","-12.5","","31","","36","","21","","24.1","","98.96","","","","","","NA"
"-81.15","43.03","LONDON A","6144473","2019-03-25 15:00","2019","03","25","15:00","3.5","","-11.5","","33","","33","","18","","24.1","","98.93","","","","","","NA"
"-81.15","43.03","LONDON A","6144473","2019-03-25 16:00","2019","03","25","16:00","3.3","","-12.1","","32","","34","","16","","24.1","","98.91","","","","","","Clear"
"-81.15","43.03","LONDON A","6144473","2019-03-25 17:00","2019","03","25","17:00","1.6","","-9.2","","44","","32","","23","","24.1","","98.93","","","","","","NA"
"-81.15","43.03","LONDON A","6144473","2019-03-25 18:00","2019","03","25","18:00","-0.1","","-10.2","","47","","32","","24","","24.1","","99.00","","","","-6","","NA"
"-81.15","43.03","LONDON A","6144473","2019-03-25 19:00","2019","03","25","19:00","-2.0","","-9.8","","55","","32","","17","","24.1","","99.04","","","","-7","","Clear"
"-81.15","43.03","LONDON A","6144473","2019-03-25 20:00","2019","03","25","20:00","-2.7","","-11.8","","50","","34","","14","","24.1","","99.12","","","","-8","","NA"
"-81.15","43.03","LONDON A","6144473","2019-03-25 21:00","2019","03","25","21:00","-3.8","","-12.7","","50","","34","","7","","24.1","","99.16","","","","-7","","NA"
"-81.15","43.03","LONDON A","6144473","2019-03-25 22:00","2019","03","25","22:00","-3.7","","-12.4","","51","","31","","7","","24.1","","99.19","","","","-7","","Clear"
"-81.15","43.03","LONDON A","6144473","2019-03-25 23:00","2019","03","25","23:00","-4.6","","-11.2","","60","","30","","5","","24.1","","99.23","","","","-7","","NA"
"-81.15","43.03","LONDON A","6144473","2019-03-26 00:00","2019","03","26","00:00","-5.1","","-10.9","","64","","33","","7","","24.1","","99.24","","","","-8","","NA"
"-81.15","43.03","LONDON A","6144473","2019-03-26 01:00","2019","03","26","01:00","-5.0","","-10.0","","68","","33","","6","","24.1","","99.24","","","","-8","","Clear"
"-81.15","43.03","LONDON A","6144473","2019-03-26 02:00","2019","03","26","02:00","-5.2","","-9.8","","70","","35","","10","","24.1","","99.26","","","","-10","","NA"
"-81.15","43.03","LONDON A","6144473","2019-03-26 03:00","2019","03","26","03:00","-4.8","","-8.7","","74","","34","","13","","24.1","","99.25","","","","-10","","NA"
"-81.15","43.03","LONDON A","6144473","2019-03-26 04:00","2019","03","26","04:00","-4.7","","-8.6","","75","","34","","12","","24.1","","99.27","","","","-9","","Clear"
"-81.15","43.03","LONDON A","6144473","2019-03-26 05:00","2019","03","26","05:00","-5.0","","-8.5","","76","","35","","14","","24.1","","99.33","","","","-10","","NA"
"-81.15","43.03","LONDON A","6144473","2019-03-26 06:00","2019","03","26","06:00","-5.4","","-8.7","","78","","35","","12","","24.1","","99.42","","","","-10","","NA"
"-81.15","43.03","LONDON A","6144473","2019-03-26 07:00","2019","03","26","07:00","-4.8","","-8.4","","76","","36","","12","","24.1","","99.53","","","","-10","","Clear"
"-81.15","43.03","LONDON A","6144473","2019-03-26 08:00","2019","03","26","08:00","-2.7","","-8.8","","63","","4","","17","","24.1","","99.59","","","","-8","","NA"
"-81.15","43.03","LONDON A","6144473","2019-03-26 09:00","2019","03","26","09:00","-0.5","","-10.1","","49","","8","","16","","24.1","","99.68","","","","-5","","NA"
"-81.15","43.03","LONDON A","6144473","2019-03-26 10:00","2019","03","26","10:00","0.7","","-12.6","","37","","8","","11","","24.1","","99.70","","","","","","Clear"
"-81.15","43.03","LONDON A","6144473","2019-03-26 11:00","2019","03","26","11:00","1.6","","-13.8","","31","","8","","9","","24.1","","99.72","","","","","","NA"
"-81.15","43.03","LONDON A","6144473","2019-03-26 12:00","2019","03","26","12:00","2.6","","-13.9","","29","","12","","12","","24.1","","99.71","","","","","","NA"
"-81.15","43.03","LONDON A","6144473","2019-03-26 13:00","2019","03","26","13:00","2.9","","-14.9","","26","","32","","4","","24.1","","99.69","","","","","","Clear"
"-81.15","43.03","LONDON A","6144473","2019-03-26 14:00","2019","03","26","14:00","4.2","","-11.9","","30","","31","","19","","24.1","","99.64","","","","","","NA"
"-81.15","43.03","LONDON A","6144473","2019-03-26 15:00","2019","03","26","15:00","4.0","","-13.6","","27","","7","","6","","24.1","","99.59","","","","","","NA"
"-81.15","43.03","LONDON A","6144473","2019-03-26 16:00","2019","03","26","16:00","4.5","","-12.6","","28","","35","","10","","24.1","","99.59","","","","","","Mainly Clear"
"-81.15","43.03","LONDON A","6144473","2019-03-26 17:00","2019","03","26","17:00","4.5","","-11.5","","30","","32","","5","","24.1","","99.59","","","","","","NA"
"-81.15","43.03","LONDON A","6144473","2019-03-26 18:00","2019","03","26","18:00","3.0","","-8.4","","43","","32","","12","","24.1","","99.57","","","","","","NA"
"-81.15","43.03","LONDON A","6144473","2019-03-26 19:00","2019","03","26","19:00","0.3","","-7.7","","55","","20","","14","","24.1","","99.60","","","","","","Mainly Clear"
"-81.15","43.03","LONDON A","6144473","2019-03-26 20:00","2019","03","26","20:00","-1.1","","-8.5","","58","","28","","6","","24.1","","99.64","","","","-3","","NA"
"-81.15","43.03","LONDON A","6144473","2019-03-26 21:00","2019","03","26","21:00","-2.2","","-9.1","","59","","32","","5","","24.1","","99.65","","","","-4","","NA"
"-81.15","43.03","LONDON A","6144473","2019-03-26 22:00","2019","03","26","22:00","-2.3","","-8.6","","62","","19","","6","","24.1","","99.64","","","","-5","","Mainly Clear"
"-81.15","43.03","LONDON A","6144473","2019-03-26 23:00","2019","03","26","23:00","-3.2","","-7.4","","73","","12","","4","","24.1","","99.62","","","","-5","","NA"
"-81.15","43.03","LONDON A","6144473","2019-03-27 00:00","2019","03","27","00:00","-3.2","","-6.6","","77","","11","","4","","24.1","","99.58","","","","-5","","NA"
"-81.15","43.03","LONDON A","6144473","2019-03-27 01:00","2019","03","27","01:00","-3.9","","-6.9","","80","","36","","1","","24.1","","99.61","","","","-4","","Mostly Cloudy"
"-81.15","43.03","LONDON A","6144473","2019-03-27 02:00","2019","03","27","02:00","-4.2","","-7.1","","80","","17","","6","","24.1","","99.62","","","","-7","","NA"
"-81.15","43.03","LONDON A","6144473","2019-03-27 03:00","2019","03","27","03:00","-3.8","","-7.3","","77","","19","","3","","24.1","","99.60","","","","-5","","NA"
"-81.15","43.03","LONDON A","6144473","2019-03-27 04:00","2019","03","27","04:00","-3.9","","-7.1","","78","","11","","4","","24.1","","99.61","","","","-6","","Mostly Cloudy"
"-81.15","43.03","LONDON A","6144473","2019-03-27 05:00","2019","03","27","05:00","-4.4","","-6.5","","85","","11","","3","","24.1","","99.63","","","","-6","","NA"
"-81.15","43.03","LONDON A","6144473","2019-03-27 06:00","2019","03","27","06:00","-5.0","","-6.5","","89","","11","","7","","24.1","","99.64","","","","-8","","NA"
"-81.15","43.03","LONDON A","6144473","2019-03-27 07:00","2019","03","27","07:00","-4.1","","-5.4","","91","","10","","4","","24.1","","99.72","","","","-6","","Mainly Clear"
"-81.15","43.03","LONDON A","6144473","2019-03-27 08:00","2019","03","27","08:00","-1.1","","-5.8","","71","","14","","6","","24.1","","99.71","","","","-3","","NA"
"-81.15","43.03","LONDON A","6144473","2019-03-27 09:00","2019","03","27","09:00","2.1","","-8.0","","48","","18","","10","","24.1","","99.69","","","","","","NA"
"-81.15","43.03","LONDON A","6144473","2019-03-27 10:00","2019","03","27","10:00","3.6","","-8.4","","41","","16","","17","","24.1","","99.66","","","","","","Mainly Clear"
"-81.15","43.03","LONDON A","6144473","2019-03-27 11:00","2019","03","27","11:00","4.3","","-8.8","","38","","17","","8","","24.1","","99.62","","","","","","NA"
"-81.15","43.03","LONDON A","6144473","2019-03-27 12:00","2019","03","27","12:00","5.2","","-9.3","","34","","17","","17","","24.1","","99.53","","","","","","NA"
"-81.15","43.03","LONDON A","6144473","2019-03-27 13:00","2019","03","27","13:00","6.9","","-9.5","","30","","17","","18","","24.1","","99.45","","","","","","Mainly Clear"
"-81.15","43.03","LONDON A","6144473","2019-03-27 14:00","2019","03","27","14:00","7.5","","-10.6","","26","","22","","12","","24.1","","99.37","","","","","","NA"
"-81.15","43.03","LONDON A","6144473","2019-03-27 15:00","2019","03","27","15:00","7.5","","-13.4","","21","","19","","17","","24.1","","99.28","","","","","","NA"
"-81.15","43.03","LONDON A","6144473","2019-03-27 16:00","2019","03","27","16:00","7.1","","-13.3","","22","","18","","18","","24.1","","99.20","","","","","","Mostly Cloudy"
"-81.15","43.03","LONDON A","6144473","2019-03-27 17:00","2019","03","27","17:00","6.3","","-15.0","","20","","19","","19","","24.1","","99.14","","","","","","NA"
"-81.15","43.03","LONDON A","6144473","2019-03-27 18:00","2019","03","27","18:00","5.9","","-11.8","","27","","20","","19","","24.1","","99.09","","","","","","NA"
"-81.15","43.03","LONDON A","6144473","2019-03-27 19:00","2019","03","27","19:00","3.8","","-9.2","","38","","18","","14","","24.1","","99.02","","","","","","Mostly Cloudy"
"-81.15","43.03","LONDON A","6144473","2019-03-27 20:00","2019","03","27","20:00","1.6","","-8.9","","46","","16","","14","","24.1","","98.98","","","","","","NA"
"-81.15","43.03","LONDON A","6144473","2019-03-27 21:00","2019","03","27","21:00","0.3","","-9.5","","48","","16","","9","","24.1","","98.95","","","","","","NA"
"-81.15","43.03","LONDON A","6144473","2019-03-27 22:00","2019","03","27","22:00","-0.4","","-8.5","","55","","16","","13","","24.1","","98.91","","","","-5","","Mainly Clear"
"-81.15","43.03","LONDON A","6144473","2019-03-27 23:00","2019","03","27","23:00","-1.3","","-7.3","","64","","16","","12","","24.1","","98.81","","","","-5","","NA"
"-81.15","43.03","LONDON A","6144473","2019-03-28 00:00","2019","03","28","00:00","-0.5","","-7.7","","58","","16","","11","","24.1","","98.73","","","","-4","","NA"
"-81.15","43.03","LONDON A","6144473","2019-03-28 01:00","2019","03","28","01:00","0.2","","-7.5","","56","","18","","10","","24.1","","98.71","","","","","","Clear"
"-81.15","43.03","LONDON A","6144473","2019-03-28 02:00","2019","03","28","02:00","1.6","","-5.9","","57","","20","","12","","24.1","","98.70","","","","","","NA"
"-81.15","43.03","LONDON A","6144473","2019-03-28 03:00","2019","03","28","03:00","3.2","","-4.9","","56","","21","","12","","24.1","","98.64","","","","","","NA"
"-81.15","43.03","LONDON A","6144473","2019-03-28 04:00","2019","03","28","04:00","5.0","","-4.7","","50","","20","","20","","24.1","","98.57","","","","","","Cloudy"
"-81.15","43.03","LONDON A","6144473","2019-03-28 05:00","2019","03","28","05:00","4.6","","-3.6","","55","","18","","18","","24.1","","98.54","","","","","","NA"
"-81.15","43.03","LONDON A","6144473","2019-03-28 06:00","2019","03","28","06:00","4.8","","-3.4","","56","","20","","19","","24.1","","98.47","","","","","","NA"
"-81.15","43.03","LONDON A","6144473","2019-03-28 07:00","2019","03","28","07:00","4.8","","-3.0","","57","","19","","23","","24.1","","98.49","","","","","","Cloudy"
"-81.15","43.03","LONDON A","6144473","2019-03-28 08:00","2019","03","28","08:00","4.3","","-1.0","","68","","20","","18","","24.1","","98.50","","","","","","Rain Showers"
"-81.15","43.03","LONDON A","6144473","2019-03-28 09:00","2019","03","28","09:00","4.2","","0.0","","74","","21","","17","","19.3","","98.47","","","","","","Rain Showers"
"-81.15","43.03","LONDON A","6144473","2019-03-28 10:00","2019","03","28","10:00","4.3","","1.8","","84","","19","","16","","24.1","","98.42","","","","","","Cloudy"
"-81.15","43.03","LONDON A","6144473","2019-03-28 11:00","2019","03","28","11:00","5.4","","3.1","","85","","20","","17","","24.1","","98.41","","","","","","NA"
"-81.15","43.03","LONDON A","6144473","2019-03-28 12:00","2019","03","28","12:00","6.9","","4.5","","84","","20","","22","","24.1","","98.32","","","","","","NA"
"-81.15","43.03","LONDON A","6144473","2019-03-28 13:00","2019","03","28","13:00","8.5","","3.5","","70","","18","","20","","24.1","","98.29","","","","","","Cloudy"
"-81.15","43.03","LONDON A","6144473","2019-03-28 14:00","2019","03","28","14:00","10.2","","4.1","","66","","19","","19","","24.1","","98.25","","","","","","NA"
"-81.15","43.03","LONDON A","6144473","2019-03-28 15:00","2019","03","28","15:00","11.5","","3.5","","58","","19","","21","","24.1","","98.19","","","","","","NA"
"-81.15","43.03","LONDON A","6144473","2019-03-28 16:00","2019","03","28","16:00","12.0","","4.1","","58","","18","","19","","24.1","","98.15","","","","","","Mainly Clear"
"-81.15","43.03","LONDON A","6144473","2019-03-28 17:00","2019","03","28","17:00","12.2","","4.9","","61","","20","","23","","24.1","","98.18","","","","","","NA"
"-81.15","43.03","LONDON A","6144473","2019-03-28 18:00","2019","03","28","18:00","11.5","","5.0","","64","","20","","17","","24.1","","98.18","","","","","","NA"
"-81.15","43.03","LONDON A","6144473","2019-03-28 19:00","2019","03","28","19:00","11.1","","4.8","","65","","20","","9","","24.1","","98.22","","","","","","Mostly Cloudy"
"-81.15","43.03","LONDON A","6144473","2019-03-28 20:00","2019","03","28","20:00","9.2","","4.7","","73","","8","","10","","24.1","","98.24","","","","","","NA"
"-81.15","43.03","LONDON A","6144473","2019-03-28 21:00","2019","03","28","21:00","7.2","","3.5","","77","","12","","5","","24.1","","98.22","","","","","","NA"
"-81.15","43.03","LONDON A","6144473","2019-03-28 22:00","2019","03","28","22:00","6.6","","3.4","","80","","36","","10","","24.1","","98.25","","","","","","Cloudy"
"-81.15","43.03","LONDON A","6144473","2019-03-28 23:00","2019","03","28","23:00","5.5","","2.0","","78","","2","","14","","24.1","","98.31","","","","","","NA"
"-81.15","43.03","LONDON A","6144473","2019-03-29 00:00","2019","03","29","00:00","4.9","","-0.1","","70","","1","","15","","24.1","","98.36","","","","","","NA"
"-81.15","43.03","LONDON A","6144473","2019-03-29 01:00","2019","03","29","01:00","4.6","","-1.7","","63","","3","","16","","24.1","","98.35","","","","","","Cloudy"
"-81.15","43.03","LONDON A","6144473","2019-03-29 02:00","2019","03","29","02:00","4.4","","-0.9","","68","","3","","11","","24.1","","98.35","","","","","","NA"
"-81.15","43.03","LONDON A","6144473","2019-03-29 03:00","2019","03","29","03:00","3.9","","0.1","","76","","3","","14","","24.1","","98.37","","","","","","NA"
"-81.15","43.03","LONDON A","6144473","2019-03-29 04:00","2019","03","29","04:00","3.2","","-0.4","","78","","4","","10","","24.1","","98.39","","","","","","Cloudy"
"-81.15","43.03","LONDON A","6144473","2019-03-29 05:00","2019","03","29","05:00","3.0","","-0.7","","77","","1","","5","","24.1","","98.47","","","","","","NA"
"-81.15","43.03","LONDON A","6144473","2019-03-29 06:00","2019","03","29","06:00","2.8","","-0.5","","79","","34","","8","","24.1","","98.55","","","","","","NA"
"-81.15","43.03","LONDON A","6144473","2019-03-29 07:00","2019","03","29","07:00","3.0","","-0.5","","78","","34","","6","","24.1","","98.60","","","","","","Cloudy"
"-81.15","43.03","LONDON A","6144473","2019-03-29 08:00","2019","03","29","08:00","3.4","","-0.9","","74","","1","","10","","24.1","","98.60","","","","","","NA"
"-81.15","43.03","LONDON A","6144473","2019-03-29 09:00","2019","03","29","09:00","4.2","","-1.2","","68","","2","","11","","24.1","","98.65","","","","","","NA"
"-81.15","43.03","LONDON A","6144473","2019-03-29 10:00","2019","03","29","10:00","6.1","","-1.9","","56","","6","","10","","24.1","","98.68","","","","","","Mostly Cloudy"
"-81.15","43.03","LONDON A","6144473","2019-03-29 11:00","2019","03","29","11:00","6.8","","-3.2","","49","","2","","7","","24.1","","98.69","","","","","","NA"
"-81.15","43.03","LONDON A","6144473","2019-03-29 12:00","2019","03","29","12:00","8.5","","-1.2","","50","","2","","15","","24.1","","98.64","","","","","","NA"
"-81.15","43.03","LONDON A","6144473","2019-03-29 13:00","2019","03","29","13:00","9.8","","-2.1","","43","","36","","12","","24.1","","98.61","","","","","","Mostly Cloudy"
"-81.15","43.03","LONDON A","6144473","2019-03-29 14:00","2019","03","29","14:00","9.6","","-3.5","","39","","35","","6","","24.1","","98.55","","","","","","NA"
"-81.15","43.03","LONDON A","6144473","2019-03-29 15:00","2019","03","29","15:00","10.2","","-2.9","","40","","30","","5","","24.1","","98.49","","","","","","NA"
"-81.15","43.03","LONDON A","6144473","2019-03-29 16:00","2019","03","29","16:00","10.3","","-2.5","","41","","35","","7","","24.1","","98.42","","","","","","Mainly Clear"
"-81.15","43.03","LONDON A","6144473","2019-03-29 17:00","2019","03","29","17:00","10.2","","-2.6","","41","","5","","4","","24.1","","98.42","","","","","","NA"
"-81.15","43.03","LONDON A","6144473","2019-03-29 18:00","2019","03","29","18:00","9.0","","-2.1","","46","","5","","7","","24.1","","98.44","","","","","","NA"
"-81.15","43.03","LONDON A","6144473","2019-03-29 19:00","2019","03","29","19:00","7.8","","-0.8","","54","","18","","8","","24.1","","98.45","","","","","","Mostly Cloudy"
"-81.15","43.03","LONDON A","6144473","2019-03-29 20:00","2019","03","29","20:00","7.0","","-2.6","","51","","19","","10","","24.1","","98.49","","","","","","NA"
"-81.15","43.03","LONDON A","6144473","2019-03-29 21:00","2019","03","29","21:00","6.6","","-3.5","","48","","36","","2","","24.1","","98.48","","","","","","NA"
"-81.15","43.03","LONDON A","6144473","2019-03-29 22:00","2019","03","29","22:00","5.6","","-0.7","","64","","8","","7","","24.1","","98.40","","","","","","Cloudy"
"-81.15","43.03","LONDON A","6144473","2019-03-29 23:00","2019","03","29","23:00","5.5","","-1.4","","61","","5","","12","","24.1","","98.34","","","","","","NA"
"-81.15","43.03","LONDON A","6144473","2019-03-30 00:00","2019","03","30","00:00","5.1","","-1.4","","63","","7","","17","","24.1","","98.24","","","","","","Rain"
"-81.15","43.03","LONDON A","6144473","2019-03-30 01:00","2019","03","30","01:00","4.2","","0.5","","77","","8","","19","","19.3","","98.11","","","","","","Rain"
"-81.15","43.03","LONDON A","6144473","2019-03-30 02:00","2019","03","30","02:00","3.9","","1.3","","83","","9","","18","","24.1","","97.97","","","","","","Rain"
"-81.15","43.03","LONDON A","6144473","2019-03-30 03:00","2019","03","30","03:00","3.0","","0.9","","86","","8","","23","","24.1","","97.80","","","","","","Rain"
"-81.15","43.03","LONDON A","6144473","2019-03-30 04:00","2019","03","30","04:00","1.8","","0.9","","94","","8","","24","","9.7","","97.72","","","","","","Rain,Fog"
"-81.15","43.03","LONDON A","6144473","2019-03-30 05:00","2019","03","30","05:00","1.6","","1.0","","96","","8","","23","","8.1","","97.66","","","","","","Rain,Fog"
"-81.15","43.03","LONDON A","6144473","2019-03-30 06:00","2019","03","30","06:00","1.8","","1.3","","97","","9","","23","","6.4","","97.52","","","","","","Rain,Fog"
"-81.15","43.03","LONDON A","6144473","2019-03-30 07:00","2019","03","30","07:00","1.9","","1.5","","97","","8","","24","","2.4","","97.47","","","","","","Rain,Fog"
"-81.15","43.03","LONDON A","6144473","2019-03-30 08:00","2019","03","30","08:00","2.4","","2.1","","98","","8","","17","","3.2","","97.37","","","","","","Rain,Fog"
"-81.15","43.03","LONDON A","6144473","2019-03-30 09:00","2019","03","30","09:00","3.5","","3.3","","99","","10","","20","","1.6","","97.23","","","","","","Rain,Fog"
"-81.15","43.03","LONDON A","6144473","2019-03-30 10:00","2019","03","30","10:00","4.8","","4.7","","99","","11","","13","","4.0","","97.15","","","","","","Rain,Fog"
"-81.15","43.03","LONDON A","6144473","2019-03-30 11:00","2019","03","30","11:00","8.7","","8.7","","100","","19","","16","","3.2","","97.07","","","","","","Rain,Fog"
"-81.15","43.03","LONDON A","6144473","2019-03-30 12:00","2019","03","30","12:00","9.6","","9.5","","99","","19","","17","","6.4","","96.97","","","","","","Rain,Fog"
"-81.15","43.03","LONDON A","6144473","2019-03-30 13:00","2019","03","30","13:00","9.3","","9.0","","98","","25","","22","","4.0","","97.06","","","","","","Rain Showers,Fog"
"-81.15","43.03","LONDON A","6144473","2019-03-30 14:00","2019","03","30","14:00","6.3","","5.6","","95","","29","","22","","12.9","","97.11","","","","","","NA"
"-81.15","43.03","LONDON A","6144473","2019-03-30 15:00","2019","03","30","15:00","5.0","","4.1","","94","","29","","21","","19.3","","97.17","","","","","","NA"
"-81.15","43.03","LONDON A","6144473","2019-03-30 16:00","2019","03","30","16:00","4.3","","3.8","","97","","30","","16","","16.1","","97.24","","","","","","Cloudy"
"-81.15","43.03","LONDON A","6144473","2019-03-30 17:00","2019","03","30","17:00","3.7","","3.5","","98","","32","","12","","9.7","","97.22","","","","","","Rain Showers,Fog"
"-81.15","43.03","LONDON A","6144473","2019-03-30 18:00","2019","03","30","18:00","2.8","","2.2","","96","","33","","22","","6.4","","97.37","","","","","","Rain,Fog"
"-81.15","43.03","LONDON A","6144473","2019-03-30 19:00","2019","03","30","19:00","0.7","","0.2","","97","","35","","15","","2.4","","97.34","","","","","","Snow"
"-81.15","43.03","LONDON A","6144473","2019-03-30 20:00","2019","03","30","20:00","0.9","","0.4","","97","","35","","19","","9.7","","97.38","","","","","","Snow"
"-81.15","43.03","LONDON A","6144473","2019-03-30 21:00","2019","03","30","21:00","0.3","","-0.2","","97","","35","","17","","2.4","","97.39","","","","","","Snow"
"-81.15","43.03","LONDON A","6144473","2019-03-30 22:00","2019","03","30","22:00","0.1","","-0.3","","97","","35","","22","","0.8","","97.38","","","","","","Moderate Snow"
"-81.15","43.03","LONDON A","6144473","2019-03-30 23:00","2019","03","30","23:00","-0.1","","-0.5","","98","","34","","22","","1.2","","97.46","","","","-6","","Snow"
"-81.15","43.03","LONDON A","6144473","2019-03-31 00:00","2019","03","31","00:00","-0.4","","-0.7","","97","","33","","23","","1.6","","97.38","","","","-6","","Snow"
"-81.15","43.03","LONDON A","6144473","2019-03-31 01:00","2019","03","31","01:00","-0.8","","-1.4","","95","","32","","22","","1.6","","97.58","","","","-7","","Snow"
"-81.15","43.03","LONDON A","6144473","2019-03-31 02:00","2019","03","31","02:00","-1.2","","-2.4","","92","","32","","25","","4.0","","97.55","","","","-7","","Snow"
"-81.15","43.03","LONDON A","6144473","2019-03-31 03:00","2019","03","31","03:00","-2.3","","-3.9","","89","","32","","23","","19.3","","97.60","","","","-9","","Snow"
"-81.15","43.03","LONDON A","6144473","2019-03-31 04:00","2019","03","31","04:00","-2.8","","-4.5","","88","","32","","24","","24.1","","97.71","","","","-9","","Blowing Snow"
"-81.15","43.03","LONDON A","6144473","2019-03-31 05:00","2019","03","31","05:00","-2.9","","-4.5","","89","","31","","24","","16.1","","97.84","","","","-10","","Snow,Blowing Snow"
"-81.15","43.03","LONDON A","6144473","2019-03-31 06:00","2019","03","31","06:00","-3.0","","-4.6","","89","","31","","24","","12.9","","97.95","","","","-10","","Snow,Blowing Snow"
"-81.15","43.03","LONDON A","6144473","2019-03-31 07:00","2019","03","31","07:00","-3.3","","-4.9","","89","","30","","24","","19.3","","98.07","","","","-10","","Snow,Blowing Snow"
"-81.15","43.03","LONDON A","6144473","2019-03-31 08:00","2019","03","31","08:00","-3.1","","-5.4","","84","","30","","23","","19.3","","98.16","","","","-10","","Snow,Blowing Snow"
"-81.15","43.03","LONDON A","6144473","2019-03-31 09:00","2019","03","31","09:00","-3.1","","-5.8","","82","","30","","26","","24.1","","98.20","","","","-10","","Snow"
"-81.15","43.03","LONDON A","6144473","2019-03-31 10:00","2019","03","31","10:00","-3.4","","-6.0","","83","","31","","23","","24.1","","98.26","","","","-10","","Snow"
"-81.15","43.03","LONDON A","6144473","2019-03-31 11:00","2019","03","31","11:00","-3.2","","-6.5","","78","","31","","18","","24.1","","98.30","","","","-9","","Snow"
"-81.15","43.03","LONDON A","6144473","2019-03-31 12:00","2019","03","31","12:00","-3.9","","-7.2","","78","","30","","31","","19.3","","98.36","","","","-12","","Snow"
"-81.15","43.03","LONDON A","6144473","2019-03-31 13:00","2019","03","31","13:00","-3.7","","-7.2","","77","","31","","22","","16.1","","98.43","","","","-10","","Snow Showers"
"-81.15","43.03","LONDON A","6144473","2019-03-31 14:00","2019","03","31","14:00","-4.0","","-7.5","","77","","30","","28","","4.8","","98.47","","","","-11","","Snow Showers"
"-81.15","43.03","LONDON A","6144473","2019-03-31 15:00","2019","03","31","15:00","-4.3","","-7.2","","80","","30","","22","","4.0","","98.52","","","","-11","","Snow,Snow Showers"
"-81.15","43.03","LONDON A","6144473","2019-03-31 16:00","2019","03","31","16:00","-3.9","","-8.2","","72","","31","","28","","9.7","","98.54","","","","-11","","Snow Showers"
"-81.15","43.03","LONDON A","6144473","2019-03-31 17:00","2019","03","31","17:00","-4.0","","-8.4","","72","","30","","25","","9.7","","98.60","","","","-11","","Snow Showers"
"-81.15","43.03","LONDON A","6144473","2019-03-31 18:00","2019","03","31","18:00","-3.9","","-7.9","","74","","29","","18","","24.1","","98.65","","","","-10","","NA"
"-81.15","43.03","LONDON A","6144473","2019-03-31 19:00","2019","03","31","19:00","-4.6","","-6.7","","86","","29","","17","","2.4","","98.72","","","","-10","","Snow Showers"
"-81.15","43.03","LONDON A","6144473","2019-03-31 20:00","2019","03","31","20:00","-5.2","","-6.9","","88","","27","","12","","24.1","","98.79","","","","-10","","NA"
"-81.15","43.03","LONDON A","6144473","2019-03-31 21:00","2019","03","31","21:00","-5.5","","-8.4","","80","","28","","11","","24.1","","98.87","","","","-10","","NA"
"-81.15","43.03","LONDON A","6144473","2019-03-31 22:00","2019","03","31","22:00","-6.1","","-8.9","","81","","26","","10","","24.1","","98.89","","","","-11","","Mainly Clear"
"-81.15","43.03","LONDON A","6144473","2019-03-31 23:00","2019","03","31","23:00","-6.5","","-9.1","","82","","25","","8","","24.1","","98.94","","","","-10","","NA"
