"Longitude (x)","Latitude (y)","Station Name","Climate ID","Date/Time","Year","Month","Day","Time","Temp (°C)","Temp Flag","Dew Point Temp (°C)","Dew Point Temp Flag","Rel Hum (%)","Rel Hum Flag","Wind Dir (10s deg)","Wind Dir Flag","Wind Spd (km/h)","Wind Spd Flag","Visibility (km)","Visibility Flag","Stn Press (kPa)","Stn Press Flag","Hmdx","Hmdx Flag","Wind Chill","Wind Chill Flag","Weather"
"-81.15","43.03","LONDON A","6144473","2019-06-01 00:00","2019","06","01","00:00","15.8","","13.2","","85","","23","","9","","24.1","","97.57","","","","","","NA"
"-81.15","43.03","LONDON A","6144473","2019-06-01 01:00","2019","06","01","01:00","18.8","","13.7","","72","","23","","17","","24.1","","97.49","","","","","","Cloudy"
"-81.15","43.03","LONDON A","6144473","2019-06-01 02:00","2019","06","01","02:00","17.2","","13.3","","78","","21","","10","","24.1","","97.43","","","","","","NA"
"-81.15","43.03","LONDON A","6144473","2019-06-01 03:00","2019","06","01","03:00","16.1","","13.6","","85","","20","","3","","24.1","","97.47","","","","","","NA"
"-81.15","43.03","LONDON A","6144473","2019-06-01 04:00","2019","06","01","04:00","15.0","","13.2","","89","","15","","4","","24.1","","97.47","","","","","","Mostly Cloudy"
"-81.15","43.03","LONDON A","6144473","2019-06-01 05:00","2019","06","01","05:00","14.7","","13.3","","91","","25","","6","","24.1","","97.55","","","","","","NA"
"-81.15","43.03","LONDON A","6144473","2019-06-01 06:00","2019","06","01","06:00","16.1","","14.4","","89","","23","","8","","19.3","","97.56","","","","","","NA"
"-81.15","43.03","LONDON A","6144473","2019-06-01 07:00","2019","06","01","07:00","18.7","","15.0","","79","","24","","9","","16.1","","97.56","","","","","","Cloudy"
"-81.15","43.03","LONDON A","6144473","2019-06-01 08:00","2019","06","01","08:00","19.8","","14.6","","72","","26","","9","","24.1","","97.58","","","","","","NA"
"-81.15","43.03","LONDON A","6144473","2019-06-01 09:00","2019","06","01","09:00","21.5","","16.0","","71","","24","","9","","24.1","","97.59","","26","","","","NA"
"-81.15","43.03","LONDON A","6144473","2019-06-01 10:00","2019","06","01","10:00","22.4","","16.0","","67","","24","","15","","24.1","","97.59","","27","","","","Cloudy"
"-81.15","43.03","LONDON A","6144473","2019-06-01 11:00","2019","06","01","11:00","21.4","","15.3","","68","","24","","12","","24.1","","97.61","","26","","","","NA"
"-81.15","43.03","LONDON A","6144473","2019-06-01 12:00","2019","06","01","12:00","20.4","","16.3","","77","","30","","5","","24.1","","97.59","","25","","","","NA"
"-81.15","43.03","LONDON A","6144473","2019-06-01 13:00","2019","06","01","13:00","20.4","","16.0","","76","","18","","12","","24.1","","97.46","","25","","","","Cloudy"
"-81.15","43.03","LONDON A","6144473","2019-06-01 14:00","2019","06","01","14:00","22.7","","15.8","","65","","24","","11","","24.1","","97.41","","27","","","","NA"
"-81.15","43.03","LONDON A","6144473","2019-06-01 15:00","2019","06","01","15:00","21.8","","14.6","","63","","26","","16","","16.1","","97.56","","26","","","","Thunderstorms,Rain Showers"
"-81.15","43.03","LONDON A","6144473","2019-06-01 16:00","2019","06","01","16:00","15.9","","15.2","","95","","29","","21","","4.0","","97.74","","","","","","Thunderstorms,Rain Showers,Fog"
"-81.15","43.03","LONDON A","6144473","2019-06-01 17:00","2019","06","01","17:00","15.2","","14.9","","98","","29","","9","","4.8","","97.61","","","","","","Rain Showers,Fog"
"-81.15","43.03","LONDON A","6144473","2019-06-01 18:00","2019","06","01","18:00","15.4","","15.2","","98","","14","","13","","12.9","","97.26","","","","","","NA"
"-81.15","43.03","LONDON A","6144473","2019-06-01 19:00","2019","06","01","19:00","15.5","","15.2","","98","","22","","8","","12.9","","97.33","","","","","","Cloudy"
"-81.15","43.03","LONDON A","6144473","2019-06-01 20:00","2019","06","01","20:00","15.1","","14.9","","99","","22","","9","","9.7","","97.44","","","","","","Fog"
"-81.15","43.03","LONDON A","6144473","2019-06-01 21:00","2019","06","01","21:00","15.0","","14.4","","96","","20","","20","","9.7","","97.60","","","","","","Fog"
"-81.15","43.03","LONDON A","6144473","2019-06-01 22:00","2019","06","01","22:00","14.4","","14.0","","97","","27","","7","","24.1","","97.58","","","","","","Cloudy"
"-81.15","43.03","LONDON A","6144473","2019-06-01 23:00","2019","06","01","23:00","14.5","","14.3","","99","","23","","6","","9.7","","97.51","","","","","","Rain Showers,Fog"
"-81.15","43.03","LONDON A","6144473","2019-06-02 00:00","2019","06","02","00:00","14.6","","14.5","","99","","26","","4","","3.2","","97.45","","","","","","Rain Showers,Fog"
"-81.15","43.03","LONDON A","6144473","2019-06-02 01:00","2019","06","02","01:00","14.6","","14.4","","99","","26","","6","","3.2","","97.39","","","","","","Rain Showers,Fog"
"-81.15","43.03","LONDON A","6144473","2019-06-02 02:00","2019","06","02","02:00","14.5","","14.3","","99","","22","","7","","6.4","","97.35","","","","","","Rain Showers,Fog"
"-81.15","43.03","LONDON A","6144473","2019-06-02 03:00","2019","06","02","03:00","14.7","","14.5","","99","","26","","6","","9.7","","97.32","","","","","","Fog"
"-81.15","43.03","LONDON A","6144473","2019-06-02 04:00","2019","06","02","04:00","13.5","","13.3","","99","","32","","10","","4.8","","97.33","","","","","","Fog"
"-81.15","43.03","LONDON A","6144473","2019-06-02 05:00","2019","06","02","05:00","12.4","","11.5","","94","","31","","18","","19.3","","97.39","","","","","","NA"
"-81.15","43.03","LONDON A","6144473","2019-06-02 06:00","2019","06","02","06:00","11.2","","9.6","","90","","34","","17","","12.9","","97.45","","","","","","NA"
"-81.15","43.03","LONDON A","6144473","2019-06-02 07:00","2019","06","02","07:00","11.3","","8.2","","81","","34","","14","","24.1","","97.49","","","","","","Cloudy"
"-81.15","43.03","LONDON A","6144473","2019-06-02 08:00","2019","06","02","08:00","11.8","","8.7","","81","","32","","13","","24.1","","97.54","","","","","","NA"
"-81.15","43.03","LONDON A","6144473","2019-06-02 09:00","2019","06","02","09:00","12.5","","7.8","","73","","30","","16","","24.1","","97.61","","","","","","NA"
"-81.15","43.03","LONDON A","6144473","2019-06-02 10:00","2019","06","02","10:00","14.4","","7.5","","63","","32","","18","","24.1","","97.65","","","","","","Mainly Clear"
"-81.15","43.03","LONDON A","6144473","2019-06-02 11:00","2019","06","02","11:00","16.2","","7.0","","54","","33","","21","","24.1","","97.68","","","","","","NA"
"-81.15","43.03","LONDON A","6144473","2019-06-02 12:00","2019","06","02","12:00","17.2","","6.1","","48","","34","","21","","24.1","","97.71","","","","","","NA"
"-81.15","43.03","LONDON A","6144473","2019-06-02 13:00","2019","06","02","13:00","17.2","","7.6","","53","","29","","18","","24.1","","97.74","","","","","","Mainly Clear"
"-81.15","43.03","LONDON A","6144473","2019-06-02 14:00","2019","06","02","14:00","16.5","","6.6","","51","","30","","26","","24.1","","97.75","","","","","","NA"
"-81.15","43.03","LONDON A","6144473","2019-06-02 15:00","2019","06","02","15:00","16.8","","5.9","","48","","33","","19","","24.1","","97.74","","","","","","NA"
"-81.15","43.03","LONDON A","6144473","2019-06-02 16:00","2019","06","02","16:00","15.6","","4.2","","46","","30","","16","","24.1","","97.74","","","","","","Mostly Cloudy"
"-81.15","43.03","LONDON A","6144473","2019-06-02 17:00","2019","06","02","17:00","16.2","","6.0","","51","","31","","12","","24.1","","97.77","","","","","","NA"
"-81.15","43.03","LONDON A","6144473","2019-06-02 18:00","2019","06","02","18:00","15.2","","5.7","","53","","29","","14","","24.1","","97.80","","","","","","NA"
"-81.15","43.03","LONDON A","6144473","2019-06-02 19:00","2019","06","02","19:00","13.4","","4.4","","54","","34","","19","","24.1","","97.88","","","","","","Mainly Clear"
"-81.15","43.03","LONDON A","6144473","2019-06-02 20:00","2019","06","02","20:00","11.5","","1.9","","52","","33","","13","","24.1","","97.93","","","","","","NA"
"-81.15","43.03","LONDON A","6144473","2019-06-02 21:00","2019","06","02","21:00","9.3","","0.5","","54","","33","","9","","24.1","","97.98","","","","","","NA"
"-81.15","43.03","LONDON A","6144473","2019-06-02 22:00","2019","06","02","22:00","8.2","","0.7","","59","","33","","10","","24.1","","98.04","","","","","","Clear"
"-81.15","43.03","LONDON A","6144473","2019-06-02 23:00","2019","06","02","23:00","7.6","","1.0","","63","","33","","13","","24.1","","98.06","","","","","","NA"
"-81.15","43.03","LONDON A","6144473","2019-06-03 00:00","2019","06","03","00:00","6.6","","1.1","","68","","30","","12","","24.1","","98.09","","","","","","NA"
"-81.15","43.03","LONDON A","6144473","2019-06-03 01:00","2019","06","03","01:00","6.1","","1.5","","73","","31","","14","","24.1","","98.09","","","","","","Clear"
"-81.15","43.03","LONDON A","6144473","2019-06-03 02:00","2019","06","03","02:00","5.9","","1.3","","72","","30","","15","","24.1","","98.08","","","","","","NA"
"-81.15","43.03","LONDON A","6144473","2019-06-03 03:00","2019","06","03","03:00","5.3","","1.9","","78","","30","","14","","24.1","","98.11","","","","","","NA"
"-81.15","43.03","LONDON A","6144473","2019-06-03 04:00","2019","06","03","04:00","5.2","","2.3","","81","","30","","13","","24.1","","98.17","","","","","","Mainly Clear"
"-81.15","43.03","LONDON A","6144473","2019-06-03 05:00","2019","06","03","05:00","5.1","","2.5","","83","","30","","12","","24.1","","98.25","","","","","","NA"
"-81.15","43.03","LONDON A","6144473","2019-06-03 06:00","2019","06","03","06:00","5.6","","3.3","","85","","30","","13","","24.1","","98.35","","","","","","NA"
"-81.15","43.03","LONDON A","6144473","2019-06-03 07:00","2019","06","03","07:00","7.0","","3.5","","79","","32","","18","","24.1","","98.43","","","","","","Mostly Cloudy"
"-81.15","43.03","LONDON A","6144473","2019-06-03 08:00","2019","06","03","08:00","8.5","","3.6","","72","","30","","21","","24.1","","98.47","","","","","","NA"
"-81.15","43.03","LONDON A","6144473","2019-06-03 09:00","2019","06","03","09:00","10.2","","3.9","","65","","31","","21","","24.1","","98.54","","","","","","NA"
"-81.15","43.03","LONDON A","6144473","2019-06-03 10:00","2019","06","03","10:00","11.5","","3.1","","56","","30","","24","","24.1","","98.61","","","","","","Mainly Clear"
"-81.15","43.03","LONDON A","6144473","2019-06-03 11:00","2019","06","03","11:00","11.4","","3.4","","58","","30","","16","","24.1","","98.65","","","","","","NA"
"-81.15","43.03","LONDON A","6144473","2019-06-03 12:00","2019","06","03","12:00","12.0","","3.3","","55","","29","","26","","24.1","","98.67","","","","","","NA"
"-81.15","43.03","LONDON A","6144473","2019-06-03 13:00","2019","06","03","13:00","13.0","","4.5","","56","","29","","20","","24.1","","98.70","","","","","","Mainly Clear"
"-81.15","43.03","LONDON A","6144473","2019-06-03 14:00","2019","06","03","14:00","12.9","","3.1","","51","","30","","26","","24.1","","98.71","","","","","","NA"
"-81.15","43.03","LONDON A","6144473","2019-06-03 15:00","2019","06","03","15:00","13.3","","2.7","","48","","32","","20","","24.1","","98.67","","","","","","NA"
"-81.15","43.03","LONDON A","6144473","2019-06-03 16:00","2019","06","03","16:00","14.1","","2.0","","44","","32","","21","","24.1","","98.65","","","","","","Mainly Clear"
"-81.15","43.03","LONDON A","6144473","2019-06-03 17:00","2019","06","03","17:00","14.4","","2.4","","44","","31","","20","","24.1","","98.62","","","","","","NA"
"-81.15","43.03","LONDON A","6144473","2019-06-03 18:00","2019","06","03","18:00","14.6","","3.4","","47","","29","","17","","24.1","","98.62","","","","","","NA"
"-81.15","43.03","LONDON A","6144473","2019-06-03 19:00","2019","06","03","19:00","13.7","","3.1","","48","","28","","12","","24.1","","98.62","","","","","","Mostly Cloudy"
"-81.15","43.03","LONDON A","6144473","2019-06-03 20:00","2019","06","03","20:00","12.1","","3.8","","57","","27","","7","","24.1","","98.60","","","","","","NA"
"-81.15","43.03","LONDON A","6144473","2019-06-03 21:00","2019","06","03","21:00","10.6","","6.5","","76","","20","","15","","24.1","","98.64","","","","","","NA"
"-81.15","43.03","LONDON A","6144473","2019-06-03 22:00","2019","06","03","22:00","9.8","","7.0","","82","","19","","15","","24.1","","98.63","","","","","","Clear"
"-81.15","43.03","LONDON A","6144473","2019-06-03 23:00","2019","06","03","23:00","8.8","","6.2","","84","","21","","9","","24.1","","98.62","","","","","","NA"
"-81.15","43.03","LONDON A","6144473","2019-06-04 00:00","2019","06","04","00:00","8.0","","6.2","","89","","21","","10","","24.1","","98.59","","","","","","NA"
"-81.15","43.03","LONDON A","6144473","2019-06-04 01:00","2019","06","04","01:00","8.3","","6.3","","87","","21","","11","","24.1","","98.58","","","","","","Clear"
"-81.15","43.03","LONDON A","6144473","2019-06-04 02:00","2019","06","04","02:00","8.6","","5.7","","82","","17","","7","","24.1","","98.55","","","","","","NA"
"-81.15","43.03","LONDON A","6144473","2019-06-04 03:00","2019","06","04","03:00","7.9","","6.3","","89","","19","","4","","24.1","","98.56","","","","","","NA"
"-81.15","43.03","LONDON A","6144473","2019-06-04 04:00","2019","06","04","04:00","8.0","","6.2","","88","","22","","7","","24.1","","98.56","","","","","","Mostly Cloudy"
"-81.15","43.03","LONDON A","6144473","2019-06-04 05:00","2019","06","04","05:00","9.5","","6.4","","81","","21","","13","","24.1","","98.57","","","","","","NA"
"-81.15","43.03","LONDON A","6144473","2019-06-04 06:00","2019","06","04","06:00","10.8","","7.9","","82","","21","","10","","24.1","","98.56","","","","","","NA"
"-81.15","43.03","LONDON A","6144473","2019-06-04 07:00","2019","06","04","07:00","13.5","","8.9","","73","","21","","13","","24.1","","98.55","","","","","","Mostly Cloudy"
"-81.15","43.03","LONDON A","6144473","2019-06-04 08:00","2019","06","04","08:00","14.3","","9.4","","72","","21","","12","","24.1","","98.49","","","","","","NA"
"-81.15","43.03","LONDON A","6144473","2019-06-04 09:00","2019","06","04","09:00","14.2","","9.7","","74","","22","","14","","24.1","","98.52","","","","","","NA"
"-81.15","43.03","LONDON A","6144473","2019-06-04 10:00","2019","06","04","10:00","15.8","","9.5","","66","","22","","16","","24.1","","98.45","","","","","","Cloudy"
"-81.15","43.03","LONDON A","6144473","2019-06-04 11:00","2019","06","04","11:00","19.1","","10.2","","56","","24","","14","","24.1","","98.41","","","","","","NA"
"-81.15","43.03","LONDON A","6144473","2019-06-04 12:00","2019","06","04","12:00","21.0","","8.9","","45","","22","","23","","24.1","","98.29","","","","","","NA"
"-81.15","43.03","LONDON A","6144473","2019-06-04 13:00","2019","06","04","13:00","22.5","","10.7","","47","","22","","24","","24.1","","98.16","","","","","","Mainly Clear"
"-81.15","43.03","LONDON A","6144473","2019-06-04 14:00","2019","06","04","14:00","22.1","","12.3","","53","","21","","23","","22.5","","98.09","","25","","","","NA"
"-81.15","43.03","LONDON A","6144473","2019-06-04 15:00","2019","06","04","15:00","21.3","","11.9","","54","","20","","26","","24.1","","98.00","","","","","","NA"
"-81.15","43.03","LONDON A","6144473","2019-06-04 16:00","2019","06","04","16:00","21.2","","12.5","","57","","21","","25","","24.1","","97.94","","","","","","Cloudy"
"-81.15","43.03","LONDON A","6144473","2019-06-04 17:00","2019","06","04","17:00","20.9","","12.9","","60","","20","","22","","24.1","","97.88","","","","","","NA"
"-81.15","43.03","LONDON A","6144473","2019-06-04 18:00","2019","06","04","18:00","20.9","","12.8","","59","","21","","18","","24.1","","97.85","","","","","","NA"
"-81.15","43.03","LONDON A","6144473","2019-06-04 19:00","2019","06","04","19:00","20.4","","12.4","","60","","22","","24","","24.1","","97.84","","","","","","Mostly Cloudy"
"-81.15","43.03","LONDON A","6144473","2019-06-04 20:00","2019","06","04","20:00","19.6","","12.1","","61","","22","","18","","24.1","","97.81","","","","","","NA"
"-81.15","43.03","LONDON A","6144473","2019-06-04 21:00","2019","06","04","21:00","19.4","","12.3","","63","","23","","21","","24.1","","97.83","","","","","","NA"
"-81.15","43.03","LONDON A","6144473","2019-06-04 22:00","2019","06","04","22:00","19.1","","12.6","","66","","22","","16","","24.1","","97.84","","","","","","Cloudy"
"-81.15","43.03","LONDON A","6144473","2019-06-04 23:00","2019","06","04","23:00","18.8","","12.9","","68","","23","","13","","24.1","","97.81","","","","","","NA"
"-81.15","43.03","LONDON A","6144473","2019-06-05 00:00","2019","06","05","00:00","17.9","","13.2","","74","","21","","14","","24.1","","97.76","","","","","","NA"
"-81.15","43.03","LONDON A","6144473","2019-06-05 01:00","2019","06","05","01:00","17.3","","13.9","","80","","36","","2","","24.1","","97.74","","","","","","Cloudy"
"-81.15","43.03","LONDON A","6144473","2019-06-05 02:00","2019","06","05","02:00","16.4","","15.1","","92","","14","","7","","24.1","","97.71","","","","","","NA"
"-81.15","43.03","LONDON A","6144473","2019-06-05 03:00","2019","06","05","03:00","16.0","","15.0","","93","","8","","12","","19.3","","97.66","","","","","","NA"
"-81.15","43.03","LONDON A","6144473","2019-06-05 04:00","2019","06","05","04:00","15.8","","14.8","","94","","10","","13","","19.3","","97.65","","","","","","Cloudy"
"-81.15","43.03","LONDON A","6144473","2019-06-05 05:00","2019","06","05","05:00","15.7","","14.7","","93","","9","","13","","16.1","","97.63","","","","","","NA"
"-81.15","43.03","LONDON A","6144473","2019-06-05 06:00","2019","06","05","06:00","16.2","","14.5","","89","","13","","10","","19.3","","97.59","","","","","","NA"
"-81.15","43.03","LONDON A","6144473","2019-06-05 07:00","2019","06","05","07:00","17.1","","14.3","","83","","15","","12","","19.3","","97.54","","","","","","Cloudy"
"-81.15","43.03","LONDON A","6144473","2019-06-05 08:00","2019","06","05","08:00","18.3","","14.2","","77","","19","","15","","19.3","","97.49","","","","","","NA"
"-81.15","43.03","LONDON A","6144473","2019-06-05 09:00","2019","06","05","09:00","17.4","","14.7","","84","","36","","1","","4.8","","97.47","","","","","","Rain Showers"
"-81.15","43.03","LONDON A","6144473","2019-06-05 10:00","2019","06","05","10:00","17.1","","16.1","","94","","10","","11","","9.7","","97.36","","","","","","Rain Showers"
"-81.15","43.03","LONDON A","6144473","2019-06-05 11:00","2019","06","05","11:00","16.9","","16.5","","98","","14","","7","","4.8","","97.37","","","","","","Rain Showers,Fog"
"-81.15","43.03","LONDON A","6144473","2019-06-05 12:00","2019","06","05","12:00","17.1","","16.6","","97","","18","","18","","9.7","","97.39","","","","","","Fog"
"-81.15","43.03","LONDON A","6144473","2019-06-05 13:00","2019","06","05","13:00","19.4","","17.6","","89","","20","","12","","14.5","","97.35","","","","","","Cloudy"
"-81.15","43.03","LONDON A","6144473","2019-06-05 14:00","2019","06","05","14:00","20.0","","17.8","","87","","23","","11","","16.1","","97.30","","26","","","","NA"
"-81.15","43.03","LONDON A","6144473","2019-06-05 15:00","2019","06","05","15:00","20.3","","18.4","","89","","24","","12","","16.1","","97.27","","27","","","","NA"
"-81.15","43.03","LONDON A","6144473","2019-06-05 16:00","2019","06","05","16:00","21.7","","19.0","","84","","27","","12","","16.1","","97.25","","28","","","","Cloudy"
"-81.15","43.03","LONDON A","6144473","2019-06-05 17:00","2019","06","05","17:00","21.9","","19.5","","86","","29","","10","","16.1","","97.25","","29","","","","NA"
"-81.15","43.03","LONDON A","6144473","2019-06-05 18:00","2019","06","05","18:00","21.2","","18.8","","86","","33","","17","","16.1","","97.24","","28","","","","Rain Showers"
"-81.15","43.03","LONDON A","6144473","2019-06-05 19:00","2019","06","05","19:00","19.8","","18.2","","90","","32","","10","","19.3","","97.27","","","","","","Mostly Cloudy"
"-81.15","43.03","LONDON A","6144473","2019-06-05 20:00","2019","06","05","20:00","18.8","","18.2","","97","","33","","8","","16.1","","97.34","","","","","","Rain Showers"
"-81.15","43.03","LONDON A","6144473","2019-06-05 21:00","2019","06","05","21:00","17.6","","17.2","","97","","32","","8","","12.9","","97.41","","","","","","NA"
"-81.15","43.03","LONDON A","6144473","2019-06-05 22:00","2019","06","05","22:00","16.9","","16.5","","97","","34","","9","","12.9","","97.43","","","","","","Mostly Cloudy"
"-81.15","43.03","LONDON A","6144473","2019-06-05 23:00","2019","06","05","23:00","17.1","","16.6","","97","","33","","11","","9.7","","97.49","","","","","","Fog"
"-81.15","43.03","LONDON A","6144473","2019-06-06 00:00","2019","06","06","00:00","16.9","","16.2","","95","","31","","10","","9.7","","97.55","","","","","","Fog"
"-81.15","43.03","LONDON A","6144473","2019-06-06 01:00","2019","06","06","01:00","15.4","","15.2","","98","","32","","11","","6.4","","97.52","","","","","","Fog"
"-81.15","43.03","LONDON A","6144473","2019-06-06 02:00","2019","06","06","02:00","15.0","","14.7","","98","","32","","9","","4.8","","97.54","","","","","","Fog"
"-81.15","43.03","LONDON A","6144473","2019-06-06 03:00","2019","06","06","03:00","13.8","","13.7","","99","","29","","13","","1.2","","97.60","","","","","","Fog"
"-81.15","43.03","LONDON A","6144473","2019-06-06 04:00","2019","06","06","04:00","12.8","","12.7","","99","","30","","10","","1.2","","97.68","","","","","","Fog"
"-81.15","43.03","LONDON A","6144473","2019-06-06 05:00","2019","06","06","05:00","12.6","","12.6","","99","","32","","10","","0.8","","97.75","","","","","","Fog"
"-81.15","43.03","LONDON A","6144473","2019-06-06 06:00","2019","06","06","06:00","13.1","","13.0","","100","","33","","12","","2.4","","97.80","","","","","","Fog"
"-81.15","43.03","LONDON A","6144473","2019-06-06 07:00","2019","06","06","07:00","13.9","","13.9","","100","","32","","7","","3.2","","97.85","","","","","","Fog"
"-81.15","43.03","LONDON A","6144473","2019-06-06 08:00","2019","06","06","08:00","14.9","","14.8","","99","","29","","8","","6.4","","97.90","","","","","","Fog"
"-81.15","43.03","LONDON A","6144473","2019-06-06 09:00","2019","06","06","09:00","17.4","","15.2","","87","","35","","10","","11.3","","97.92","","","","","","NA"
"-81.15","43.03","LONDON A","6144473","2019-06-06 10:00","2019","06","06","10:00","18.8","","15.2","","79","","34","","10","","19.3","","97.97","","","","","","Mostly Cloudy"
"-81.15","43.03","LONDON A","6144473","2019-06-06 11:00","2019","06","06","11:00","20.2","","14.8","","71","","6","","9","","24.1","","98.00","","","","","","NA"
"-81.15","43.03","LONDON A","6144473","2019-06-06 12:00","2019","06","06","12:00","20.9","","15.3","","70","","9","","10","","24.1","","98.00","","25","","","","NA"
"-81.15","43.03","LONDON A","6144473","2019-06-06 13:00","2019","06","06","13:00","20.4","","13.5","","64","","32","","9","","24.1","","98.01","","","","","","Mostly Cloudy"
"-81.15","43.03","LONDON A","6144473","2019-06-06 14:00","2019","06","06","14:00","22.0","","12.2","","53","","6","","4","","24.1","","98.00","","","","","","NA"
"-81.15","43.03","LONDON A","6144473","2019-06-06 15:00","2019","06","06","15:00","22.9","","14.1","","57","","36","","1","","24.1","","97.99","","26","","","","NA"
"-81.15","43.03","LONDON A","6144473","2019-06-06 16:00","2019","06","06","16:00","23.3","","13.5","","54","","9","","8","","24.1","","97.99","","26","","","","Mainly Clear"
"-81.15","43.03","LONDON A","6144473","2019-06-06 17:00","2019","06","06","17:00","20.9","","15.2","","69","","17","","14","","24.1","","97.98","","25","","","","NA"
"-81.15","43.03","LONDON A","6144473","2019-06-06 18:00","2019","06","06","18:00","20.1","","15.7","","75","","23","","11","","24.1","","97.99","","25","","","","NA"
"-81.15","43.03","LONDON A","6144473","2019-06-06 19:00","2019","06","06","19:00","19.7","","14.4","","71","","30","","13","","24.1","","98.02","","","","","","Mostly Cloudy"
"-81.15","43.03","LONDON A","6144473","2019-06-06 20:00","2019","06","06","20:00","17.9","","13.7","","76","","32","","9","","24.1","","98.05","","","","","","NA"
"-81.15","43.03","LONDON A","6144473","2019-06-06 21:00","2019","06","06","21:00","16.9","","13.2","","78","","29","","7","","24.1","","98.12","","","","","","NA"
"-81.15","43.03","LONDON A","6144473","2019-06-06 22:00","2019","06","06","22:00","14.6","","13.4","","93","","36","","3","","24.1","","98.14","","","","","","Mostly Cloudy"
"-81.15","43.03","LONDON A","6144473","2019-06-06 23:00","2019","06","06","23:00","12.9","","12.6","","98","","2","","5","","24.1","","98.12","","","","","","NA"
"-81.15","43.03","LONDON A","6144473","2019-06-07 00:00","2019","06","07","00:00","13.9","","13.5","","98","","36","","3","","24.1","","98.16","","","","","","NA"
"-81.15","43.03","LONDON A","6144473","2019-06-07 01:00","2019","06","07","01:00","12.1","","12.0","","99","","36","","2","","24.1","","98.15","","","","","","Mostly Cloudy"
"-81.15","43.03","LONDON A","6144473","2019-06-07 02:00","2019","06","07","02:00","12.5","","12.4","","99","","36","","1","","24.1","","98.14","","","","","","NA"
"-81.15","43.03","LONDON A","6144473","2019-06-07 03:00","2019","06","07","03:00","12.1","","12.0","","99","","32","","4","","16.1","","98.15","","","","","","NA"
"-81.15","43.03","LONDON A","6144473","2019-06-07 04:00","2019","06","07","04:00","11.7","","11.6","","99","","35","","4","","16.1","","98.17","","","","","","Mostly Cloudy"
"-81.15","43.03","LONDON A","6144473","2019-06-07 05:00","2019","06","07","05:00","11.3","","11.2","","99","","35","","8","","24.1","","98.22","","","","","","NA"
"-81.15","43.03","LONDON A","6144473","2019-06-07 06:00","2019","06","07","06:00","12.8","","12.7","","99","","35","","7","","24.1","","98.28","","","","","","NA"
"-81.15","43.03","LONDON A","6144473","2019-06-07 07:00","2019","06","07","07:00","16.4","","12.6","","78","","4","","6","","24.1","","98.33","","","","","","Mainly Clear"
"-81.15","43.03","LONDON A","6144473","2019-06-07 08:00","2019","06","07","08:00","19.3","","13.4","","68","","3","","7","","24.1","","98.35","","","","","","NA"
"-81.15","43.03","LONDON A","6144473","2019-06-07 09:00","2019","06","07","09:00","21.1","","10.8","","51","","2","","12","","24.1","","98.38","","","","","","NA"
"-81.15","43.03","LONDON A","6144473","2019-06-07 10:00","2019","06","07","10:00","22.2","","10.5","","47","","36","","13","","24.1","","98.40","","","","","","Mostly Cloudy"
"-81.15","43.03","LONDON A","6144473","2019-06-07 11:00","2019","06","07","11:00","23.1","","11.5","","48","","3","","8","","24.1","","98.41","","25","","","","NA"
"-81.15","43.03","LONDON A","6144473","2019-06-07 12:00","2019","06","07","12:00","23.7","","9.7","","41","","2","","13","","24.1","","98.39","","25","","","","NA"
"-81.15","43.03","LONDON A","6144473","2019-06-07 13:00","2019","06","07","13:00","24.5","","10.1","","40","","35","","12","","24.1","","98.34","","26","","","","Mainly Clear"
"-81.15","43.03","LONDON A","6144473","2019-06-07 14:00","2019","06","07","14:00","25.2","","9.8","","37","","4","","13","","24.1","","98.32","","26","","","","NA"
"-81.15","43.03","LONDON A","6144473","2019-06-07 15:00","2019","06","07","15:00","25.3","","8.6","","34","","3","","21","","24.1","","98.32","","26","","","","NA"
"-81.15","43.03","LONDON A","6144473","2019-06-07 16:00","2019","06","07","16:00","25.5","","8.7","","34","","4","","21","","24.1","","98.31","","26","","","","Mainly Clear"
"-81.15","43.03","LONDON A","6144473","2019-06-07 17:00","2019","06","07","17:00","25.5","","9.4","","36","","36","","2","","24.1","","98.31","","27","","","","NA"
"-81.15","43.03","LONDON A","6144473","2019-06-07 18:00","2019","06","07","18:00","25.1","","9.6","","37","","8","","13","","24.1","","98.29","","26","","","","NA"
"-81.15","43.03","LONDON A","6144473","2019-06-07 19:00","2019","06","07","19:00","23.6","","9.4","","40","","6","","9","","24.1","","98.32","","25","","","","Mainly Clear"
"-81.15","43.03","LONDON A","6144473","2019-06-07 20:00","2019","06","07","20:00","18.8","","11.8","","63","","20","","9","","24.1","","98.37","","","","","","NA"
"-81.15","43.03","LONDON A","6144473","2019-06-07 21:00","2019","06","07","21:00","19.1","","10.5","","57","","20","","7","","24.1","","98.47","","","","","","NA"
"-81.15","43.03","LONDON A","6144473","2019-06-07 22:00","2019","06","07","22:00","15.9","","11.2","","74","","2","","8","","24.1","","98.51","","","","","","Clear"
"-81.15","43.03","LONDON A","6144473","2019-06-07 23:00","2019","06","07","23:00","15.2","","10.2","","72","","4","","10","","24.1","","98.55","","","","","","NA"
"-81.15","43.03","LONDON A","6144473","2019-06-08 00:00","2019","06","08","00:00","15.2","","8.1","","62","","3","","9","","24.1","","98.58","","","","","","NA"
"-81.15","43.03","LONDON A","6144473","2019-06-08 01:00","2019","06","08","01:00","14.5","","7.8","","64","","4","","9","","24.1","","98.57","","","","","","Clear"
"-81.15","43.03","LONDON A","6144473","2019-06-08 02:00","2019","06","08","02:00","14.4","","8.5","","68","","5","","10","","24.1","","98.59","","","","","","NA"
"-81.15","43.03","LONDON A","6144473","2019-06-08 03:00","2019","06","08","03:00","14.8","","8.4","","66","","7","","14","","24.1","","98.60","","","","","","NA"
"-81.15","43.03","LONDON A","6144473","2019-06-08 04:00","2019","06","08","04:00","14.3","","8.2","","66","","7","","13","","24.1","","98.62","","","","","","Clear"
"-81.15","43.03","LONDON A","6144473","2019-06-08 05:00","2019","06","08","05:00","13.5","","8.0","","69","","7","","13","","24.1","","98.65","","","","","","NA"
"-81.15","43.03","LONDON A","6144473","2019-06-08 06:00","2019","06","08","06:00","15.2","","8.8","","65","","8","","17","","24.1","","98.70","","","","","","NA"
"-81.15","43.03","LONDON A","6144473","2019-06-08 07:00","2019","06","08","07:00","17.3","","9.5","","60","","8","","24","","24.1","","98.76","","","","","","Mainly Clear"
"-81.15","43.03","LONDON A","6144473","2019-06-08 08:00","2019","06","08","08:00","19.3","","10.6","","57","","9","","21","","24.1","","98.77","","","","","","NA"
"-81.15","43.03","LONDON A","6144473","2019-06-08 09:00","2019","06","08","09:00","20.8","","11.3","","54","","9","","25","","24.1","","98.82","","","","","","NA"
"-81.15","43.03","LONDON A","6144473","2019-06-08 10:00","2019","06","08","10:00","22.8","","12.7","","52","","9","","21","","24.1","","98.83","","25","","","","Mainly Clear"
"-81.15","43.03","LONDON A","6144473","2019-06-08 11:00","2019","06","08","11:00","23.9","","10.4","","42","","12","","23","","24.1","","98.82","","25","","","","NA"
"-81.15","43.03","LONDON A","6144473","2019-06-08 12:00","2019","06","08","12:00","24.9","","10.6","","40","","11","","27","","24.1","","98.80","","26","","","","NA"
"-81.15","43.03","LONDON A","6144473","2019-06-08 13:00","2019","06","08","13:00","25.4","","11.4","","41","","9","","27","","24.1","","98.75","","27","","","","Mostly Cloudy"
"-81.15","43.03","LONDON A","6144473","2019-06-08 14:00","2019","06","08","14:00","26.0","","11.3","","39","","12","","26","","24.1","","98.73","","28","","","","NA"
"-81.15","43.03","LONDON A","6144473","2019-06-08 15:00","2019","06","08","15:00","25.7","","10.8","","38","","9","","31","","24.1","","98.74","","27","","","","NA"
"-81.15","43.03","LONDON A","6144473","2019-06-08 16:00","2019","06","08","16:00","24.7","","11.4","","43","","8","","33","","24.1","","98.71","","27","","","","Mostly Cloudy"
"-81.15","43.03","LONDON A","6144473","2019-06-08 17:00","2019","06","08","17:00","23.9","","9.8","","40","","8","","32","","24.1","","98.71","","25","","","","NA"
"-81.15","43.03","LONDON A","6144473","2019-06-08 18:00","2019","06","08","18:00","23.3","","8.5","","38","","8","","33","","24.1","","98.71","","","","","","NA"
"-81.15","43.03","LONDON A","6144473","2019-06-08 19:00","2019","06","08","19:00","21.1","","7.2","","40","","8","","22","","24.1","","98.69","","","","","","Mostly Cloudy"
"-81.15","43.03","LONDON A","6144473","2019-06-08 20:00","2019","06","08","20:00","19.4","","4.4","","37","","8","","18","","24.1","","98.69","","","","","","NA"
"-81.15","43.03","LONDON A","6144473","2019-06-08 21:00","2019","06","08","21:00","18.0","","-2.4","","25","","8","","24","","24.1","","98.72","","","","","","NA"
"-81.15","43.03","LONDON A","6144473","2019-06-08 22:00","2019","06","08","22:00","16.4","","0.2","","33","","8","","20","","24.1","","98.73","","","","","","Mostly Cloudy"
"-81.15","43.03","LONDON A","6144473","2019-06-08 23:00","2019","06","08","23:00","15.7","","3.1","","43","","8","","17","","24.1","","98.73","","","","","","NA"
"-81.15","43.03","LONDON A","6144473","2019-06-09 00:00","2019","06","09","00:00","15.2","","5.7","","53","","8","","13","","24.1","","98.76","","","","","","NA"
"-81.15","43.03","LONDON A","6144473","2019-06-09 01:00","2019","06","09","01:00","14.6","","6.9","","60","","7","","8","","24.1","","98.75","","","","","","Mostly Cloudy"
"-81.15","43.03","LONDON A","6144473","2019-06-09 02:00","2019","06","09","02:00","14.7","","7.9","","64","","8","","16","","24.1","","98.75","","","","","","NA"
"-81.15","43.03","LONDON A","6144473","2019-06-09 03:00","2019","06","09","03:00","13.9","","8.1","","68","","8","","13","","24.1","","98.74","","","","","","NA"
"-81.15","43.03","LONDON A","6144473","2019-06-09 04:00","2019","06","09","04:00","13.7","","8.3","","70","","8","","14","","24.1","","98.73","","","","","","Mostly Cloudy"
"-81.15","43.03","LONDON A","6144473","2019-06-09 05:00","2019","06","09","05:00","13.2","","8.6","","73","","8","","10","","24.1","","98.78","","","","","","NA"
"-81.15","43.03","LONDON A","6144473","2019-06-09 06:00","2019","06","09","06:00","15.6","","9.4","","67","","8","","14","","24.1","","98.78","","","","","","NA"
"-81.15","43.03","LONDON A","6144473","2019-06-09 07:00","2019","06","09","07:00","17.7","","11.2","","66","","9","","14","","24.1","","98.79","","","","","","Cloudy"
"-81.15","43.03","LONDON A","6144473","2019-06-09 08:00","2019","06","09","08:00","19.6","","12.4","","63","","11","","22","","24.1","","98.80","","","","","","NA"
"-81.15","43.03","LONDON A","6144473","2019-06-09 09:00","2019","06","09","09:00","21.0","","12.6","","58","","11","","30","","24.1","","98.77","","","","","","NA"
"-81.15","43.03","LONDON A","6144473","2019-06-09 10:00","2019","06","09","10:00","22.2","","13.4","","57","","12","","24","","24.1","","98.76","","25","","","","Mostly Cloudy"
"-81.15","43.03","LONDON A","6144473","2019-06-09 11:00","2019","06","09","11:00","23.7","","14.3","","55","","13","","31","","24.1","","98.75","","27","","","","NA"
"-81.15","43.03","LONDON A","6144473","2019-06-09 12:00","2019","06","09","12:00","24.9","","15.7","","56","","13","","26","","24.1","","98.71","","29","","","","NA"
"-81.15","43.03","LONDON A","6144473","2019-06-09 13:00","2019","06","09","13:00","26.3","","16.1","","53","","13","","29","","24.1","","98.66","","31","","","","Cloudy"
"-81.15","43.03","LONDON A","6144473","2019-06-09 14:00","2019","06","09","14:00","25.5","","16.0","","55","","15","","25","","24.1","","98.65","","30","","","","NA"
"-81.15","43.03","LONDON A","6144473","2019-06-09 15:00","2019","06","09","15:00","25.8","","15.8","","54","","14","","24","","24.1","","98.61","","30","","","","NA"
"-81.15","43.03","LONDON A","6144473","2019-06-09 16:00","2019","06","09","16:00","24.8","","16.0","","57","","15","","18","","24.1","","98.60","","29","","","","Cloudy"
"-81.15","43.03","LONDON A","6144473","2019-06-09 17:00","2019","06","09","17:00","24.9","","16.0","","57","","13","","16","","24.1","","98.52","","30","","","","NA"
"-81.15","43.03","LONDON A","6144473","2019-06-09 18:00","2019","06","09","18:00","24.8","","15.8","","57","","13","","20","","24.1","","98.50","","29","","","","NA"
"-81.15","43.03","LONDON A","6144473","2019-06-09 19:00","2019","06","09","19:00","24.1","","15.5","","58","","12","","18","","24.1","","98.49","","28","","","","Cloudy"
"-81.15","43.03","LONDON A","6144473","2019-06-09 20:00","2019","06","09","20:00","23.0","","14.9","","60","","11","","16","","24.1","","98.49","","27","","","","NA"
"-81.15","43.03","LONDON A","6144473","2019-06-09 21:00","2019","06","09","21:00","22.3","","15.2","","64","","10","","14","","24.1","","98.45","","26","","","","NA"
"-81.15","43.03","LONDON A","6144473","2019-06-09 22:00","2019","06","09","22:00","21.1","","13.7","","62","","10","","13","","24.1","","98.44","","","","","","Cloudy"
"-81.15","43.03","LONDON A","6144473","2019-06-09 23:00","2019","06","09","23:00","21.5","","14.5","","64","","13","","21","","24.1","","98.38","","25","","","","NA"
"-81.15","43.03","LONDON A","6144473","2019-06-10 00:00","2019","06","10","00:00","22.2","","14.1","","59","","15","","21","","24.1","","98.32","","26","","","","NA"
"-81.15","43.03","LONDON A","6144473","2019-06-10 01:00","2019","06","10","01:00","21.4","","13.9","","62","","15","","19","","24.1","","98.30","","25","","","","Cloudy"
"-81.15","43.03","LONDON A","6144473","2019-06-10 02:00","2019","06","10","02:00","20.9","","13.7","","63","","15","","17","","24.1","","98.24","","","","","","NA"
"-81.15","43.03","LONDON A","6144473","2019-06-10 03:00","2019","06","10","03:00","20.6","","13.5","","63","","15","","20","","24.1","","98.16","","","","","","NA"
"-81.15","43.03","LONDON A","6144473","2019-06-10 04:00","2019","06","10","04:00","20.1","","13.7","","66","","15","","20","","24.1","","98.10","","","","","","Cloudy"
"-81.15","43.03","LONDON A","6144473","2019-06-10 05:00","2019","06","10","05:00","19.6","","14.2","","71","","15","","19","","24.1","","98.11","","","","","","NA"
"-81.15","43.03","LONDON A","6144473","2019-06-10 06:00","2019","06","10","06:00","18.2","","14.9","","81","","16","","26","","24.1","","98.09","","","","","","NA"
"-81.15","43.03","LONDON A","6144473","2019-06-10 07:00","2019","06","10","07:00","17.0","","15.2","","89","","15","","21","","19.3","","98.06","","","","","","Rain Showers"
"-81.15","43.03","LONDON A","6144473","2019-06-10 08:00","2019","06","10","08:00","17.1","","15.0","","87","","15","","22","","24.1","","98.03","","","","","","NA"
"-81.15","43.03","LONDON A","6144473","2019-06-10 09:00","2019","06","10","09:00","18.5","","14.9","","80","","16","","23","","24.1","","97.94","","","","","","NA"
"-81.15","43.03","LONDON A","6144473","2019-06-10 10:00","2019","06","10","10:00","18.5","","15.1","","80","","16","","24","","24.1","","97.88","","","","","","Cloudy"
"-81.15","43.03","LONDON A","6144473","2019-06-10 11:00","2019","06","10","11:00","19.0","","15.7","","81","","17","","24","","24.1","","97.82","","","","","","Rain Showers"
"-81.15","43.03","LONDON A","6144473","2019-06-10 12:00","2019","06","10","12:00","20.2","","16.6","","79","","18","","26","","24.1","","97.75","","25","","","","Rain Showers"
"-81.15","43.03","LONDON A","6144473","2019-06-10 13:00","2019","06","10","13:00","18.2","","17.6","","96","","19","","13","","12.9","","97.72","","","","","","Rain Showers"
"-81.15","43.03","LONDON A","6144473","2019-06-10 14:00","2019","06","10","14:00","18.5","","18.1","","97","","20","","13","","4.8","","97.67","","","","","","Rain Showers,Fog"
"-81.15","43.03","LONDON A","6144473","2019-06-10 15:00","2019","06","10","15:00","16.4","","15.7","","96","","31","","26","","4.8","","97.77","","","","","","Rain Showers,Fog"
"-81.15","43.03","LONDON A","6144473","2019-06-10 16:00","2019","06","10","16:00","14.1","","13.2","","95","","31","","32","","16.1","","97.88","","","","","","Cloudy"
"-81.15","43.03","LONDON A","6144473","2019-06-10 17:00","2019","06","10","17:00","13.0","","12.4","","96","","31","","23","","4.0","","97.96","","","","","","Drizzle,Fog"
"-81.15","43.03","LONDON A","6144473","2019-06-10 18:00","2019","06","10","18:00","13.3","","12.0","","92","","31","","21","","24.1","","98.03","","","","","","NA"
"-81.15","43.03","LONDON A","6144473","2019-06-10 19:00","2019","06","10","19:00","13.5","","11.6","","88","","31","","26","","24.1","","98.10","","","","","","Cloudy"
"-81.15","43.03","LONDON A","6144473","2019-06-10 20:00","2019","06","10","20:00","13.4","","10.8","","84","","31","","28","","24.1","","98.21","","","","","","NA"
"-81.15","43.03","LONDON A","6144473","2019-06-10 21:00","2019","06","10","21:00","12.7","","9.9","","83","","31","","21","","24.1","","98.28","","","","","","NA"
"-81.15","43.03","LONDON A","6144473","2019-06-10 22:00","2019","06","10","22:00","12.0","","9.4","","84","","29","","18","","24.1","","98.32","","","","","","Mainly Clear"
"-81.15","43.03","LONDON A","6144473","2019-06-10 23:00","2019","06","10","23:00","11.6","","9.0","","84","","30","","14","","24.1","","98.37","","","","","","NA"
"-81.15","43.03","LONDON A","6144473","2019-06-11 00:00","2019","06","11","00:00","11.1","","9.1","","87","","28","","17","","24.1","","98.39","","","","","","NA"
"-81.15","43.03","LONDON A","6144473","2019-06-11 01:00","2019","06","11","01:00","11.1","","7.8","","80","","29","","12","","24.1","","98.42","","","","","","Clear"
"-81.15","43.03","LONDON A","6144473","2019-06-11 02:00","2019","06","11","02:00","11.0","","7.0","","76","","29","","11","","24.1","","98.46","","","","","","NA"
"-81.15","43.03","LONDON A","6144473","2019-06-11 03:00","2019","06","11","03:00","10.3","","6.8","","79","","28","","6","","24.1","","98.50","","","","","","NA"
"-81.15","43.03","LONDON A","6144473","2019-06-11 04:00","2019","06","11","04:00","9.3","","6.5","","83","","28","","5","","24.1","","98.54","","","","","","Clear"
"-81.15","43.03","LONDON A","6144473","2019-06-11 05:00","2019","06","11","05:00","9.1","","6.6","","84","","27","","4","","24.1","","98.61","","","","","","NA"
"-81.15","43.03","LONDON A","6144473","2019-06-11 06:00","2019","06","11","06:00","10.0","","7.6","","85","","26","","9","","24.1","","98.71","","","","","","NA"
"-81.15","43.03","LONDON A","6144473","2019-06-11 07:00","2019","06","11","07:00","12.7","","8.6","","76","","27","","12","","24.1","","98.77","","","","","","Clear"
"-81.15","43.03","LONDON A","6144473","2019-06-11 08:00","2019","06","11","08:00","15.4","","9.0","","65","","28","","14","","24.1","","98.84","","","","","","NA"
"-81.15","43.03","LONDON A","6144473","2019-06-11 09:00","2019","06","11","09:00","16.8","","8.7","","58","","28","","18","","24.1","","98.87","","","","","","NA"
"-81.15","43.03","LONDON A","6144473","2019-06-11 10:00","2019","06","11","10:00","18.2","","8.2","","52","","26","","19","","24.1","","98.83","","","","","","Clear"
"-81.15","43.03","LONDON A","6144473","2019-06-11 11:00","2019","06","11","11:00","19.5","","8.1","","47","","27","","20","","24.1","","98.81","","","","","","NA"
"-81.15","43.03","LONDON A","6144473","2019-06-11 12:00","2019","06","11","12:00","20.2","","8.4","","46","","28","","21","","24.1","","98.79","","","","","","NA"
"-81.15","43.03","LONDON A","6144473","2019-06-11 13:00","2019","06","11","13:00","20.4","","6.6","","40","","28","","24","","24.1","","98.79","","","","","","Mainly Clear"
"-81.15","43.03","LONDON A","6144473","2019-06-11 14:00","2019","06","11","14:00","20.3","","8.9","","48","","28","","17","","24.1","","98.82","","","","","","NA"
"-81.15","43.03","LONDON A","6144473","2019-06-11 15:00","2019","06","11","15:00","20.5","","6.2","","39","","32","","20","","24.1","","98.83","","","","","","NA"
"-81.15","43.03","LONDON A","6144473","2019-06-11 16:00","2019","06","11","16:00","20.7","","6.9","","40","","32","","17","","24.1","","98.81","","","","","","Mainly Clear"
"-81.15","43.03","LONDON A","6144473","2019-06-11 17:00","2019","06","11","17:00","20.4","","5.5","","37","","32","","16","","24.1","","98.78","","","","","","NA"
"-81.15","43.03","LONDON A","6144473","2019-06-11 18:00","2019","06","11","18:00","20.0","","5.2","","37","","32","","11","","24.1","","98.73","","","","","","NA"
"-81.15","43.03","LONDON A","6144473","2019-06-11 19:00","2019","06","11","19:00","18.8","","6.8","","45","","36","","8","","24.1","","98.73","","","","","","Mainly Clear"
"-81.15","43.03","LONDON A","6144473","2019-06-11 20:00","2019","06","11","20:00","14.5","","7.6","","63","","5","","8","","24.1","","98.71","","","","","","NA"
"-81.15","43.03","LONDON A","6144473","2019-06-11 21:00","2019","06","11","21:00","13.4","","9.3","","76","","11","","3","","24.1","","98.73","","","","","","NA"
"-81.15","43.03","LONDON A","6144473","2019-06-11 22:00","2019","06","11","22:00","13.1","","7.8","","70","","14","","4","","24.1","","98.75","","","","","","Mainly Clear"
"-81.15","43.03","LONDON A","6144473","2019-06-11 23:00","2019","06","11","23:00","12.3","","7.8","","74","","13","","4","","24.1","","98.78","","","","","","NA"
"-81.15","43.03","LONDON A","6144473","2019-06-12 00:00","2019","06","12","00:00","11.9","","7.8","","76","","14","","4","","24.1","","98.76","","","","","","NA"
"-81.15","43.03","LONDON A","6144473","2019-06-12 01:00","2019","06","12","01:00","11.2","","8.2","","81","","12","","6","","24.1","","98.73","","","","","","Mainly Clear"
"-81.15","43.03","LONDON A","6144473","2019-06-12 02:00","2019","06","12","02:00","11.6","","8.3","","80","","13","","5","","24.1","","98.72","","","","","","NA"
"-81.15","43.03","LONDON A","6144473","2019-06-12 03:00","2019","06","12","03:00","10.8","","7.9","","82","","12","","5","","24.1","","98.68","","","","","","NA"
"-81.15","43.03","LONDON A","6144473","2019-06-12 04:00","2019","06","12","04:00","10.0","","7.6","","85","","11","","8","","24.1","","98.65","","","","","","Clear"
"-81.15","43.03","LONDON A","6144473","2019-06-12 05:00","2019","06","12","05:00","10.6","","7.3","","80","","12","","6","","24.1","","98.66","","","","","","NA"
"-81.15","43.03","LONDON A","6144473","2019-06-12 06:00","2019","06","12","06:00","11.9","","8.7","","80","","11","","5","","24.1","","98.66","","","","","","NA"
"-81.15","43.03","LONDON A","6144473","2019-06-12 07:00","2019","06","12","07:00","15.6","","9.2","","65","","18","","11","","24.1","","98.64","","","","","","Mostly Cloudy"
"-81.15","43.03","LONDON A","6144473","2019-06-12 08:00","2019","06","12","08:00","18.5","","8.9","","53","","17","","16","","24.1","","98.63","","","","","","NA"
"-81.15","43.03","LONDON A","6144473","2019-06-12 09:00","2019","06","12","09:00","19.8","","8.4","","47","","18","","25","","24.1","","98.59","","","","","","NA"
"-81.15","43.03","LONDON A","6144473","2019-06-12 10:00","2019","06","12","10:00","20.7","","8.7","","46","","16","","26","","24.1","","98.51","","","","","","Cloudy"
"-81.15","43.03","LONDON A","6144473","2019-06-12 11:00","2019","06","12","11:00","21.2","","8.9","","45","","18","","23","","24.1","","98.48","","","","","","NA"
"-81.15","43.03","LONDON A","6144473","2019-06-12 12:00","2019","06","12","12:00","21.5","","9.0","","44","","19","","20","","24.1","","98.42","","","","","","NA"
"-81.15","43.03","LONDON A","6144473","2019-06-12 13:00","2019","06","12","13:00","21.7","","7.6","","40","","15","","20","","24.1","","98.32","","","","","","Mostly Cloudy"
"-81.15","43.03","LONDON A","6144473","2019-06-12 14:00","2019","06","12","14:00","21.8","","6.9","","38","","15","","22","","24.1","","98.24","","","","","","NA"
"-81.15","43.03","LONDON A","6144473","2019-06-12 15:00","2019","06","12","15:00","22.3","","5.4","","33","","17","","15","","24.1","","98.15","","","","","","NA"
"-81.15","43.03","LONDON A","6144473","2019-06-12 16:00","2019","06","12","16:00","22.2","","5.4","","33","","17","","19","","24.1","","98.11","","","","","","Mostly Cloudy"
"-81.15","43.03","LONDON A","6144473","2019-06-12 17:00","2019","06","12","17:00","21.5","","6.4","","37","","17","","23","","24.1","","98.07","","","","","","NA"
"-81.15","43.03","LONDON A","6144473","2019-06-12 18:00","2019","06","12","18:00","21.3","","6.2","","37","","16","","18","","24.1","","97.98","","","","","","NA"
"-81.15","43.03","LONDON A","6144473","2019-06-12 19:00","2019","06","12","19:00","20.2","","7.5","","43","","14","","11","","24.1","","97.92","","","","","","Mostly Cloudy"
"-81.15","43.03","LONDON A","6144473","2019-06-12 20:00","2019","06","12","20:00","17.9","","8.4","","53","","11","","9","","24.1","","97.88","","","","","","NA"
"-81.15","43.03","LONDON A","6144473","2019-06-12 21:00","2019","06","12","21:00","16.5","","8.8","","60","","10","","10","","24.1","","97.84","","","","","","NA"
"-81.15","43.03","LONDON A","6144473","2019-06-12 22:00","2019","06","12","22:00","16.0","","9.5","","65","","8","","18","","24.1","","97.79","","","","","","Mostly Cloudy"
"-81.15","43.03","LONDON A","6144473","2019-06-12 23:00","2019","06","12","23:00","14.9","","9.1","","68","","9","","11","","24.1","","97.68","","","","","","NA"
"-81.15","43.03","LONDON A","6144473","2019-06-13 00:00","2019","06","13","00:00","15.2","","9.3","","68","","10","","11","","24.1","","97.62","","","","","","NA"
"-81.15","43.03","LONDON A","6144473","2019-06-13 01:00","2019","06","13","01:00","14.3","","12.9","","92","","17","","15","","9.7","","97.60","","","","","","Rain Showers,Fog"
"-81.15","43.03","LONDON A","6144473","2019-06-13 02:00","2019","06","13","02:00","15.2","","14.5","","96","","17","","17","","9.7","","97.48","","","","","","Rain Showers,Fog"
"-81.15","43.03","LONDON A","6144473","2019-06-13 03:00","2019","06","13","03:00","15.0","","14.6","","97","","16","","14","","12.9","","97.37","","","","","","Rain Showers"
"-81.15","43.03","LONDON A","6144473","2019-06-13 04:00","2019","06","13","04:00","15.2","","14.7","","97","","13","","22","","24.1","","97.25","","","","","","Rain Showers"
"-81.15","43.03","LONDON A","6144473","2019-06-13 05:00","2019","06","13","05:00","14.9","","14.2","","96","","15","","26","","19.3","","97.22","","","","","","NA"
"-81.15","43.03","LONDON A","6144473","2019-06-13 06:00","2019","06","13","06:00","14.7","","14.0","","95","","16","","23","","24.1","","97.20","","","","","","NA"
"-81.15","43.03","LONDON A","6144473","2019-06-13 07:00","2019","06","13","07:00","15.0","","14.2","","95","","15","","19","","19.3","","97.13","","","","","","Cloudy"
"-81.15","43.03","LONDON A","6144473","2019-06-13 08:00","2019","06","13","08:00","15.1","","14.4","","96","","17","","23","","9.7","","97.09","","","","","","Rain Showers,Fog"
"-81.15","43.03","LONDON A","6144473","2019-06-13 09:00","2019","06","13","09:00","15.5","","14.6","","94","","19","","20","","19.3","","97.08","","","","","","Rain Showers"
"-81.15","43.03","LONDON A","6144473","2019-06-13 10:00","2019","06","13","10:00","17.4","","15.3","","87","","20","","20","","24.1","","97.04","","","","","","Mostly Cloudy"
"-81.15","43.03","LONDON A","6144473","2019-06-13 11:00","2019","06","13","11:00","17.1","","14.1","","82","","27","","13","","24.1","","96.99","","","","","","Rain Showers"
"-81.15","43.03","LONDON A","6144473","2019-06-13 12:00","2019","06","13","12:00","17.7","","13.6","","77","","26","","15","","24.1","","97.01","","","","","","NA"
"-81.15","43.03","LONDON A","6144473","2019-06-13 13:00","2019","06","13","13:00","17.3","","13.1","","76","","28","","17","","24.1","","97.01","","","","","","Mostly Cloudy"
"-81.15","43.03","LONDON A","6144473","2019-06-13 14:00","2019","06","13","14:00","16.8","","12.6","","76","","27","","19","","24.1","","97.02","","","","","","NA"
"-81.15","43.03","LONDON A","6144473","2019-06-13 15:00","2019","06","13","15:00","15.9","","12.5","","80","","30","","21","","24.1","","97.02","","","","","","NA"
"-81.15","43.03","LONDON A","6144473","2019-06-13 16:00","2019","06","13","16:00","13.1","","11.5","","90","","31","","17","","16.1","","97.11","","","","","","Cloudy"
"-81.15","43.03","LONDON A","6144473","2019-06-13 17:00","2019","06","13","17:00","14.0","","11.3","","84","","32","","20","","24.1","","97.12","","","","","","NA"
"-81.15","43.03","LONDON A","6144473","2019-06-13 18:00","2019","06","13","18:00","13.1","","10.4","","84","","31","","19","","24.1","","97.20","","","","","","NA"
"-81.15","43.03","LONDON A","6144473","2019-06-13 19:00","2019","06","13","19:00","12.0","","10.4","","90","","30","","17","","19.3","","97.25","","","","","","Rain Showers"
"-81.15","43.03","LONDON A","6144473","2019-06-13 20:00","2019","06","13","20:00","10.8","","10.0","","95","","29","","17","","19.3","","97.31","","","","","","NA"
"-81.15","43.03","LONDON A","6144473","2019-06-13 21:00","2019","06","13","21:00","10.5","","9.9","","96","","30","","14","","16.1","","97.38","","","","","","NA"
"-81.15","43.03","LONDON A","6144473","2019-06-13 22:00","2019","06","13","22:00","10.3","","9.7","","96","","29","","13","","16.1","","97.43","","","","","","Cloudy"
"-81.15","43.03","LONDON A","6144473","2019-06-13 23:00","2019","06","13","23:00","9.8","","9.1","","95","","30","","23","","24.1","","97.50","","","","","","Rain Showers"
"-81.15","43.03","LONDON A","6144473","2019-06-14 00:00","2019","06","14","00:00","9.9","","8.7","","92","","30","","21","","24.1","","97.57","","","","","","Rain Showers"
"-81.15","43.03","LONDON A","6144473","2019-06-14 01:00","2019","06","14","01:00","10.0","","7.5","","84","","30","","22","","24.1","","97.60","","","","","","Cloudy"
"-81.15","43.03","LONDON A","6144473","2019-06-14 02:00","2019","06","14","02:00","10.7","","8.1","","84","","28","","17","","24.1","","97.66","","","","","","NA"
"-81.15","43.03","LONDON A","6144473","2019-06-14 03:00","2019","06","14","03:00","10.7","","7.7","","81","","28","","19","","24.1","","97.73","","","","","","NA"
"-81.15","43.03","LONDON A","6144473","2019-06-14 04:00","2019","06","14","04:00","10.3","","6.0","","74","","28","","16","","24.1","","97.82","","","","","","Clear"
"-81.15","43.03","LONDON A","6144473","2019-06-14 05:00","2019","06","14","05:00","9.7","","6.6","","81","","27","","16","","24.1","","97.91","","","","","","NA"
"-81.15","43.03","LONDON A","6144473","2019-06-14 06:00","2019","06","14","06:00","10.2","","6.9","","80","","27","","18","","24.1","","97.99","","","","","","NA"
"-81.15","43.03","LONDON A","6144473","2019-06-14 07:00","2019","06","14","07:00","11.7","","7.6","","76","","26","","19","","24.1","","98.06","","","","","","Mainly Clear"
"-81.15","43.03","LONDON A","6144473","2019-06-14 08:00","2019","06","14","08:00","13.8","","8.0","","68","","27","","21","","24.1","","98.13","","","","","","NA"
"-81.15","43.03","LONDON A","6144473","2019-06-14 09:00","2019","06","14","09:00","15.7","","8.6","","62","","28","","21","","24.1","","98.21","","","","","","NA"
"-81.15","43.03","LONDON A","6144473","2019-06-14 10:00","2019","06","14","10:00","17.9","","9.0","","56","","27","","17","","24.1","","98.25","","","","","","Mainly Clear"
"-81.15","43.03","LONDON A","6144473","2019-06-14 11:00","2019","06","14","11:00","18.9","","9.2","","53","","27","","24","","24.1","","98.25","","","","","","NA"
"-81.15","43.03","LONDON A","6144473","2019-06-14 12:00","2019","06","14","12:00","20.0","","9.1","","49","","28","","25","","24.1","","98.28","","","","","","NA"
"-81.15","43.03","LONDON A","6144473","2019-06-14 13:00","2019","06","14","13:00","20.4","","9.0","","48","","25","","30","","24.1","","98.26","","","","","","Mostly Cloudy"
"-81.15","43.03","LONDON A","6144473","2019-06-14 14:00","2019","06","14","14:00","20.9","","9.7","","48","","26","","22","","24.1","","98.26","","","","","","NA"
"-81.15","43.03","LONDON A","6144473","2019-06-14 15:00","2019","06","14","15:00","21.4","","9.0","","45","","25","","19","","24.1","","98.22","","","","","","NA"
"-81.15","43.03","LONDON A","6144473","2019-06-14 16:00","2019","06","14","16:00","20.3","","8.3","","46","","23","","22","","24.1","","98.21","","","","","","Mostly Cloudy"
"-81.15","43.03","LONDON A","6144473","2019-06-14 17:00","2019","06","14","17:00","20.0","","7.9","","45","","23","","30","","24.1","","98.18","","","","","","NA"
"-81.15","43.03","LONDON A","6144473","2019-06-14 18:00","2019","06","14","18:00","19.2","","8.6","","50","","22","","30","","24.1","","98.18","","","","","","NA"
"-81.15","43.03","LONDON A","6144473","2019-06-14 19:00","2019","06","14","19:00","18.6","","8.2","","50","","21","","21","","24.1","","98.15","","","","","","Mostly Cloudy"
"-81.15","43.03","LONDON A","6144473","2019-06-14 20:00","2019","06","14","20:00","17.9","","8.7","","55","","20","","21","","24.1","","98.13","","","","","","NA"
"-81.15","43.03","LONDON A","6144473","2019-06-14 21:00","2019","06","14","21:00","17.3","","8.7","","57","","19","","16","","24.1","","98.10","","","","","","NA"
"-81.15","43.03","LONDON A","6144473","2019-06-14 22:00","2019","06","14","22:00","17.3","","8.8","","57","","20","","18","","24.1","","98.06","","","","","","Cloudy"
"-81.15","43.03","LONDON A","6144473","2019-06-14 23:00","2019","06","14","23:00","17.4","","9.3","","59","","20","","21","","24.1","","98.03","","","","","","NA"
"-81.15","43.03","LONDON A","6144473","2019-06-15 00:00","2019","06","15","00:00","17.6","","8.9","","57","","20","","23","","24.1","","97.99","","","","","","NA"
"-81.15","43.03","LONDON A","6144473","2019-06-15 01:00","2019","06","15","01:00","17.1","","9.1","","59","","20","","25","","24.1","","97.96","","","","","","Cloudy"
"-81.15","43.03","LONDON A","6144473","2019-06-15 02:00","2019","06","15","02:00","16.9","","9.6","","62","","21","","21","","24.1","","97.95","","","","","","NA"
"-81.15","43.03","LONDON A","6144473","2019-06-15 03:00","2019","06","15","03:00","16.3","","10.0","","66","","20","","20","","24.1","","97.90","","","","","","NA"
"-81.15","43.03","LONDON A","6144473","2019-06-15 04:00","2019","06","15","04:00","15.8","","10.6","","71","","21","","18","","24.1","","97.90","","","","","","Cloudy"
"-81.15","43.03","LONDON A","6144473","2019-06-15 05:00","2019","06","15","05:00","15.5","","10.8","","73","","20","","17","","24.1","","97.93","","","","","","NA"
"-81.15","43.03","LONDON A","6144473","2019-06-15 06:00","2019","06","15","06:00","16.3","","11.1","","71","","21","","17","","24.1","","97.95","","","","","","NA"
"-81.15","43.03","LONDON A","6144473","2019-06-15 07:00","2019","06","15","07:00","16.9","","11.1","","69","","21","","22","","24.1","","97.94","","","","","","Mostly Cloudy"
"-81.15","43.03","LONDON A","6144473","2019-06-15 08:00","2019","06","15","08:00","17.0","","12.1","","72","","21","","15","","24.1","","97.92","","","","","","NA"
"-81.15","43.03","LONDON A","6144473","2019-06-15 09:00","2019","06","15","09:00","17.1","","11.6","","70","","20","","30","","24.1","","97.88","","","","","","NA"
"-81.15","43.03","LONDON A","6144473","2019-06-15 10:00","2019","06","15","10:00"
"-81.15","43.03","LONDON A","6144473","2019-06-15 11:00","2019","06","15","11:00","16.8","","13.7","","81","","23","","21","","24.1","","97.83","","","","","","NA"
"-81.15","43.03","LONDON A","6144473","2019-06-15 12:00","2019","06","15","12:00","18.1","","14.3","","78","","23","","26","","24.1","","97.79","","","","","","NA"
"-81.15","43.03","LONDON A","6144473","2019-06-15 13:00","2019","06","15","13:00","18.4","","14.7","","79","","24","","17","","24.1","","97.79","","","","","","Cloudy"
"-81.15","43.03","LONDON A","6144473","2019-06-15 14:00","2019","06","15","14:00","19.3","","15.0","","76","","24","","21","","19.3","","97.78","","","","","","NA"
"-81.15","43.03","LONDON A","6144473","2019-06-15 15:00","2019","06","15","15:00","19.1","","15.2","","78","","23","","22","","19.3","","97.80","","","","","","NA"
"-81.15","43.03","LONDON A","6144473","2019-06-15 16:00","2019","06","15","16:00","18.7","","15.7","","83","","21","","15","","19.3","","97.78","","","","","","Rain Showers"
"-81.15","43.03","LONDON A","6144473","2019-06-15 17:00","2019","06","15","17:00","18.4","","16.3","","87","","22","","15","","19.3","","97.77","","","","","","Rain Showers"
"-81.15","43.03","LONDON A","6144473","2019-06-15 18:00","2019","06","15","18:00","18.2","","16.5","","90","","24","","13","","9.7","","97.75","","","","","","Fog"
"-81.15","43.03","LONDON A","6144473","2019-06-15 19:00","2019","06","15","19:00","17.3","","16.8","","97","","28","","8","","4.0","","97.80","","","","","","Rain Showers,Fog"
"-81.15","43.03","LONDON A","6144473","2019-06-15 20:00","2019","06","15","20:00","16.2","","15.8","","97","","1","","6","","4.0","","97.81","","","","","","Drizzle,Fog"
"-81.15","43.03","LONDON A","6144473","2019-06-15 21:00","2019","06","15","21:00","15.8","","15.3","","97","","4","","9","","6.4","","97.83","","","","","","Drizzle,Fog"
"-81.15","43.03","LONDON A","6144473","2019-06-15 22:00","2019","06","15","22:00","15.6","","15.1","","97","","4","","8","","8.1","","97.87","","","","","","Fog"
"-81.15","43.03","LONDON A","6144473","2019-06-15 23:00","2019","06","15","23:00","15.5","","14.9","","96","","5","","7","","6.4","","97.87","","","","","","Fog"
"-81.15","43.03","LONDON A","6144473","2019-06-16 00:00","2019","06","16","00:00","15.3","","14.6","","96","","5","","10","","8.1","","97.84","","","","","","Fog"
"-81.15","43.03","LONDON A","6144473","2019-06-16 01:00","2019","06","16","01:00","15.0","","14.3","","96","","6","","5","","9.7","","97.78","","","","","","Fog"
"-81.15","43.03","LONDON A","6144473","2019-06-16 02:00","2019","06","16","02:00","14.9","","14.2","","95","","6","","13","","16.1","","97.73","","","","","","NA"
"-81.15","43.03","LONDON A","6144473","2019-06-16 03:00","2019","06","16","03:00","14.8","","14.0","","94","","8","","16","","16.1","","97.67","","","","","","NA"
"-81.15","43.03","LONDON A","6144473","2019-06-16 04:00","2019","06","16","04:00","14.7","","14.0","","95","","9","","13","","24.1","","97.65","","","","","","Cloudy"
"-81.15","43.03","LONDON A","6144473","2019-06-16 05:00","2019","06","16","05:00","14.8","","14.1","","96","","7","","15","","8.1","","97.67","","","","","","Fog"
"-81.15","43.03","LONDON A","6144473","2019-06-16 06:00","2019","06","16","06:00","13.9","","13.6","","98","","8","","22","","2.8","","97.69","","","","","","Fog"
"-81.15","43.03","LONDON A","6144473","2019-06-16 07:00","2019","06","16","07:00","14.1","","13.0","","93","","7","","19","","4.8","","97.75","","","","","","Fog"
"-81.15","43.03","LONDON A","6144473","2019-06-16 08:00","2019","06","16","08:00","14.0","","11.5","","85","","4","","14","","16.1","","97.82","","","","","","NA"
"-81.15","43.03","LONDON A","6144473","2019-06-16 09:00","2019","06","16","09:00","14.4","","10.0","","75","","7","","18","","24.1","","97.86","","","","","","NA"
"-81.15","43.03","LONDON A","6144473","2019-06-16 10:00","2019","06","16","10:00","15.1","","10.7","","75","","7","","13","","24.1","","97.88","","","","","","Cloudy"
"-81.15","43.03","LONDON A","6144473","2019-06-16 11:00","2019","06","16","11:00","16.3","","11.2","","71","","5","","13","","24.1","","97.91","","","","","","NA"
"-81.15","43.03","LONDON A","6144473","2019-06-16 12:00","2019","06","16","12:00","17.4","","11.2","","67","","6","","16","","24.1","","97.89","","","","","","NA"
"-81.15","43.03","LONDON A","6144473","2019-06-16 13:00","2019","06","16","13:00","17.4","","11.3","","67","","8","","16","","24.1","","97.88","","","","","","Cloudy"
"-81.15","43.03","LONDON A","6144473","2019-06-16 14:00","2019","06","16","14:00","17.3","","12.3","","72","","8","","12","","24.1","","97.91","","","","","","Rain"
"-81.15","43.03","LONDON A","6144473","2019-06-16 15:00","2019","06","16","15:00","16.6","","10.9","","69","","7","","15","","24.1","","97.97","","","","","","Rain"
"-81.15","43.03","LONDON A","6144473","2019-06-16 16:00","2019","06","16","16:00","17.1","","10.8","","66","","6","","16","","24.1","","97.99","","","","","","Mostly Cloudy"
"-81.15","43.03","LONDON A","6144473","2019-06-16 17:00","2019","06","16","17:00","18.4","","12.1","","66","","10","","11","","24.1","","97.97","","","","","","NA"
"-81.15","43.03","LONDON A","6144473","2019-06-16 18:00","2019","06","16","18:00","18.2","","12.3","","68","","6","","9","","24.1","","97.95","","","","","","NA"
"-81.15","43.03","LONDON A","6144473","2019-06-16 19:00","2019","06","16","19:00","17.4","","11.0","","66","","16","","6","","24.1","","98.03","","","","","","Mostly Cloudy"
"-81.15","43.03","LONDON A","6144473","2019-06-16 20:00","2019","06","16","20:00","16.4","","11.1","","70","","14","","5","","24.1","","98.02","","","","","","NA"
"-81.15","43.03","LONDON A","6144473","2019-06-16 21:00","2019","06","16","21:00","14.0","","12.3","","89","","36","","2","","24.1","","98.07","","","","","","NA"
"-81.15","43.03","LONDON A","6144473","2019-06-16 22:00","2019","06","16","22:00","13.1","","11.7","","92","","36","","1","","24.1","","98.14","","","","","","Mainly Clear"
"-81.15","43.03","LONDON A","6144473","2019-06-16 23:00","2019","06","16","23:00","12.4","","11.9","","97","","7","","4","","24.1","","98.16","","","","","","NA"
"-81.15","43.03","LONDON A","6144473","2019-06-17 00:00","2019","06","17","00:00","11.6","","11.3","","98","","4","","5","","19.3","","98.12","","","","","","NA"
"-81.15","43.03","LONDON A","6144473","2019-06-17 01:00","2019","06","17","01:00","11.4","","11.2","","98","","2","","7","","19.3","","98.11","","","","","","Mainly Clear"
"-81.15","43.03","LONDON A","6144473","2019-06-17 02:00","2019","06","17","02:00","11.6","","11.2","","97","","32","","4","","19.3","","98.16","","","","","","NA"
"-81.15","43.03","LONDON A","6144473","2019-06-17 03:00","2019","06","17","03:00","12.1","","11.7","","97","","32","","5","","19.3","","98.16","","","","","","NA"
"-81.15","43.03","LONDON A","6144473","2019-06-17 04:00","2019","06","17","04:00","12.5","","12.2","","98","","4","","8","","19.3","","98.17","","","","","","Mostly Cloudy"
"-81.15","43.03","LONDON A","6144473","2019-06-17 05:00","2019","06","17","05:00","13.1","","11.9","","93","","6","","5","","24.1","","98.22","","","","","","NA"
"-81.15","43.03","LONDON A","6144473","2019-06-17 06:00","2019","06","17","06:00","13.8","","12.3","","91","","6","","10","","24.1","","98.26","","","","","","NA"
"-81.15","43.03","LONDON A","6144473","2019-06-17 07:00","2019","06","17","07:00","14.6","","12.0","","84","","6","","10","","24.1","","98.30","","","","","","Mostly Cloudy"
"-81.15","43.03","LONDON A","6144473","2019-06-17 08:00","2019","06","17","08:00","16.1","","12.4","","79","","7","","10","","24.1","","98.30","","","","","","NA"
"-81.15","43.03","LONDON A","6144473","2019-06-17 09:00","2019","06","17","09:00","18.4","","12.1","","66","","10","","13","","24.1","","98.28","","","","","","NA"
"-81.15","43.03","LONDON A","6144473","2019-06-17 10:00","2019","06","17","10:00","19.9","","12.7","","63","","5","","11","","24.1","","98.32","","","","","","Mostly Cloudy"
"-81.15","43.03","LONDON A","6144473","2019-06-17 11:00","2019","06","17","11:00","21.1","","12.9","","59","","6","","14","","24.1","","98.33","","","","","","NA"
"-81.15","43.03","LONDON A","6144473","2019-06-17 12:00","2019","06","17","12:00","22.3","","12.0","","52","","11","","13","","24.1","","98.32","","25","","","","NA"
"-81.15","43.03","LONDON A","6144473","2019-06-17 13:00","2019","06","17","13:00","22.9","","12.4","","51","","12","","6","","24.1","","98.31","","25","","","","Mostly Cloudy"
"-81.15","43.03","LONDON A","6144473","2019-06-17 14:00","2019","06","17","14:00","22.9","","10.8","","46","","10","","3","","24.1","","98.30","","25","","","","NA"
"-81.15","43.03","LONDON A","6144473","2019-06-17 15:00","2019","06","17","15:00","23.1","","11.4","","47","","30","","3","","24.1","","98.29","","25","","","","NA"
"-81.15","43.03","LONDON A","6144473","2019-06-17 16:00","2019","06","17","16:00","23.3","","11.9","","48","","8","","3","","24.1","","98.25","","26","","","","Mostly Cloudy"
"-81.15","43.03","LONDON A","6144473","2019-06-17 17:00","2019","06","17","17:00","22.5","","12.2","","52","","11","","4","","24.1","","98.20","","25","","","","NA"
"-81.15","43.03","LONDON A","6144473","2019-06-17 18:00","2019","06","17","18:00","22.4","","12.9","","54","","14","","10","","24.1","","98.18","","25","","","","NA"
"-81.15","43.03","LONDON A","6144473","2019-06-17 19:00","2019","06","17","19:00","20.2","","14.8","","71","","28","","8","","24.1","","98.19","","","","","","Mostly Cloudy"
"-81.15","43.03","LONDON A","6144473","2019-06-17 20:00","2019","06","17","20:00","18.7","","14.2","","75","","26","","8","","24.1","","98.24","","","","","","NA"
"-81.15","43.03","LONDON A","6144473","2019-06-17 21:00","2019","06","17","21:00","18.4","","13.7","","74","","36","","3","","24.1","","98.28","","","","","","NA"
"-81.15","43.03","LONDON A","6144473","2019-06-17 22:00","2019","06","17","22:00","16.7","","14.1","","85","","21","","10","","24.1","","98.29","","","","","","Cloudy"
"-81.15","43.03","LONDON A","6144473","2019-06-17 23:00","2019","06","17","23:00","15.4","","13.6","","89","","31","","4","","24.1","","98.26","","","","","","NA"
"-81.15","43.03","LONDON A","6144473","2019-06-18 00:00","2019","06","18","00:00","14.8","","13.2","","90","","36","","2","","24.1","","98.26","","","","","","NA"
"-81.15","43.03","LONDON A","6144473","2019-06-18 01:00","2019","06","18","01:00","14.3","","13.2","","93","","8","","4","","24.1","","98.25","","","","","","Cloudy"
"-81.15","43.03","LONDON A","6144473","2019-06-18 02:00","2019","06","18","02:00","14.6","","13.4","","92","","6","","4","","24.1","","98.21","","","","","","NA"
"-81.15","43.03","LONDON A","6144473","2019-06-18 03:00","2019","06","18","03:00","14.1","","13.0","","93","","36","","2","","24.1","","98.16","","","","","","NA"
"-81.15","43.03","LONDON A","6144473","2019-06-18 04:00","2019","06","18","04:00","13.1","","12.4","","96","","4","","5","","24.1","","98.14","","","","","","Mostly Cloudy"
"-81.15","43.03","LONDON A","6144473","2019-06-18 05:00","2019","06","18","05:00","14.6","","12.5","","87","","13","","3","","24.1","","98.16","","","","","","NA"
"-81.15","43.03","LONDON A","6144473","2019-06-18 06:00","2019","06","18","06:00","15.3","","13.8","","91","","31","","3","","24.1","","98.16","","","","","","NA"
"-81.15","43.03","LONDON A","6144473","2019-06-18 07:00","2019","06","18","07:00","16.5","","14.3","","87","","36","","1","","24.1","","98.19","","","","","","Mostly Cloudy"
"-81.15","43.03","LONDON A","6144473","2019-06-18 08:00","2019","06","18","08:00","18.4","","13.9","","75","","36","","2","","24.1","","98.20","","","","","","NA"
"-81.15","43.03","LONDON A","6144473","2019-06-18 09:00","2019","06","18","09:00","20.2","","14.8","","71","","36","","3","","24.1","","98.19","","","","","","NA"
"-81.15","43.03","LONDON A","6144473","2019-06-18 10:00","2019","06","18","10:00","20.8","","13.9","","64","","36","","1","","24.1","","98.18","","","","","","Mostly Cloudy"
"-81.15","43.03","LONDON A","6144473","2019-06-18 11:00","2019","06","18","11:00","22.4","","15.8","","66","","30","","7","","24.1","","98.16","","27","","","","NA"
"-81.15","43.03","LONDON A","6144473","2019-06-18 12:00","2019","06","18","12:00","22.1","","15.5","","66","","24","","9","","24.1","","98.14","","26","","","","NA"
"-81.15","43.03","LONDON A","6144473","2019-06-18 13:00","2019","06","18","13:00","23.6","","15.3","","59","","19","","5","","24.1","","98.09","","28","","","","Mostly Cloudy"
"-81.15","43.03","LONDON A","6144473","2019-06-18 14:00","2019","06","18","14:00","23.8","","16.0","","61","","29","","8","","24.1","","98.04","","28","","","","NA"
"-81.15","43.03","LONDON A","6144473","2019-06-18 15:00","2019","06","18","15:00","23.6","","15.1","","58","","30","","10","","24.1","","97.99","","28","","","","NA"
"-81.15","43.03","LONDON A","6144473","2019-06-18 16:00","2019","06","18","16:00","25.4","","15.8","","55","","25","","12","","24.1","","97.93","","30","","","","Mostly Cloudy"
"-81.15","43.03","LONDON A","6144473","2019-06-18 17:00","2019","06","18","17:00","23.8","","13.6","","52","","30","","14","","24.1","","97.93","","27","","","","NA"
"-81.15","43.03","LONDON A","6144473","2019-06-18 18:00","2019","06","18","18:00","23.3","","12.3","","50","","33","","11","","24.1","","97.90","","26","","","","NA"
"-81.15","43.03","LONDON A","6144473","2019-06-18 19:00","2019","06","18","19:00","22.2","","11.8","","51","","30","","7","","24.1","","97.89","","","","","","Mainly Clear"
"-81.15","43.03","LONDON A","6144473","2019-06-18 20:00","2019","06","18","20:00","20.3","","12.3","","60","","28","","7","","24.1","","97.92","","","","","","NA"
"-81.15","43.03","LONDON A","6144473","2019-06-18 21:00","2019","06","18","21:00","18.4","","10.0","","58","","31","","8","","24.1","","97.93","","","","","","NA"
"-81.15","43.03","LONDON A","6144473","2019-06-18 22:00","2019","06","18","22:00","14.5","","11.6","","83","","34","","5","","24.1","","97.94","","","","","","Mainly Clear"
"-81.15","43.03","LONDON A","6144473","2019-06-18 23:00","2019","06","18","23:00","14.9","","11.9","","82","","36","","2","","24.1","","97.93","","","","","","NA"
"-81.15","43.03","LONDON A","6144473","2019-06-19 00:00","2019","06","19","00:00","13.2","","10.8","","85","","33","","3","","24.1","","97.90","","","","","","NA"
"-81.15","43.03","LONDON A","6144473","2019-06-19 01:00","2019","06","19","01:00","12.3","","10.8","","91","","33","","4","","24.1","","97.89","","","","","","Clear"
"-81.15","43.03","LONDON A","6144473","2019-06-19 02:00","2019","06","19","02:00","13.0","","12.1","","94","","0","","1","","24.1","","97.83","","","","","","NA"
"-81.15","43.03","LONDON A","6144473","2019-06-19 03:00","2019","06","19","03:00","13.1","","12.7","","97","","29","","3","","24.1","","97.79","","","","","","NA"
"-81.15","43.03","LONDON A","6144473","2019-06-19 04:00","2019","06","19","04:00","11.8","","10.9","","94","","36","","2","","24.1","","97.77","","","","","","Mostly Cloudy"
"-81.15","43.03","LONDON A","6144473","2019-06-19 05:00","2019","06","19","05:00","12.2","","11.2","","94","","7","","4","","24.1","","97.79","","","","","","NA"
"-81.15","43.03","LONDON A","6144473","2019-06-19 06:00","2019","06","19","06:00","14.1","","12.5","","90","","4","","4","","24.1","","97.76","","","","","","NA"
"-81.15","43.03","LONDON A","6144473","2019-06-19 07:00","2019","06","19","07:00","18.1","","12.5","","70","","0","","1","","24.1","","97.75","","","","","","Mainly Clear"
"-81.15","43.03","LONDON A","6144473","2019-06-19 08:00","2019","06","19","08:00","21.3","","10.7","","50","","36","","2","","24.1","","97.75","","","","","","NA"
"-81.15","43.03","LONDON A","6144473","2019-06-19 09:00","2019","06","19","09:00","22.6","","14.9","","61","","36","","1","","24.1","","97.70","","27","","","","NA"
"-81.15","43.03","LONDON A","6144473","2019-06-19 10:00","2019","06","19","10:00","23.7","","15.3","","59","","18","","3","","24.1","","97.66","","28","","","","Mostly Cloudy"
"-81.15","43.03","LONDON A","6144473","2019-06-19 11:00","2019","06","19","11:00","24.5","","15.4","","56","","36","","1","","24.1","","97.63","","29","","","","NA"
"-81.15","43.03","LONDON A","6144473","2019-06-19 12:00","2019","06","19","12:00","24.4","","13.8","","51","","12","","7","","24.1","","97.61","","28","","","","NA"
"-81.15","43.03","LONDON A","6144473","2019-06-19 13:00","2019","06","19","13:00","25.3","","14.6","","51","","21","","3","","24.1","","97.57","","29","","","","Cloudy"
"-81.15","43.03","LONDON A","6144473","2019-06-19 14:00","2019","06","19","14:00","25.3","","15.2","","53","","18","","3","","24.1","","97.51","","29","","","","NA"
"-81.15","43.03","LONDON A","6144473","2019-06-19 15:00","2019","06","19","15:00","25.6","","15.5","","53","","36","","2","","24.1","","97.44","","30","","","","NA"
"-81.15","43.03","LONDON A","6144473","2019-06-19 16:00","2019","06","19","16:00","24.8","","15.6","","56","","32","","9","","24.1","","97.37","","29","","","","Cloudy"
"-81.15","43.03","LONDON A","6144473","2019-06-19 17:00","2019","06","19","17:00","25.2","","15.5","","54","","28","","7","","24.1","","97.34","","29","","","","NA"
"-81.15","43.03","LONDON A","6144473","2019-06-19 18:00","2019","06","19","18:00","25.4","","14.8","","51","","3","","4","","24.1","","97.28","","29","","","","NA"
"-81.15","43.03","LONDON A","6144473","2019-06-19 19:00","2019","06","19","19:00","23.3","","17.1","","68","","1","","4","","24.1","","97.28","","29","","","","Mostly Cloudy"
"-81.15","43.03","LONDON A","6144473","2019-06-19 20:00","2019","06","19","20:00","22.4","","15.9","","66","","2","","7","","24.1","","97.29","","27","","","","NA"
"-81.15","43.03","LONDON A","6144473","2019-06-19 21:00","2019","06","19","21:00","21.5","","14.8","","65","","17","","12","","24.1","","97.30","","25","","","","NA"
"-81.15","43.03","LONDON A","6144473","2019-06-19 22:00","2019","06","19","22:00","19.5","","14.5","","73","","13","","4","","24.1","","97.29","","","","","","Mostly Cloudy"
"-81.15","43.03","LONDON A","6144473","2019-06-19 23:00","2019","06","19","23:00","18.4","","13.9","","75","","36","","3","","24.1","","97.25","","","","","","NA"
"-81.15","43.03","LONDON A","6144473","2019-06-20 00:00","2019","06","20","00:00","18.1","","14.5","","79","","6","","4","","24.1","","97.22","","","","","","NA"
"-81.15","43.03","LONDON A","6144473","2019-06-20 01:00","2019","06","20","01:00","18.0","","14.6","","80","","5","","8","","24.1","","97.16","","","","","","Cloudy"
"-81.15","43.03","LONDON A","6144473","2019-06-20 02:00","2019","06","20","02:00","18.4","","14.4","","77","","6","","14","","19.3","","97.09","","","","","","NA"
"-81.15","43.03","LONDON A","6144473","2019-06-20 03:00","2019","06","20","03:00","17.8","","14.5","","80","","7","","12","","19.3","","97.04","","","","","","Rain Showers"
"-81.15","43.03","LONDON A","6144473","2019-06-20 04:00","2019","06","20","04:00","17.1","","14.5","","84","","4","","11","","19.3","","96.98","","","","","","Rain Showers"
"-81.15","43.03","LONDON A","6144473","2019-06-20 05:00","2019","06","20","05:00","16.7","","14.6","","87","","5","","10","","19.3","","96.99","","","","","","Rain Showers"
"-81.15","43.03","LONDON A","6144473","2019-06-20 06:00","2019","06","20","06:00","16.4","","14.9","","90","","1","","6","","19.3","","96.98","","","","","","Rain"
"-81.15","43.03","LONDON A","6144473","2019-06-20 07:00","2019","06","20","07:00","17.2","","15.4","","89","","5","","13","","24.1","","96.98","","","","","","Cloudy"
"-81.15","43.03","LONDON A","6144473","2019-06-20 08:00","2019","06","20","08:00","18.1","","16.4","","90","","5","","13","","19.3","","97.02","","","","","","Rain Showers"
"-81.15","43.03","LONDON A","6144473","2019-06-20 09:00","2019","06","20","09:00","19.0","","16.7","","86","","6","","10","","24.1","","97.00","","","","","","Rain Showers"
"-81.15","43.03","LONDON A","6144473","2019-06-20 10:00","2019","06","20","10:00","20.0","","16.7","","81","","6","","12","","24.1","","97.00","","25","","","","Cloudy"
"-81.15","43.03","LONDON A","6144473","2019-06-20 11:00","2019","06","20","11:00","19.6","","16.8","","84","","6","","4","","19.3","","96.99","","","","","","Rain Showers"
"-81.15","43.03","LONDON A","6144473","2019-06-20 12:00","2019","06","20","12:00","19.2","","16.8","","86","","16","","9","","16.1","","97.00","","","","","","Rain Showers"
"-81.15","43.03","LONDON A","6144473","2019-06-20 13:00","2019","06","20","13:00","18.2","","17.4","","95","","19","","8","","9.7","","96.97","","","","","","Rain Showers,Fog"
"-81.15","43.03","LONDON A","6144473","2019-06-20 14:00","2019","06","20","14:00","18.2","","17.2","","94","","17","","7","","6.4","","96.94","","","","","","Rain Showers,Fog"
"-81.15","43.03","LONDON A","6144473","2019-06-20 15:00","2019","06","20","15:00","18.2","","17.7","","97","","25","","3","","2.4","","96.95","","","","","","Rain Showers,Fog"
"-81.15","43.03","LONDON A","6144473","2019-06-20 16:00","2019","06","20","16:00","18.0","","17.6","","97","","20","","7","","2.4","","96.97","","","","","","Rain Showers,Fog"
"-81.15","43.03","LONDON A","6144473","2019-06-20 17:00","2019","06","20","17:00","17.8","","17.3","","97","","26","","7","","2.4","","96.99","","","","","","Rain Showers,Fog"
"-81.15","43.03","LONDON A","6144473","2019-06-20 18:00","2019","06","20","18:00","16.8","","16.3","","97","","1","","18","","2.4","","97.08","","","","","","Rain Showers,Fog"
"-81.15","43.03","LONDON A","6144473","2019-06-20 19:00","2019","06","20","19:00","16.3","","15.7","","96","","1","","19","","6.4","","97.10","","","","","","Rain Showers,Fog"
"-81.15","43.03","LONDON A","6144473","2019-06-20 20:00","2019","06","20","20:00","16.1","","15.2","","95","","1","","20","","16.1","","97.18","","","","","","Rain Showers"
"-81.15","43.03","LONDON A","6144473","2019-06-20 21:00","2019","06","20","21:00","15.7","","14.7","","94","","1","","17","","19.3","","97.28","","","","","","Rain Showers"
"-81.15","43.03","LONDON A","6144473","2019-06-20 22:00","2019","06","20","22:00","15.7","","13.9","","89","","36","","14","","24.1","","97.36","","","","","","Cloudy"
"-81.15","43.03","LONDON A","6144473","2019-06-20 23:00","2019","06","20","23:00","15.6","","14.7","","94","","33","","21","","24.1","","97.43","","","","","","NA"
"-81.15","43.03","LONDON A","6144473","2019-06-21 00:00","2019","06","21","00:00","15.2","","14.1","","93","","33","","17","","24.1","","97.46","","","","","","NA"
"-81.15","43.03","LONDON A","6144473","2019-06-21 01:00","2019","06","21","01:00","14.5","","12.9","","90","","30","","13","","24.1","","97.51","","","","","","Mostly Cloudy"
"-81.15","43.03","LONDON A","6144473","2019-06-21 02:00","2019","06","21","02:00","13.9","","12.4","","91","","31","","13","","24.1","","97.56","","","","","","NA"
"-81.15","43.03","LONDON A","6144473","2019-06-21 03:00","2019","06","21","03:00","12.3","","11.0","","92","","30","","13","","24.1","","97.57","","","","","","NA"
"-81.15","43.03","LONDON A","6144473","2019-06-21 04:00","2019","06","21","04:00","11.5","","9.8","","89","","30","","12","","24.1","","97.65","","","","","","Mainly Clear"
"-81.15","43.03","LONDON A","6144473","2019-06-21 05:00","2019","06","21","05:00","10.9","","9.4","","91","","31","","11","","24.1","","97.75","","","","","","NA"
"-81.15","43.03","LONDON A","6144473","2019-06-21 06:00","2019","06","21","06:00","13.0","","10.1","","82","","34","","10","","24.1","","97.81","","","","","","NA"
"-81.15","43.03","LONDON A","6144473","2019-06-21 07:00","2019","06","21","07:00","15.0","","11.0","","77","","33","","16","","24.1","","97.87","","","","","","Clear"
"-81.15","43.03","LONDON A","6144473","2019-06-21 08:00","2019","06","21","08:00","16.8","","12.2","","74","","34","","14","","24.1","","97.96","","","","","","NA"
"-81.15","43.03","LONDON A","6144473","2019-06-21 09:00","2019","06","21","09:00","17.9","","12.7","","72","","31","","17","","24.1","","98.02","","","","","","NA"
"-81.15","43.03","LONDON A","6144473","2019-06-21 10:00","2019","06","21","10:00","19.0","","12.9","","67","","31","","24","","24.1","","98.07","","","","","","Clear"
"-81.15","43.03","LONDON A","6144473","2019-06-21 11:00","2019","06","21","11:00","19.4","","12.1","","62","","33","","23","","24.1","","98.12","","","","","","NA"
"-81.15","43.03","LONDON A","6144473","2019-06-21 12:00","2019","06","21","12:00","20.0","","11.1","","56","","31","","29","","24.1","","98.12","","","","","","NA"
"-81.15","43.03","LONDON A","6144473","2019-06-21 13:00","2019","06","21","13:00","20.7","","11.4","","55","","33","","23","","24.1","","98.14","","","","","","Mainly Clear"
"-81.15","43.03","LONDON A","6144473","2019-06-21 14:00","2019","06","21","14:00","20.4","","9.8","","50","","32","","25","","24.1","","98.19","","","","","","NA"
"-81.15","43.03","LONDON A","6144473","2019-06-21 15:00","2019","06","21","15:00","19.9","","10.9","","56","","32","","24","","24.1","","98.19","","","","","","NA"
"-81.15","43.03","LONDON A","6144473","2019-06-21 16:00","2019","06","21","16:00","19.6","","9.7","","52","","33","","20","","24.1","","98.23","","","","","","Mainly Clear"
"-81.15","43.03","LONDON A","6144473","2019-06-21 17:00","2019","06","21","17:00","19.1","","9.3","","53","","32","","16","","24.1","","98.25","","","","","","NA"
"-81.15","43.03","LONDON A","6144473","2019-06-21 18:00","2019","06","21","18:00","18.6","","8.8","","52","","31","","19","","24.1","","98.27","","","","","","NA"
"-81.15","43.03","LONDON A","6144473","2019-06-21 19:00","2019","06","21","19:00","17.5","","8.8","","56","","31","","14","","24.1","","98.27","","","","","","Mainly Clear"
"-81.15","43.03","LONDON A","6144473","2019-06-21 20:00","2019","06","21","20:00","15.3","","8.9","","65","","29","","10","","24.1","","98.31","","","","","","NA"
"-81.15","43.03","LONDON A","6144473","2019-06-21 21:00","2019","06","21","21:00","13.6","","9.9","","78","","34","","15","","24.1","","98.32","","","","","","NA"
"-81.15","43.03","LONDON A","6144473","2019-06-21 22:00","2019","06","21","22:00","11.6","","9.8","","88","","25","","12","","24.1","","98.40","","","","","","Mainly Clear"
"-81.15","43.03","LONDON A","6144473","2019-06-21 23:00","2019","06","21","23:00","11.6","","9.6","","88","","31","","10","","24.1","","98.42","","","","","","NA"
"-81.15","43.03","LONDON A","6144473","2019-06-22 00:00","2019","06","22","00:00","10.7","","9.2","","91","","28","","9","","24.1","","98.49","","","","","","NA"
"-81.15","43.03","LONDON A","6144473","2019-06-22 01:00","2019","06","22","01:00","10.2","","9.0","","92","","33","","8","","24.1","","98.46","","","","","","Mainly Clear"
"-81.15","43.03","LONDON A","6144473","2019-06-22 02:00","2019","06","22","02:00","10.5","","8.5","","87","","33","","12","","24.1","","98.45","","","","","","NA"
"-81.15","43.03","LONDON A","6144473","2019-06-22 03:00","2019","06","22","03:00","10.0","","7.8","","86","","35","","10","","24.1","","98.48","","","","","","NA"
"-81.15","43.03","LONDON A","6144473","2019-06-22 04:00","2019","06","22","04:00","10.3","","7.9","","85","","34","","12","","24.1","","98.54","","","","","","Mainly Clear"
"-81.15","43.03","LONDON A","6144473","2019-06-22 05:00","2019","06","22","05:00","9.9","","7.4","","84","","36","","11","","24.1","","98.56","","","","","","NA"
"-81.15","43.03","LONDON A","6144473","2019-06-22 06:00","2019","06","22","06:00","12.3","","8.7","","79","","1","","7","","24.1","","98.59","","","","","","NA"
"-81.15","43.03","LONDON A","6144473","2019-06-22 07:00","2019","06","22","07:00","15.5","","10.0","","69","","2","","8","","24.1","","98.63","","","","","","Mainly Clear"
"-81.15","43.03","LONDON A","6144473","2019-06-22 08:00","2019","06","22","08:00","18.6","","11.0","","61","","3","","9","","24.1","","98.67","","","","","","NA"
"-81.15","43.03","LONDON A","6144473","2019-06-22 09:00","2019","06","22","09:00","20.4","","9.4","","49","","2","","12","","24.1","","98.67","","","","","","NA"
"-81.15","43.03","LONDON A","6144473","2019-06-22 10:00","2019","06","22","10:00","21.9","","10.2","","47","","35","","9","","24.1","","98.73","","","","","","Mainly Clear"
"-81.15","43.03","LONDON A","6144473","2019-06-22 11:00","2019","06","22","11:00","22.4","","9.4","","43","","3","","15","","24.1","","98.73","","","","","","NA"
"-81.15","43.03","LONDON A","6144473","2019-06-22 12:00","2019","06","22","12:00","23.2","","9.5","","41","","1","","13","","24.1","","98.72","","","","","","NA"
"-81.15","43.03","LONDON A","6144473","2019-06-22 13:00","2019","06","22","13:00","23.5","","8.5","","38","","4","","17","","24.1","","98.70","","","","","","Mainly Clear"
"-81.15","43.03","LONDON A","6144473","2019-06-22 14:00","2019","06","22","14:00","24.1","","9.6","","39","","34","","17","","24.1","","98.66","","25","","","","NA"
"-81.15","43.03","LONDON A","6144473","2019-06-22 15:00","2019","06","22","15:00","24.2","","9.2","","38","","36","","16","","24.1","","98.65","","25","","","","NA"
"-81.15","43.03","LONDON A","6144473","2019-06-22 16:00","2019","06","22","16:00","24.3","","9.9","","40","","30","","12","","24.1","","98.62","","26","","","","Mainly Clear"
"-81.15","43.03","LONDON A","6144473","2019-06-22 17:00","2019","06","22","17:00","23.0","","10.9","","46","","28","","17","","24.1","","98.64","","25","","","","NA"
"-81.15","43.03","LONDON A","6144473","2019-06-22 18:00","2019","06","22","18:00","21.7","","10.1","","47","","29","","17","","24.1","","98.63","","","","","","NA"
"-81.15","43.03","LONDON A","6144473","2019-06-22 19:00","2019","06","22","19:00","20.4","","9.0","","47","","29","","12","","24.1","","98.63","","","","","","Mainly Clear"
"-81.15","43.03","LONDON A","6144473","2019-06-22 20:00","2019","06","22","20:00","18.1","","7.6","","50","","31","","11","","24.1","","98.62","","","","","","NA"
"-81.15","43.03","LONDON A","6144473","2019-06-22 21:00","2019","06","22","21:00","16.4","","8.2","","58","","30","","13","","24.1","","98.61","","","","","","NA"
"-81.15","43.03","LONDON A","6144473","2019-06-22 22:00","2019","06","22","22:00","14.9","","10.1","","73","","35","","12","","24.1","","98.59","","","","","","Clear"
"-81.15","43.03","LONDON A","6144473","2019-06-22 23:00","2019","06","22","23:00","14.1","","11.0","","81","","34","","8","","24.1","","98.61","","","","","","NA"
"-81.15","43.03","LONDON A","6144473","2019-06-23 00:00","2019","06","23","00:00","12.8","","11.0","","89","","35","","6","","24.1","","98.67","","","","","","NA"
"-81.15","43.03","LONDON A","6144473","2019-06-23 01:00","2019","06","23","01:00","12.4","","11.0","","91","","35","","7","","24.1","","98.66","","","","","","Mainly Clear"
"-81.15","43.03","LONDON A","6144473","2019-06-23 02:00","2019","06","23","02:00","12.7","","10.8","","88","","36","","8","","24.1","","98.67","","","","","","NA"
"-81.15","43.03","LONDON A","6144473","2019-06-23 03:00","2019","06","23","03:00","11.6","","10.2","","91","","12","","8","","24.1","","98.65","","","","","","NA"
"-81.15","43.03","LONDON A","6144473","2019-06-23 04:00","2019","06","23","04:00","9.8","","8.4","","91","","22","","7","","24.1","","98.71","","","","","","Mainly Clear"
"-81.15","43.03","LONDON A","6144473","2019-06-23 05:00","2019","06","23","05:00","9.4","","9.0","","97","","33","","4","","24.1","","98.75","","","","","","NA"
"-81.15","43.03","LONDON A","6144473","2019-06-23 06:00","2019","06","23","06:00","11.9","","11.4","","97","","6","","3","","24.1","","98.76","","","","","","NA"
"-81.15","43.03","LONDON A","6144473","2019-06-23 07:00","2019","06","23","07:00","15.6","","12.0","","79","","8","","8","","24.1","","98.67","","","","","","Mainly Clear"
"-81.15","43.03","LONDON A","6144473","2019-06-23 08:00","2019","06","23","08:00","18.3","","13.1","","71","","14","","4","","24.1","","98.66","","","","","","NA"
"-81.15","43.03","LONDON A","6144473","2019-06-23 09:00","2019","06","23","09:00","21.0","","13.4","","61","","36","","1","","24.1","","98.61","","","","","","NA"
"-81.15","43.03","LONDON A","6144473","2019-06-23 10:00","2019","06","23","10:00","22.8","","10.4","","45","","3","","4","","24.1","","98.50","","","","","","Mainly Clear"
"-81.15","43.03","LONDON A","6144473","2019-06-23 11:00","2019","06","23","11:00","23.6","","10.0","","42","","35","","6","","24.1","","98.42","","25","","","","NA"
"-81.15","43.03","LONDON A","6144473","2019-06-23 12:00","2019","06","23","12:00","24.1","","10.3","","41","","20","","12","","24.1","","98.41","","26","","","","NA"
"-81.15","43.03","LONDON A","6144473","2019-06-23 13:00","2019","06","23","13:00","25.0","","11.6","","43","","25","","10","","24.1","","98.38","","27","","","","Mainly Clear"
"-81.15","43.03","LONDON A","6144473","2019-06-23 14:00","2019","06","23","14:00","25.2","","12.0","","43","","25","","13","","24.1","","98.28","","27","","","","NA"
"-81.15","43.03","LONDON A","6144473","2019-06-23 15:00","2019","06","23","15:00","25.2","","12.4","","44","","21","","11","","24.1","","98.25","","28","","","","NA"
"-81.15","43.03","LONDON A","6144473","2019-06-23 16:00","2019","06","23","16:00","24.8","","11.6","","43","","19","","16","","24.1","","98.18","","27","","","","Mostly Cloudy"
"-81.15","43.03","LONDON A","6144473","2019-06-23 17:00","2019","06","23","17:00","24.3","","10.7","","42","","16","","12","","24.1","","98.16","","26","","","","NA"
"-81.15","43.03","LONDON A","6144473","2019-06-23 18:00","2019","06","23","18:00","23.3","","10.2","","43","","19","","16","","24.1","","98.14","","25","","","","NA"
"-81.15","43.03","LONDON A","6144473","2019-06-23 19:00","2019","06","23","19:00","22.1","","9.1","","43","","18","","8","","24.1","","98.08","","","","","","Mainly Clear"
"-81.15","43.03","LONDON A","6144473","2019-06-23 20:00","2019","06","23","20:00","20.3","","7.6","","43","","15","","8","","24.1","","98.05","","","","","","NA"
"-81.15","43.03","LONDON A","6144473","2019-06-23 21:00","2019","06","23","21:00","18.0","","8.3","","53","","12","","6","","24.1","","98.00","","","","","","NA"
"-81.15","43.03","LONDON A","6144473","2019-06-23 22:00","2019","06","23","22:00","17.4","","8.1","","54","","12","","8","","24.1","","97.94","","","","","","Mainly Clear"
"-81.15","43.03","LONDON A","6144473","2019-06-23 23:00","2019","06","23","23:00","15.8","","9.3","","65","","10","","8","","24.1","","97.88","","","","","","NA"
"-81.15","43.03","LONDON A","6144473","2019-06-24 00:00","2019","06","24","00:00","16.6","","9.1","","61","","12","","8","","24.1","","97.87","","","","","","NA"
"-81.15","43.03","LONDON A","6144473","2019-06-24 01:00","2019","06","24","01:00","16.0","","9.7","","66","","10","","8","","24.1","","97.85","","","","","","Mainly Clear"
"-81.15","43.03","LONDON A","6144473","2019-06-24 02:00","2019","06","24","02:00","15.7","","10.3","","70","","9","","9","","24.1","","97.79","","","","","","NA"
"-81.15","43.03","LONDON A","6144473","2019-06-24 03:00","2019","06","24","03:00","16.5","","11.0","","70","","8","","11","","24.1","","97.72","","","","","","NA"
"-81.15","43.03","LONDON A","6144473","2019-06-24 04:00","2019","06","24","04:00","17.1","","11.1","","67","","9","","13","","24.1","","97.66","","","","","","Mostly Cloudy"
"-81.15","43.03","LONDON A","6144473","2019-06-24 05:00","2019","06","24","05:00","17.4","","11.6","","68","","9","","14","","24.1","","97.64","","","","","","NA"
"-81.15","43.03","LONDON A","6144473","2019-06-24 06:00","2019","06","24","06:00","17.9","","12.5","","70","","13","","14","","24.1","","97.64","","","","","","NA"
"-81.15","43.03","LONDON A","6144473","2019-06-24 07:00","2019","06","24","07:00","18.7","","13.3","","70","","14","","14","","24.1","","97.59","","","","","","Cloudy"
"-81.15","43.03","LONDON A","6144473","2019-06-24 08:00","2019","06","24","08:00","19.4","","14.0","","71","","12","","16","","24.1","","97.56","","","","","","NA"
"-81.15","43.03","LONDON A","6144473","2019-06-24 09:00","2019","06","24","09:00","21.9","","16.1","","69","","15","","16","","24.1","","97.52","","27","","","","NA"
"-81.15","43.03","LONDON A","6144473","2019-06-24 10:00","2019","06","24","10:00","23.9","","17.9","","69","","16","","18","","24.1","","97.46","","30","","","","Cloudy"
"-81.15","43.03","LONDON A","6144473","2019-06-24 11:00","2019","06","24","11:00","22.9","","18.4","","75","","17","","26","","24.1","","97.48","","29","","","","NA"
"-81.15","43.03","LONDON A","6144473","2019-06-24 12:00","2019","06","24","12:00","24.3","","19.7","","75","","18","","25","","24.1","","97.44","","32","","","","NA"
"-81.15","43.03","LONDON A","6144473","2019-06-24 13:00","2019","06","24","13:00","24.4","","19.8","","75","","18","","25","","24.1","","97.39","","32","","","","Cloudy"
"-81.15","43.03","LONDON A","6144473","2019-06-24 14:00","2019","06","24","14:00","25.9","","20.1","","70","","20","","24","","24.1","","97.36","","34","","","","NA"
"-81.15","43.03","LONDON A","6144473","2019-06-24 15:00","2019","06","24","15:00","26.0","","18.9","","64","","19","","26","","24.1","","97.31","","33","","","","NA"
"-81.15","43.03","LONDON A","6144473","2019-06-24 16:00","2019","06","24","16:00","25.4","","19.3","","68","","19","","25","","24.1","","97.27","","32","","","","Mostly Cloudy"
"-81.15","43.03","LONDON A","6144473","2019-06-24 17:00","2019","06","24","17:00","24.9","","18.6","","68","","19","","21","","24.1","","97.21","","31","","","","NA"
"-81.15","43.03","LONDON A","6144473","2019-06-24 18:00","2019","06","24","18:00","24.4","","18.3","","68","","20","","18","","24.1","","97.16","","31","","","","Rain Showers"
"-81.15","43.03","LONDON A","6144473","2019-06-24 19:00","2019","06","24","19:00","23.7","","18.5","","72","","17","","20","","24.1","","97.17","","30","","","","Rain Showers"
"-81.15","43.03","LONDON A","6144473","2019-06-24 20:00","2019","06","24","20:00","22.9","","18.3","","75","","18","","16","","24.1","","97.18","","29","","","","NA"
"-81.15","43.03","LONDON A","6144473","2019-06-24 21:00","2019","06","24","21:00","20.9","","19.1","","90","","19","","21","","16.1","","97.23","","28","","","","Rain Showers"
"-81.15","43.03","LONDON A","6144473","2019-06-24 22:00","2019","06","24","22:00","20.1","","19.5","","96","","19","","18","","16.1","","97.21","","27","","","","Rain Showers"
"-81.15","43.03","LONDON A","6144473","2019-06-24 23:00","2019","06","24","23:00","19.7","","19.3","","97","","23","","16","","9.7","","97.22","","","","","","Rain Showers,Fog"
"-81.15","43.03","LONDON A","6144473","2019-06-25 00:00","2019","06","25","00:00","19.3","","18.8","","97","","24","","13","","14.5","","97.23","","","","","","NA"
"-81.15","43.03","LONDON A","6144473","2019-06-25 01:00","2019","06","25","01:00","19.2","","18.7","","97","","20","","7","","14.5","","97.24","","","","","","Mostly Cloudy"
"-81.15","43.03","LONDON A","6144473","2019-06-25 02:00","2019","06","25","02:00","18.5","","17.8","","96","","21","","10","","14.5","","97.25","","","","","","NA"
"-81.15","43.03","LONDON A","6144473","2019-06-25 03:00","2019","06","25","03:00","17.9","","17.2","","95","","23","","13","","14.5","","97.27","","","","","","NA"
"-81.15","43.03","LONDON A","6144473","2019-06-25 04:00","2019","06","25","04:00","17.9","","17.3","","96","","23","","18","","14.5","","97.34","","","","","","Clear"
"-81.15","43.03","LONDON A","6144473","2019-06-25 05:00","2019","06","25","05:00","17.6","","17.1","","97","","25","","17","","24.1","","97.40","","","","","","NA"
"-81.15","43.03","LONDON A","6144473","2019-06-25 06:00","2019","06","25","06:00","18.1","","17.1","","93","","26","","16","","24.1","","97.46","","","","","","NA"
"-81.15","43.03","LONDON A","6144473","2019-06-25 07:00","2019","06","25","07:00","19.1","","17.2","","89","","25","","17","","24.1","","97.55","","","","","","Mostly Cloudy"
"-81.15","43.03","LONDON A","6144473","2019-06-25 08:00","2019","06","25","08:00","19.8","","16.7","","82","","24","","24","","24.1","","97.60","","","","","","NA"
"-81.15","43.03","LONDON A","6144473","2019-06-25 09:00","2019","06","25","09:00","20.8","","15.9","","73","","26","","27","","24.1","","97.64","","25","","","","NA"
"-81.15","43.03","LONDON A","6144473","2019-06-25 10:00","2019","06","25","10:00","19.8","","15.6","","76","","28","","21","","24.1","","97.72","","","","","","Mostly Cloudy"
"-81.15","43.03","LONDON A","6144473","2019-06-25 11:00","2019","06","25","11:00","20.7","","15.4","","71","","28","","16","","24.1","","97.81","","25","","","","NA"
"-81.15","43.03","LONDON A","6144473","2019-06-25 12:00","2019","06","25","12:00","21.5","","15.6","","69","","28","","20","","24.1","","97.87","","26","","","","NA"
"-81.15","43.03","LONDON A","6144473","2019-06-25 13:00","2019","06","25","13:00","22.3","","15.9","","66","","28","","13","","24.1","","97.92","","27","","","","Mostly Cloudy"
"-81.15","43.03","LONDON A","6144473","2019-06-25 14:00","2019","06","25","14:00","22.8","","15.6","","63","","27","","19","","24.1","","97.94","","27","","","","NA"
"-81.15","43.03","LONDON A","6144473","2019-06-25 15:00","2019","06","25","15:00","24.7","","15.3","","55","","28","","24","","24.1","","97.93","","29","","","","NA"
"-81.15","43.03","LONDON A","6144473","2019-06-25 16:00","2019","06","25","16:00","25.1","","14.6","","52","","25","","16","","24.1","","97.94","","29","","","","Mainly Clear"
"-81.15","43.03","LONDON A","6144473","2019-06-25 17:00","2019","06","25","17:00","25.8","","13.6","","46","","28","","17","","24.1","","97.89","","29","","","","NA"
"-81.15","43.03","LONDON A","6144473","2019-06-25 18:00","2019","06","25","18:00","25.7","","12.4","","43","","27","","18","","24.1","","97.91","","28","","","","NA"
"-81.15","43.03","LONDON A","6144473","2019-06-25 19:00","2019","06","25","19:00","24.8","","12.6","","46","","25","","14","","24.1","","97.93","","27","","","","Clear"
"-81.15","43.03","LONDON A","6144473","2019-06-25 20:00","2019","06","25","20:00","22.0","","12.5","","54","","23","","7","","24.1","","97.94","","25","","","","NA"
"-81.15","43.03","LONDON A","6144473","2019-06-25 21:00","2019","06","25","21:00","19.9","","13.0","","64","","18","","10","","24.1","","97.99","","","","","","NA"
"-81.15","43.03","LONDON A","6144473","2019-06-25 22:00","2019","06","25","22:00","19.7","","14.0","","70","","19","","8","","24.1","","98.05","","","","","","Clear"
"-81.15","43.03","LONDON A","6144473","2019-06-25 23:00","2019","06","25","23:00","19.1","","14.5","","74","","20","","11","","24.1","","98.05","","","","","","NA"
"-81.15","43.03","LONDON A","6144473","2019-06-26 00:00","2019","06","26","00:00","19.7","","15.2","","75","","20","","10","","19.3","","98.02","","","","","","NA"
"-81.15","43.03","LONDON A","6144473","2019-06-26 01:00","2019","06","26","01:00","20.3","","15.7","","74","","22","","12","","19.3","","98.04","","25","","","","Cloudy"
"-81.15","43.03","LONDON A","6144473","2019-06-26 02:00","2019","06","26","02:00","20.9","","16.1","","73","","23","","17","","14.5","","98.04","","26","","","","NA"
"-81.15","43.03","LONDON A","6144473","2019-06-26 03:00","2019","06","26","03:00","20.0","","16.7","","81","","24","","17","","19.3","","98.05","","25","","","","NA"
"-81.15","43.03","LONDON A","6144473","2019-06-26 04:00","2019","06","26","04:00","19.1","","16.4","","84","","22","","13","","19.3","","98.07","","","","","","Mainly Clear"
"-81.15","43.03","LONDON A","6144473","2019-06-26 05:00","2019","06","26","05:00","18.0","","16.3","","90","","23","","8","","24.1","","98.15","","","","","","NA"
"-81.15","43.03","LONDON A","6144473","2019-06-26 06:00","2019","06","26","06:00","20.1","","16.8","","82","","24","","13","","24.1","","98.18","","25","","","","NA"
"-81.15","43.03","LONDON A","6144473","2019-06-26 07:00","2019","06","26","07:00","21.4","","17.2","","76","","25","","15","","24.1","","98.22","","27","","","","Mainly Clear"
"-81.15","43.03","LONDON A","6144473","2019-06-26 08:00","2019","06","26","08:00","23.2","","17.9","","72","","24","","19","","24.1","","98.25","","29","","","","NA"
"-81.15","43.03","LONDON A","6144473","2019-06-26 09:00","2019","06","26","09:00","24.4","","18.4","","69","","24","","18","","24.1","","98.28","","31","","","","NA"
"-81.15","43.03","LONDON A","6144473","2019-06-26 10:00","2019","06","26","10:00","25.8","","17.1","","58","","24","","23","","24.1","","98.31","","31","","","","Mainly Clear"
"-81.15","43.03","LONDON A","6144473","2019-06-26 11:00","2019","06","26","11:00","26.5","","15.5","","50","","26","","17","","24.1","","98.33","","31","","","","NA"
"-81.15","43.03","LONDON A","6144473","2019-06-26 12:00","2019","06","26","12:00","26.1","","15.5","","51","","26","","21","","24.1","","98.37","","30","","","","NA"
"-81.15","43.03","LONDON A","6144473","2019-06-26 13:00","2019","06","26","13:00","27.4","","12.9","","40","","27","","19","","24.1","","98.37","","30","","","","Mainly Clear"
"-81.15","43.03","LONDON A","6144473","2019-06-26 14:00","2019","06","26","14:00","27.9","","13.9","","41","","28","","23","","24.1","","98.38","","31","","","","NA"
"-81.15","43.03","LONDON A","6144473","2019-06-26 15:00","2019","06","26","15:00","27.6","","15.7","","47","","30","","18","","24.1","","98.42","","32","","","","NA"
"-81.15","43.03","LONDON A","6144473","2019-06-26 16:00","2019","06","26","16:00","27.6","","13.8","","42","","31","","19","","24.1","","98.41","","31","","","","Mainly Clear"
"-81.15","43.03","LONDON A","6144473","2019-06-26 17:00","2019","06","26","17:00","27.4","","13.4","","41","","31","","16","","24.1","","98.43","","30","","","","NA"
"-81.15","43.03","LONDON A","6144473","2019-06-26 18:00","2019","06","26","18:00","26.9","","13.8","","44","","31","","12","","24.1","","98.44","","30","","","","NA"
"-81.15","43.03","LONDON A","6144473","2019-06-26 19:00","2019","06","26","19:00","25.5","","13.8","","48","","31","","9","","24.1","","98.50","","29","","","","Mostly Cloudy"
"-81.15","43.03","LONDON A","6144473","2019-06-26 20:00","2019","06","26","20:00","21.0","","15.2","","69","","32","","6","","24.1","","98.52","","25","","","","NA"
"-81.15","43.03","LONDON A","6144473","2019-06-26 21:00","2019","06","26","21:00","18.8","","14.9","","78","","31","","3","","24.1","","98.55","","","","","","NA"
"-81.15","43.03","LONDON A","6144473","2019-06-26 22:00","2019","06","26","22:00","17.9","","14.6","","81","","25","","3","","24.1","","98.62","","","","","","Mostly Cloudy"
"-81.15","43.03","LONDON A","6144473","2019-06-26 23:00","2019","06","26","23:00","17.7","","16.1","","90","","33","","7","","24.1","","98.65","","","","","","NA"
"-81.15","43.03","LONDON A","6144473","2019-06-27 00:00","2019","06","27","00:00","17.4","","15.2","","87","","12","","3","","24.1","","98.70","","","","","","NA"
"-81.15","43.03","LONDON A","6144473","2019-06-27 01:00","2019","06","27","01:00","16.4","","14.6","","89","","","","0","","24.1","","98.74","","","","","","Mostly Cloudy"
"-81.15","43.03","LONDON A","6144473","2019-06-27 02:00","2019","06","27","02:00","15.3","","14.5","","95","","36","","1","","24.1","","98.73","","","","","","NA"
"-81.15","43.03","LONDON A","6144473","2019-06-27 03:00","2019","06","27","03:00","14.8","","14.0","","95","","4","","3","","24.1","","98.75","","","","","","NA"
"-81.15","43.03","LONDON A","6144473","2019-06-27 04:00","2019","06","27","04:00","15.3","","14.9","","97","","36","","3","","24.1","","98.78","","","","","","Mostly Cloudy"
"-81.15","43.03","LONDON A","6144473","2019-06-27 05:00","2019","06","27","05:00","15.2","","14.9","","98","","36","","1","","24.1","","98.86","","","","","","NA"
"-81.15","43.03","LONDON A","6144473","2019-06-27 06:00","2019","06","27","06:00","15.7","","15.5","","98","","36","","1","","24.1","","98.89","","","","","","NA"
"-81.15","43.03","LONDON A","6144473","2019-06-27 07:00","2019","06","27","07:00","18.3","","16.8","","91","","36","","2","","24.1","","98.95","","","","","","Mostly Cloudy"
"-81.15","43.03","LONDON A","6144473","2019-06-27 08:00","2019","06","27","08:00","19.8","","16.1","","79","","35","","4","","24.1","","98.95","","","","","","NA"
"-81.15","43.03","LONDON A","6144473","2019-06-27 09:00","2019","06","27","09:00","21.6","","17.4","","77","","3","","5","","24.1","","98.89","","27","","","","NA"
"-81.15","43.03","LONDON A","6144473","2019-06-27 10:00","2019","06","27","10:00","23.5","","17.2","","67","","36","","2","","24.1","","98.93","","29","","","","Mostly Cloudy"
"-81.15","43.03","LONDON A","6144473","2019-06-27 11:00","2019","06","27","11:00","26.3","","14.8","","49","","7","","7","","24.1","","98.98","","30","","","","NA"
"-81.15","43.03","LONDON A","6144473","2019-06-27 12:00","2019","06","27","12:00","26.6","","13.6","","44","","26","","4","","24.1","","98.95","","30","","","","NA"
"-81.15","43.03","LONDON A","6144473","2019-06-27 13:00","2019","06","27","13:00","27.3","","14.0","","44","","18","","5","","24.1","","98.92","","31","","","","Mostly Cloudy"
"-81.15","43.03","LONDON A","6144473","2019-06-27 14:00","2019","06","27","14:00","28.0","","14.7","","43","","36","","3","","24.1","","98.86","","32","","","","NA"
"-81.15","43.03","LONDON A","6144473","2019-06-27 15:00","2019","06","27","15:00","28.4","","13.0","","38","","7","","7","","24.1","","98.88","","31","","","","NA"
"-81.15","43.03","LONDON A","6144473","2019-06-27 16:00","2019","06","27","16:00","28.9","","13.3","","38","","32","","8","","24.1","","98.81","","32","","","","Mainly Clear"
"-81.15","43.03","LONDON A","6144473","2019-06-27 17:00","2019","06","27","17:00","28.9","","14.6","","41","","36","","1","","24.1","","98.75","","33","","","","NA"
"-81.15","43.03","LONDON A","6144473","2019-06-27 18:00","2019","06","27","18:00","28.4","","14.3","","41","","29","","7","","24.1","","98.75","","32","","","","NA"
"-81.15","43.03","LONDON A","6144473","2019-06-27 19:00","2019","06","27","19:00","26.8","","18.0","","58","","33","","4","","24.1","","98.80","","33","","","","Mostly Cloudy"
"-81.15","43.03","LONDON A","6144473","2019-06-27 20:00","2019","06","27","20:00","22.1","","15.3","","65","","34","","6","","24.1","","98.87","","26","","","","NA"
"-81.15","43.03","LONDON A","6144473","2019-06-27 21:00","2019","06","27","21:00","20.6","","14.4","","67","","30","","4","","24.1","","98.93","","","","","","NA"
"-81.15","43.03","LONDON A","6144473","2019-06-27 22:00","2019","06","27","22:00","20.3","","14.7","","70","","12","","8","","24.1","","98.92","","","","","","Mostly Cloudy"
"-81.15","43.03","LONDON A","6144473","2019-06-27 23:00","2019","06","27","23:00","19.7","","14.8","","73","","16","","3","","24.1","","98.95","","","","","","NA"
"-81.15","43.03","LONDON A","6144473","2019-06-28 00:00","2019","06","28","00:00","16.9","","14.5","","86","","36","","1","","24.1","","98.94","","","","","","NA"
"-81.15","43.03","LONDON A","6144473","2019-06-28 01:00","2019","06","28","01:00","17.6","","15.4","","87","","16","","4","","24.1","","98.91","","","","","","Mainly Clear"
"-81.15","43.03","LONDON A","6144473","2019-06-28 02:00","2019","06","28","02:00","15.8","","14.6","","92","","9","","6","","24.1","","98.85","","","","","","NA"
"-81.15","43.03","LONDON A","6144473","2019-06-28 03:00","2019","06","28","03:00","15.7","","14.9","","95","","9","","3","","24.1","","98.81","","","","","","NA"
"-81.15","43.03","LONDON A","6144473","2019-06-28 04:00","2019","06","28","04:00","15.2","","14.7","","97","","8","","7","","24.1","","98.80","","","","","","Mainly Clear"
"-81.15","43.03","LONDON A","6144473","2019-06-28 05:00","2019","06","28","05:00","15.3","","14.9","","97","","2","","4","","12.9","","98.86","","","","","","NA"
"-81.15","43.03","LONDON A","6144473","2019-06-28 06:00","2019","06","28","06:00","16.9","","15.8","","93","","10","","5","","16.1","","98.89","","","","","","NA"
"-81.15","43.03","LONDON A","6144473","2019-06-28 07:00","2019","06","28","07:00","18.9","","16.4","","86","","0","","1","","24.1","","98.94","","","","","","Mostly Cloudy"
"-81.15","43.03","LONDON A","6144473","2019-06-28 08:00","2019","06","28","08:00","21.3","","17.6","","80","","12","","5","","24.1","","98.98","","27","","","","NA"
"-81.15","43.03","LONDON A","6144473","2019-06-28 09:00","2019","06","28","09:00","24.9","","16.9","","61","","22","","7","","24.1","","98.93","","30","","","","NA"
"-81.15","43.03","LONDON A","6144473","2019-06-28 10:00","2019","06","28","10:00","27.6","","15.3","","47","","22","","7","","24.1","","98.92","","32","","","","Mainly Clear"
"-81.15","43.03","LONDON A","6144473","2019-06-28 11:00","2019","06","28","11:00","29.9","","15.7","","41","","25","","19","","24.1","","98.91","","34","","","","NA"
"-81.15","43.03","LONDON A","6144473","2019-06-28 12:00","2019","06","28","12:00","28.4","","17.2","","50","","26","","26","","24.1","","98.89","","34","","","","NA"
"-81.15","43.03","LONDON A","6144473","2019-06-28 13:00","2019","06","28","13:00","22.6","","20.4","","87","","5","","16","","24.1","","98.85","","31","","","","Cloudy"
"-81.15","43.03","LONDON A","6144473","2019-06-28 14:00","2019","06","28","14:00","25.0","","20.2","","74","","5","","7","","24.1","","98.82","","33","","","","NA"
"-81.15","43.03","LONDON A","6144473","2019-06-28 15:00","2019","06","28","15:00","27.3","","20.3","","65","","11","","5","","24.1","","98.77","","35","","","","NA"
"-81.15","43.03","LONDON A","6144473","2019-06-28 16:00","2019","06","28","16:00","27.4","","19.1","","60","","18","","11","","24.1","","98.69","","34","","","","Mostly Cloudy"
"-81.15","43.03","LONDON A","6144473","2019-06-28 17:00","2019","06","28","17:00","27.3","","19.6","","62","","18","","13","","24.1","","98.66","","35","","","","NA"
"-81.15","43.03","LONDON A","6144473","2019-06-28 18:00","2019","06","28","18:00","27.2","","19.1","","60","","19","","22","","24.1","","98.65","","34","","","","NA"
"-81.15","43.03","LONDON A","6144473","2019-06-28 19:00","2019","06","28","19:00","25.4","","18.9","","67","","20","","15","","24.1","","98.54","","32","","","","Rain Showers"
"-81.15","43.03","LONDON A","6144473","2019-06-28 20:00","2019","06","28","20:00","23.8","","19.0","","75","","20","","9","","19.3","","98.57","","31","","","","NA"
"-81.15","43.03","LONDON A","6144473","2019-06-28 21:00","2019","06","28","21:00","22.5","","20.0","","86","","26","","9","","19.3","","98.65","","30","","","","Thunderstorms,Rain Showers"
"-81.15","43.03","LONDON A","6144473","2019-06-28 22:00","2019","06","28","22:00","21.5","","20.2","","92","","21","","18","","19.3","","98.69","","29","","","","Thunderstorms,Rain Showers"
"-81.15","43.03","LONDON A","6144473","2019-06-28 23:00","2019","06","28","23:00","20.4","","19.0","","92","","21","","9","","19.3","","98.65","","27","","","","NA"
"-81.15","43.03","LONDON A","6144473","2019-06-29 00:00","2019","06","29","00:00","20.1","","19.6","","97","","6","","5","","16.1","","98.63","","27","","","","Thunderstorms,Rain Showers"
"-81.15","43.03","LONDON A","6144473","2019-06-29 01:00","2019","06","29","01:00","19.9","","19.5","","97","","8","","3","","12.9","","98.58","","","","","","Mostly Cloudy"
"-81.15","43.03","LONDON A","6144473","2019-06-29 02:00","2019","06","29","02:00","18.9","","18.7","","99","","36","","2","","11.3","","98.55","","","","","","NA"
"-81.15","43.03","LONDON A","6144473","2019-06-29 03:00","2019","06","29","03:00","18.4","","18.2","","99","","36","","2","","1.6","","98.53","","","","","","Fog"
"-81.15","43.03","LONDON A","6144473","2019-06-29 04:00","2019","06","29","04:00","19.1","","19.0","","99","","16","","5","","0.8","","98.49","","","","","","Fog"
"-81.15","43.03","LONDON A","6144473","2019-06-29 05:00","2019","06","29","05:00","19.1","","19.0","","99","","25","","3","","6.4","","98.51","","","","","","Rain Showers,Fog"
"-81.15","43.03","LONDON A","6144473","2019-06-29 06:00","2019","06","29","06:00","19.5","","19.4","","100","","36","","2","","9.7","","98.52","","","","","","Fog"
"-81.15","43.03","LONDON A","6144473","2019-06-29 07:00","2019","06","29","07:00","21.0","","20.9","","99","","21","","6","","16.1","","98.56","","29","","","","Mostly Cloudy"
"-81.15","43.03","LONDON A","6144473","2019-06-29 08:00","2019","06","29","08:00","23.2","","20.8","","86","","24","","8","","24.1","","98.55","","31","","","","NA"
"-81.15","43.03","LONDON A","6144473","2019-06-29 09:00","2019","06","29","09:00","24.8","","20.9","","79","","35","","10","","24.1","","98.54","","33","","","","NA"
"-81.15","43.03","LONDON A","6144473","2019-06-29 10:00","2019","06","29","10:00","25.7","","20.8","","74","","34","","11","","24.1","","98.51","","34","","","","Mostly Cloudy"
"-81.15","43.03","LONDON A","6144473","2019-06-29 11:00","2019","06","29","11:00","26.0","","20.0","","69","","34","","14","","24.1","","98.50","","34","","","","NA"
"-81.15","43.03","LONDON A","6144473","2019-06-29 12:00","2019","06","29","12:00","26.6","","19.6","","65","","30","","14","","24.1","","98.48","","34","","","","NA"
"-81.15","43.03","LONDON A","6144473","2019-06-29 13:00","2019","06","29","13:00","28.1","","19.9","","60","","30","","14","","24.1","","98.41","","36","","","","Mostly Cloudy"
"-81.15","43.03","LONDON A","6144473","2019-06-29 14:00","2019","06","29","14:00","27.1","","18.8","","60","","31","","21","","24.1","","98.40","","34","","","","NA"
"-81.15","43.03","LONDON A","6144473","2019-06-29 15:00","2019","06","29","15:00","27.1","","19.5","","63","","30","","19","","24.1","","98.37","","34","","","","NA"
"-81.15","43.03","LONDON A","6144473","2019-06-29 16:00","2019","06","29","16:00","26.9","","18.7","","61","","32","","22","","24.1","","98.30","","33","","","","Mainly Clear"
"-81.15","43.03","LONDON A","6144473","2019-06-29 17:00","2019","06","29","17:00","25.5","","18.4","","64","","33","","20","","24.1","","98.32","","32","","","","NA"
"-81.15","43.03","LONDON A","6144473","2019-06-29 18:00","2019","06","29","18:00","24.9","","17.3","","62","","31","","18","","24.1","","98.32","","30","","","","NA"
"-81.15","43.03","LONDON A","6144473","2019-06-29 19:00","2019","06","29","19:00","24.0","","15.9","","60","","32","","16","","24.1","","98.30","","29","","","","Clear"
"-81.15","43.03","LONDON A","6144473","2019-06-29 20:00","2019","06","29","20:00","22.1","","15.5","","66","","30","","9","","24.1","","98.28","","26","","","","NA"
"-81.15","43.03","LONDON A","6144473","2019-06-29 21:00","2019","06","29","21:00","20.3","","15.5","","74","","28","","6","","24.1","","98.31","","25","","","","NA"
"-81.15","43.03","LONDON A","6144473","2019-06-29 22:00","2019","06","29","22:00","19.3","","15.7","","80","","27","","6","","24.1","","98.27","","","","","","Clear"
"-81.15","43.03","LONDON A","6144473","2019-06-29 23:00","2019","06","29","23:00","17.9","","15.8","","87","","26","","5","","24.1","","98.28","","","","","","NA"
"-81.15","43.03","LONDON A","6144473","2019-06-30 00:00","2019","06","30","00:00","17.0","","15.1","","89","","26","","3","","24.1","","98.26","","","","","","NA"
"-81.15","43.03","LONDON A","6144473","2019-06-30 01:00","2019","06","30","01:00","16.6","","15.5","","93","","35","","13","","24.1","","98.26","","","","","","Clear"
"-81.15","43.03","LONDON A","6144473","2019-06-30 02:00","2019","06","30","02:00","18.3","","14.4","","78","","32","","6","","24.1","","98.21","","","","","","NA"
"-81.15","43.03","LONDON A","6144473","2019-06-30 03:00","2019","06","30","03:00","18.1","","14.1","","77","","32","","9","","24.1","","98.23","","","","","","NA"
"-81.15","43.03","LONDON A","6144473","2019-06-30 04:00","2019","06","30","04:00","17.4","","12.5","","73","","31","","12","","24.1","","98.21","","","","","","Clear"
"-81.15","43.03","LONDON A","6144473","2019-06-30 05:00","2019","06","30","05:00","16.1","","13.0","","82","","31","","10","","24.1","","98.25","","","","","","NA"
"-81.15","43.03","LONDON A","6144473","2019-06-30 06:00","2019","06","30","06:00","16.2","","13.5","","84","","31","","9","","24.1","","98.28","","","","","","NA"
"-81.15","43.03","LONDON A","6144473","2019-06-30 07:00","2019","06","30","07:00","18.0","","13.6","","75","","34","","15","","24.1","","98.33","","","","","","Clear"
"-81.15","43.03","LONDON A","6144473","2019-06-30 08:00","2019","06","30","08:00","20.0","","13.1","","64","","35","","17","","24.1","","98.29","","","","","","NA"
"-81.15","43.03","LONDON A","6144473","2019-06-30 09:00","2019","06","30","09:00","21.1","","12.6","","58","","35","","20","","24.1","","98.38","","","","","","NA"
"-81.15","43.03","LONDON A","6144473","2019-06-30 10:00","2019","06","30","10:00","22.4","","13.0","","55","","31","","17","","24.1","","98.35","","25","","","","Mainly Clear"
"-81.15","43.03","LONDON A","6144473","2019-06-30 11:00","2019","06","30","11:00","23.4","","13.2","","52","","34","","30","","24.1","","98.39","","26","","","","NA"
"-81.15","43.03","LONDON A","6144473","2019-06-30 12:00","2019","06","30","12:00","23.6","","13.5","","53","","36","","26","","24.1","","98.40","","27","","","","NA"
"-81.15","43.03","LONDON A","6144473","2019-06-30 13:00","2019","06","30","13:00","23.8","","12.6","","49","","31","","18","","24.1","","98.37","","26","","","","Mainly Clear"
"-81.15","43.03","LONDON A","6144473","2019-06-30 14:00","2019","06","30","14:00","23.7","","12.9","","50","","31","","16","","24.1","","98.32","","26","","","","NA"
"-81.15","43.03","LONDON A","6144473","2019-06-30 15:00","2019","06","30","15:00","24.2","","12.9","","49","","31","","21","","24.1","","98.31","","27","","","","NA"
"-81.15","43.03","LONDON A","6144473","2019-06-30 16:00","2019","06","30","16:00","23.7","","13.8","","53","","29","","17","","24.1","","98.26","","27","","","","Mainly Clear"
"-81.15","43.03","LONDON A","6144473","2019-06-30 17:00","2019","06","30","17:00","22.9","","13.0","","53","","32","","18","","24.1","","98.27","","26","","","","NA"
"-81.15","43.03","LONDON A","6144473","2019-06-30 18:00","2019","06","30","18:00","21.8","","12.8","","56","","29","","15","","24.1","","98.24","","","","","","NA"
"-81.15","43.03","LONDON A","6144473","2019-06-30 19:00","2019","06","30","19:00","20.7","","12.6","","59","","30","","15","","24.1","","98.25","","","","","","Mainly Clear"
"-81.15","43.03","LONDON A","6144473","2019-06-30 20:00","2019","06","30","20:00","18.7","","12.4","","66","","31","","8","","24.1","","98.20","","","","","","NA"
"-81.15","43.03","LONDON A","6144473","2019-06-30 21:00","2019","06","30","21:00","17.0","","12.3","","74","","30","","10","","24.1","","98.32","","","","","","NA"
"-81.15","43.03","LONDON A","6144473","2019-06-30 22:00","2019","06","30","22:00","16.4","","12.4","","77","","32","","11","","24.1","","98.39","","","","","","Mainly Clear"
"-81.15","43.03","LONDON A","6144473","2019-06-30 23:00","2019","06","30","23:00","14.3","","12.0","","86","","34","","7","","24.1","","98.41","","","","","","NA"
