"Longitude (x)","Latitude (y)","Station Name","Climate ID","Date/Time","Year","Month","Day","Time","Temp (°C)","Temp Flag","Dew Point Temp (°C)","Dew Point Temp Flag","Rel Hum (%)","Rel Hum Flag","Wind Dir (10s deg)","Wind Dir Flag","Wind Spd (km/h)","Wind Spd Flag","Visibility (km)","Visibility Flag","Stn Press (kPa)","Stn Press Flag","Hmdx","Hmdx Flag","Wind Chill","Wind Chill Flag","Weather"
"-81.15","43.03","LONDON A","6144473","2019-04-01 00:00","2019","04","01","00:00","-5.2","","-7.8","","82","","27","","10","","9.7","","98.98","","","","-10","","Snow Showers"
"-81.15","43.03","LONDON A","6144473","2019-04-01 01:00","2019","04","01","01:00","-5.8","","-8.0","","84","","25","","9","","24.1","","99.01","","","","-10","","Mostly Cloudy"
"-81.15","43.03","LONDON A","6144473","2019-04-01 02:00","2019","04","01","02:00","-5.6","","-8.8","","79","","27","","10","","24.1","","99.02","","","","-10","","NA"
"-81.15","43.03","LONDON A","6144473","2019-04-01 03:00","2019","04","01","03:00","-5.5","","-9.8","","72","","27","","9","","24.1","","99.04","","","","-10","","NA"
"-81.15","43.03","LONDON A","6144473","2019-04-01 04:00","2019","04","01","04:00","-5.4","","-9.4","","74","","26","","7","","24.1","","99.08","","","","-9","","Mostly Cloudy"
"-81.15","43.03","LONDON A","6144473","2019-04-01 05:00","2019","04","01","05:00","-5.1","","-9.2","","73","","28","","8","","24.1","","99.13","","","","-9","","NA"
"-81.15","43.03","LONDON A","6144473","2019-04-01 06:00","2019","04","01","06:00","-6.5","","-10.1","","75","","27","","8","","24.1","","99.18","","","","-10","","NA"
"-81.15","43.03","LONDON A","6144473","2019-04-01 07:00","2019","04","01","07:00","-6.2","","-9.7","","77","","24","","5","","24.1","","99.24","","","","-9","","Mainly Clear"
"-81.15","43.03","LONDON A","6144473","2019-04-01 08:00","2019","04","01","08:00","-4.1","","-8.7","","71","","27","","4","","24.1","","99.30","","","","-6","","NA"
"-81.15","43.03","LONDON A","6144473","2019-04-01 09:00","2019","04","01","09:00","-2.8","","-8.7","","64","","30","","9","","24.1","","99.34","","","","-6","","NA"
"-81.15","43.03","LONDON A","6144473","2019-04-01 10:00","2019","04","01","10:00","-2.4","","-9.0","","61","","27","","14","","24.1","","99.38","","","","-7","","Mostly Cloudy"
"-81.15","43.03","LONDON A","6144473","2019-04-01 11:00","2019","04","01","11:00","-1.7","","-9.0","","58","","28","","17","","24.1","","99.40","","","","-7","","NA"
"-81.15","43.03","LONDON A","6144473","2019-04-01 12:00","2019","04","01","12:00","-0.8","","-8.3","","57","","24","","9","","24.1","","99.35","","","","-4","","NA"
"-81.15","43.03","LONDON A","6144473","2019-04-01 13:00","2019","04","01","13:00","-0.2","","-7.0","","60","","24","","14","","24.1","","99.30","","","","-4","","Mostly Cloudy"
"-81.15","43.03","LONDON A","6144473","2019-04-01 14:00","2019","04","01","14:00","0.4","","-6.0","","62","","23","","17","","24.1","","99.23","","","","","","NA"
"-81.15","43.03","LONDON A","6144473","2019-04-01 15:00","2019","04","01","15:00","1.2","","-5.8","","59","","22","","16","","24.1","","99.17","","","","","","NA"
"-81.15","43.03","LONDON A","6144473","2019-04-01 16:00","2019","04","01","16:00","1.3","","-5.6","","60","","22","","27","","24.1","","99.14","","","","","","Mostly Cloudy"
"-81.15","43.03","LONDON A","6144473","2019-04-01 17:00","2019","04","01","17:00","0.7","","-4.5","","68","","20","","27","","24.1","","99.11","","","","","","NA"
"-81.15","43.03","LONDON A","6144473","2019-04-01 18:00","2019","04","01","18:00","0.5","","-4.1","","71","","21","","19","","24.1","","99.08","","","","","","NA"
"-81.15","43.03","LONDON A","6144473","2019-04-01 19:00","2019","04","01","19:00","-0.4","","-5.8","","67","","19","","19","","24.1","","99.07","","","","-6","","Mostly Cloudy"
"-81.15","43.03","LONDON A","6144473","2019-04-01 20:00","2019","04","01","20:00","-0.9","","-7.3","","62","","18","","16","","24.1","","99.07","","","","-6","","NA"
"-81.15","43.03","LONDON A","6144473","2019-04-01 21:00","2019","04","01","21:00","-1.6","","-6.7","","68","","17","","12","","24.1","","99.07","","","","-6","","NA"
"-81.15","43.03","LONDON A","6144473","2019-04-01 22:00","2019","04","01","22:00","-1.1","","-5.6","","72","","17","","12","","24.1","","99.04","","","","-5","","Mainly Clear"
"-81.15","43.03","LONDON A","6144473","2019-04-01 23:00","2019","04","01","23:00","-1.0","","-5.3","","73","","17","","9","","24.1","","99.00","","","","-4","","NA"
"-81.15","43.03","LONDON A","6144473","2019-04-02 00:00","2019","04","02","00:00","-0.4","","-4.7","","73","","17","","13","","24.1","","98.96","","","","-5","","NA"
"-81.15","43.03","LONDON A","6144473","2019-04-02 01:00","2019","04","02","01:00","-0.4","","-4.2","","76","","17","","14","","24.1","","98.93","","","","-5","","Cloudy"
"-81.15","43.03","LONDON A","6144473","2019-04-02 02:00","2019","04","02","02:00","-0.6","","-3.8","","79","","17","","13","","24.1","","98.88","","","","-5","","NA"
"-81.15","43.03","LONDON A","6144473","2019-04-02 03:00","2019","04","02","03:00","-0.6","","-3.8","","79","","17","","15","","24.1","","98.80","","","","-5","","NA"
"-81.15","43.03","LONDON A","6144473","2019-04-02 04:00","2019","04","02","04:00","-0.9","","-4.0","","80","","17","","12","","24.1","","98.78","","","","-5","","Mostly Cloudy"
"-81.15","43.03","LONDON A","6144473","2019-04-02 05:00","2019","04","02","05:00","-0.6","","-3.8","","79","","17","","14","","24.1","","98.74","","","","-5","","NA"
"-81.15","43.03","LONDON A","6144473","2019-04-02 06:00","2019","04","02","06:00","-0.6","","-3.6","","80","","17","","15","","24.1","","98.74","","","","-5","","NA"
"-81.15","43.03","LONDON A","6144473","2019-04-02 07:00","2019","04","02","07:00","0.4","","-4.0","","73","","19","","19","","24.1","","98.73","","","","","","Cloudy"
"-81.15","43.03","LONDON A","6144473","2019-04-02 08:00","2019","04","02","08:00","1.5","","-4.6","","64","","19","","16","","24.1","","98.70","","","","","","NA"
"-81.15","43.03","LONDON A","6144473","2019-04-02 09:00","2019","04","02","09:00","3.0","","-4.4","","58","","19","","19","","24.1","","98.62","","","","","","NA"
"-81.15","43.03","LONDON A","6144473","2019-04-02 10:00","2019","04","02","10:00","3.7","","-4.6","","55","","20","","28","","24.1","","98.58","","","","","","Cloudy"
"-81.15","43.03","LONDON A","6144473","2019-04-02 11:00","2019","04","02","11:00","5.2","","-3.4","","54","","20","","25","","24.1","","98.51","","","","","","NA"
"-81.15","43.03","LONDON A","6144473","2019-04-02 12:00","2019","04","02","12:00","5.8","","-3.0","","53","","18","","30","","24.1","","98.45","","","","","","NA"
"-81.15","43.03","LONDON A","6144473","2019-04-02 13:00","2019","04","02","13:00","6.5","","-2.5","","53","","18","","26","","24.1","","98.41","","","","","","Cloudy"
"-81.15","43.03","LONDON A","6144473","2019-04-02 14:00","2019","04","02","14:00","5.9","","-4.4","","48","","19","","33","","24.1","","98.37","","","","","","NA"
"-81.15","43.03","LONDON A","6144473","2019-04-02 15:00","2019","04","02","15:00","6.5","","-4.2","","46","","18","","33","","24.1","","98.32","","","","","","NA"
"-81.15","43.03","LONDON A","6144473","2019-04-02 16:00","2019","04","02","16:00","7.2","","-4.5","","43","","19","","29","","24.1","","98.24","","","","","","Cloudy"
"-81.15","43.03","LONDON A","6144473","2019-04-02 17:00","2019","04","02","17:00","7.0","","-5.2","","42","","20","","32","","24.1","","98.24","","","","","","NA"
"-81.15","43.03","LONDON A","6144473","2019-04-02 18:00","2019","04","02","18:00","5.8","","-4.9","","46","","18","","24","","24.1","","98.21","","","","","","NA"
"-81.15","43.03","LONDON A","6144473","2019-04-02 19:00","2019","04","02","19:00","5.0","","-4.3","","51","","17","","21","","24.1","","98.17","","","","","","Cloudy"
"-81.15","43.03","LONDON A","6144473","2019-04-02 20:00","2019","04","02","20:00","4.9","","-4.2","","52","","18","","23","","24.1","","98.15","","","","","","NA"
"-81.15","43.03","LONDON A","6144473","2019-04-02 21:00","2019","04","02","21:00","5.5","","-4.2","","50","","19","","19","","24.1","","98.13","","","","","","NA"
"-81.15","43.03","LONDON A","6144473","2019-04-02 22:00","2019","04","02","22:00","5.5","","-4.3","","50","","19","","19","","24.1","","98.09","","","","","","Cloudy"
"-81.15","43.03","LONDON A","6144473","2019-04-02 23:00","2019","04","02","23:00","5.1","","-3.2","","55","","20","","22","","24.1","","98.06","","","","","","NA"
"-81.15","43.03","LONDON A","6144473","2019-04-03 00:00","2019","04","03","00:00","5.1","","-2.1","","60","","21","","23","","24.1","","98.00","","","","","","NA"
"-81.15","43.03","LONDON A","6144473","2019-04-03 01:00","2019","04","03","01:00","3.3","","-1.7","","70","","23","","13","","24.1","","97.97","","","","","","Clear"
"-81.15","43.03","LONDON A","6144473","2019-04-03 02:00","2019","04","03","02:00","4.0","","-0.4","","73","","24","","18","","24.1","","97.97","","","","","","NA"
"-81.15","43.03","LONDON A","6144473","2019-04-03 03:00","2019","04","03","03:00","3.6","","0.0","","77","","26","","16","","19.3","","97.99","","","","","","NA"
"-81.15","43.03","LONDON A","6144473","2019-04-03 04:00","2019","04","03","04:00","2.9","","-0.2","","80","","25","","15","","19.3","","97.99","","","","","","Clear"
"-81.15","43.03","LONDON A","6144473","2019-04-03 05:00","2019","04","03","05:00","2.9","","-0.3","","80","","25","","19","","24.1","","98.05","","","","","","NA"
"-81.15","43.03","LONDON A","6144473","2019-04-03 06:00","2019","04","03","06:00","2.8","","-0.5","","79","","26","","18","","24.1","","98.15","","","","","","NA"
"-81.15","43.03","LONDON A","6144473","2019-04-03 07:00","2019","04","03","07:00","3.2","","-0.4","","77","","26","","23","","24.1","","98.25","","","","","","Clear"
"-81.15","43.03","LONDON A","6144473","2019-04-03 08:00","2019","04","03","08:00","4.6","","-0.7","","69","","27","","20","","24.1","","98.31","","","","","","NA"
"-81.15","43.03","LONDON A","6144473","2019-04-03 09:00","2019","04","03","09:00","4.2","","-4.3","","54","","27","","43","","24.1","","98.38","","","","","","NA"
"-81.15","43.03","LONDON A","6144473","2019-04-03 10:00","2019","04","03","10:00","4.4","","-5.7","","48","","29","","33","","24.1","","98.53","","","","","","Mostly Cloudy"
"-81.15","43.03","LONDON A","6144473","2019-04-03 11:00","2019","04","03","11:00","5.0","","-5.7","","46","","26","","41","","24.1","","98.66","","","","","","NA"
"-81.15","43.03","LONDON A","6144473","2019-04-03 12:00","2019","04","03","12:00","5.7","","-5.7","","44","","27","","35","","24.1","","98.74","","","","","","NA"
"-81.15","43.03","LONDON A","6144473","2019-04-03 13:00","2019","04","03","13:00","5.7","","-10.0","","31","","27","","37","","24.1","","98.85","","","","","","Clear"
"-81.15","43.03","LONDON A","6144473","2019-04-03 14:00","2019","04","03","14:00","6.2","","-6.8","","39","","29","","31","","24.1","","98.83","","","","","","NA"
"-81.15","43.03","LONDON A","6144473","2019-04-03 15:00","2019","04","03","15:00","6.9","","-6.3","","38","","30","","22","","24.1","","98.85","","","","","","NA"
"-81.15","43.03","LONDON A","6144473","2019-04-03 16:00","2019","04","03","16:00","7.2","","-6.4","","38","","30","","23","","24.1","","98.88","","","","","","Mainly Clear"
"-81.15","43.03","LONDON A","6144473","2019-04-03 17:00","2019","04","03","17:00","7.0","","-6.5","","38","","30","","17","","24.1","","98.90","","","","","","NA"
"-81.15","43.03","LONDON A","6144473","2019-04-03 18:00","2019","04","03","18:00","5.4","","-6.3","","43","","31","","19","","24.1","","98.96","","","","","","NA"
"-81.15","43.03","LONDON A","6144473","2019-04-03 19:00","2019","04","03","19:00","3.6","","-5.9","","50","","30","","15","","24.1","","99.04","","","","","","Mainly Clear"
"-81.15","43.03","LONDON A","6144473","2019-04-03 20:00","2019","04","03","20:00","2.0","","-6.4","","54","","32","","4","","24.1","","99.09","","","","","","NA"
"-81.15","43.03","LONDON A","6144473","2019-04-03 21:00","2019","04","03","21:00","0.9","","-6.6","","57","","28","","4","","24.1","","99.14","","","","","","NA"
"-81.15","43.03","LONDON A","6144473","2019-04-03 22:00","2019","04","03","22:00","-0.3","","-5.6","","68","","21","","4","","24.1","","99.16","","","","-2","","Clear"
"-81.15","43.03","LONDON A","6144473","2019-04-03 23:00","2019","04","03","23:00","-2.0","","-5.3","","78","","36","","4","","24.1","","99.18","","","","-3","","NA"
"-81.15","43.03","LONDON A","6144473","2019-04-04 00:00","2019","04","04","00:00","-2.2","","-6.0","","75","","1","","5","","24.1","","99.24","","","","-4","","NA"
"-81.15","43.03","LONDON A","6144473","2019-04-04 01:00","2019","04","04","01:00","-1.8","","-5.7","","75","","36","","8","","24.1","","99.29","","","","-5","","Mainly Clear"
"-81.15","43.03","LONDON A","6144473","2019-04-04 02:00","2019","04","04","02:00","-3.5","","-7.0","","77","","2","","8","","24.1","","99.35","","","","-7","","NA"
"-81.15","43.03","LONDON A","6144473","2019-04-04 03:00","2019","04","04","03:00","-1.8","","-7.3","","66","","2","","9","","24.1","","99.43","","","","-5","","NA"
"-81.15","43.03","LONDON A","6144473","2019-04-04 04:00","2019","04","04","04:00","-1.9","","-6.7","","70","","3","","14","","24.1","","99.51","","","","-7","","Clear"
"-81.15","43.03","LONDON A","6144473","2019-04-04 05:00","2019","04","04","05:00","-2.5","","-6.1","","76","","3","","4","","24.1","","99.60","","","","-4","","NA"
"-81.15","43.03","LONDON A","6144473","2019-04-04 06:00","2019","04","04","06:00","-3.5","","-6.0","","83","","3","","4","","24.1","","99.67","","","","-5","","NA"
"-81.15","43.03","LONDON A","6144473","2019-04-04 07:00","2019","04","04","07:00","-2.2","","-5.5","","79","","3","","4","","24.1","","99.77","","","","-4","","Cloudy"
"-81.15","43.03","LONDON A","6144473","2019-04-04 08:00","2019","04","04","08:00","-1.2","","-6.9","","65","","4","","13","","24.1","","99.87","","","","-5","","NA"
"-81.15","43.03","LONDON A","6144473","2019-04-04 09:00","2019","04","04","09:00","-0.1","","-6.3","","63","","7","","11","","24.1","","99.89","","","","-4","","NA"
"-81.15","43.03","LONDON A","6144473","2019-04-04 10:00","2019","04","04","10:00","1.3","","-8.1","","50","","5","","10","","24.1","","99.98","","","","","","Cloudy"
"-81.15","43.03","LONDON A","6144473","2019-04-04 11:00","2019","04","04","11:00","2.8","","-10.3","","37","","3","","17","","24.1","","99.97","","","","","","NA"
"-81.15","43.03","LONDON A","6144473","2019-04-04 12:00","2019","04","04","12:00","3.4","","-9.5","","38","","8","","9","","24.1","","99.93","","","","","","NA"
"-81.15","43.03","LONDON A","6144473","2019-04-04 13:00","2019","04","04","13:00","3.7","","-9.5","","38","","30","","9","","24.1","","99.93","","","","","","Cloudy"
"-81.15","43.03","LONDON A","6144473","2019-04-04 14:00","2019","04","04","14:00","3.9","","-10.2","","35","","31","","10","","24.1","","99.88","","","","","","NA"
"-81.15","43.03","LONDON A","6144473","2019-04-04 15:00","2019","04","04","15:00","4.2","","-9.0","","38","","6","","9","","24.1","","99.81","","","","","","NA"
"-81.15","43.03","LONDON A","6144473","2019-04-04 16:00","2019","04","04","16:00","3.9","","-9.2","","38","","2","","10","","24.1","","99.76","","","","","","Mostly Cloudy"
"-81.15","43.03","LONDON A","6144473","2019-04-04 17:00","2019","04","04","17:00","3.8","","-8.3","","41","","9","","12","","24.1","","99.76","","","","","","NA"
"-81.15","43.03","LONDON A","6144473","2019-04-04 18:00","2019","04","04","18:00","3.1","","-8.5","","42","","6","","8","","24.1","","99.76","","","","","","NA"
"-81.15","43.03","LONDON A","6144473","2019-04-04 19:00","2019","04","04","19:00","2.5","","-7.3","","49","","6","","8","","24.1","","99.75","","","","","","Mostly Cloudy"
"-81.15","43.03","LONDON A","6144473","2019-04-04 20:00","2019","04","04","20:00","1.8","","-6.0","","57","","7","","9","","24.1","","99.68","","","","","","NA"
"-81.15","43.03","LONDON A","6144473","2019-04-04 21:00","2019","04","04","21:00","1.4","","-5.8","","59","","12","","12","","24.1","","99.65","","","","","","NA"
"-81.15","43.03","LONDON A","6144473","2019-04-04 22:00","2019","04","04","22:00","1.1","","-7.1","","54","","10","","14","","24.1","","99.59","","","","","","Cloudy"
"-81.15","43.03","LONDON A","6144473","2019-04-04 23:00","2019","04","04","23:00","1.0","","-7.2","","54","","10","","21","","24.1","","99.48","","","","","","NA"
"-81.15","43.03","LONDON A","6144473","2019-04-05 00:00","2019","04","05","00:00","0.8","","-7.0","","56","","9","","23","","24.1","","99.38","","","","","","NA"
"-81.15","43.03","LONDON A","6144473","2019-04-05 01:00","2019","04","05","01:00","0.8","","-7.1","","55","","9","","31","","24.1","","99.26","","","","","","Cloudy"
"-81.15","43.03","LONDON A","6144473","2019-04-05 02:00","2019","04","05","02:00","0.6","","-7.6","","54","","8","","25","","24.1","","99.18","","","","","","NA"
"-81.15","43.03","LONDON A","6144473","2019-04-05 03:00","2019","04","05","03:00","0.6","","-8.3","","51","","11","","23","","24.1","","99.18","","","","","","NA"
"-81.15","43.03","LONDON A","6144473","2019-04-05 04:00","2019","04","05","04:00","0.8","","-9.9","","45","","9","","28","","24.1","","99.10","","","","","","Ice Pellets"
"-81.15","43.03","LONDON A","6144473","2019-04-05 05:00","2019","04","05","05:00","0.9","","-10.2","","43","","9","","25","","24.1","","99.06","","","","","","NA"
"-81.15","43.03","LONDON A","6144473","2019-04-05 06:00","2019","04","05","06:00","0.4","","-7.6","","55","","9","","23","","24.1","","99.03","","","","","","Rain"
"-81.15","43.03","LONDON A","6144473","2019-04-05 07:00","2019","04","05","07:00","-0.3","","-4.0","","76","","9","","18","","16.1","","98.99","","","","-5","","Freezing Rain"
"-81.15","43.03","LONDON A","6144473","2019-04-05 08:00","2019","04","05","08:00","-0.3","","-3.4","","80","","9","","22","","24.1","","98.95","","","","-6","","NA"
"-81.15","43.03","LONDON A","6144473","2019-04-05 09:00","2019","04","05","09:00","0.5","","-2.3","","82","","10","","27","","24.1","","98.84","","","","","","NA"
"-81.15","43.03","LONDON A","6144473","2019-04-05 10:00","2019","04","05","10:00","2.2","","-0.4","","83","","9","","22","","24.1","","98.82","","","","","","Cloudy"
"-81.15","43.03","LONDON A","6144473","2019-04-05 11:00","2019","04","05","11:00","3.5","","0.9","","83","","10","","20","","24.1","","98.76","","","","","","NA"
"-81.15","43.03","LONDON A","6144473","2019-04-05 12:00","2019","04","05","12:00","3.8","","1.1","","83","","10","","21","","24.1","","98.71","","","","","","NA"
"-81.15","43.03","LONDON A","6144473","2019-04-05 13:00","2019","04","05","13:00","5.1","","2.6","","84","","12","","14","","19.3","","98.63","","","","","","Cloudy"
"-81.15","43.03","LONDON A","6144473","2019-04-05 14:00","2019","04","05","14:00","5.2","","2.5","","83","","10","","13","","19.3","","98.60","","","","","","NA"
"-81.15","43.03","LONDON A","6144473","2019-04-05 15:00","2019","04","05","15:00","5.4","","2.9","","84","","11","","11","","24.1","","98.58","","","","","","NA"
"-81.15","43.03","LONDON A","6144473","2019-04-05 16:00","2019","04","05","16:00","6.0","","3.6","","84","","13","","14","","16.1","","98.54","","","","","","Cloudy"
"-81.15","43.03","LONDON A","6144473","2019-04-05 17:00","2019","04","05","17:00","6.6","","4.3","","86","","16","","13","","16.1","","98.53","","","","","","NA"
"-81.15","43.03","LONDON A","6144473","2019-04-05 18:00","2019","04","05","18:00","6.8","","4.7","","87","","16","","9","","19.3","","98.55","","","","","","NA"
"-81.15","43.03","LONDON A","6144473","2019-04-05 19:00","2019","04","05","19:00","6.3","","4.6","","89","","13","","10","","16.1","","98.57","","","","","","Cloudy"
"-81.15","43.03","LONDON A","6144473","2019-04-05 20:00","2019","04","05","20:00","6.0","","4.8","","92","","15","","7","","16.1","","98.61","","","","","","NA"
"-81.15","43.03","LONDON A","6144473","2019-04-05 21:00","2019","04","05","21:00","6.1","","4.8","","92","","19","","6","","16.1","","98.64","","","","","","NA"
"-81.15","43.03","LONDON A","6144473","2019-04-05 22:00","2019","04","05","22:00","5.6","","4.8","","95","","18","","6","","9.7","","98.63","","","","","","Fog"
"-81.15","43.03","LONDON A","6144473","2019-04-05 23:00","2019","04","05","23:00","5.2","","4.7","","96","","20","","3","","9.7","","98.63","","","","","","Fog"
"-81.15","43.03","LONDON A","6144473","2019-04-06 00:00","2019","04","06","00:00","5.0","","4.6","","97","","19","","4","","9.7","","98.68","","","","","","Fog"
"-81.15","43.03","LONDON A","6144473","2019-04-06 01:00","2019","04","06","01:00","4.5","","4.1","","98","","36","","3","","4.8","","98.72","","","","","","Fog"
"-81.15","43.03","LONDON A","6144473","2019-04-06 02:00","2019","04","06","02:00","4.5","","4.2","","98","","32","","4","","2.4","","98.75","","","","","","Fog"
"-81.15","43.03","LONDON A","6144473","2019-04-06 03:00","2019","04","06","03:00","4.2","","3.9","","98","","36","","1","","4.8","","98.73","","","","","","Fog"
"-81.15","43.03","LONDON A","6144473","2019-04-06 04:00","2019","04","06","04:00","4.3","","4.0","","98","","36","","2","","9.7","","98.74","","","","","","Fog"
"-81.15","43.03","LONDON A","6144473","2019-04-06 05:00","2019","04","06","05:00","3.5","","3.1","","98","","2","","5","","9.7","","98.77","","","","","","Fog"
"-81.15","43.03","LONDON A","6144473","2019-04-06 06:00","2019","04","06","06:00","2.6","","2.3","","98","","36","","1","","0.4","","98.81","","","","","","Fog"
"-81.15","43.03","LONDON A","6144473","2019-04-06 07:00","2019","04","06","07:00","3.0","","2.7","","98","","6","","4","","0.4","","98.86","","","","","","Fog"
"-81.15","43.03","LONDON A","6144473","2019-04-06 08:00","2019","04","06","08:00","7.2","","5.2","","87","","8","","4","","9.7","","98.90","","","","","","Fog"
"-81.15","43.03","LONDON A","6144473","2019-04-06 09:00","2019","04","06","09:00","9.8","","5.5","","74","","16","","4","","12.9","","98.92","","","","","","NA"
"-81.15","43.03","LONDON A","6144473","2019-04-06 10:00","2019","04","06","10:00","11.9","","6.4","","69","","19","","4","","16.1","","98.95","","","","","","Clear"
"-81.15","43.03","LONDON A","6144473","2019-04-06 11:00","2019","04","06","11:00","13.5","","6.6","","62","","19","","7","","19.3","","98.98","","","","","","NA"
"-81.15","43.03","LONDON A","6144473","2019-04-06 12:00","2019","04","06","12:00","14.1","","6.9","","62","","34","","10","","24.1","","98.96","","","","","","NA"
"-81.15","43.03","LONDON A","6144473","2019-04-06 13:00","2019","04","06","13:00","15.0","","6.4","","56","","36","","3","","24.1","","98.94","","","","","","Mostly Cloudy"
"-81.15","43.03","LONDON A","6144473","2019-04-06 14:00","2019","04","06","14:00","16.4","","7.1","","53","","28","","9","","24.1","","98.88","","","","","","NA"
"-81.15","43.03","LONDON A","6144473","2019-04-06 15:00","2019","04","06","15:00","15.9","","6.7","","54","","31","","10","","24.1","","98.86","","","","","","NA"
"-81.15","43.03","LONDON A","6144473","2019-04-06 16:00","2019","04","06","16:00","15.3","","8.1","","62","","21","","10","","24.1","","98.82","","","","","","Mostly Cloudy"
"-81.15","43.03","LONDON A","6144473","2019-04-06 17:00","2019","04","06","17:00","15.3","","7.0","","57","","33","","12","","24.1","","98.82","","","","","","NA"
"-81.15","43.03","LONDON A","6144473","2019-04-06 18:00","2019","04","06","18:00","14.1","","6.7","","61","","34","","11","","24.1","","98.87","","","","","","NA"
"-81.15","43.03","LONDON A","6144473","2019-04-06 19:00","2019","04","06","19:00","11.8","","7.4","","74","","22","","12","","19.3","","98.90","","","","","","Mostly Cloudy"
"-81.15","43.03","LONDON A","6144473","2019-04-06 20:00","2019","04","06","20:00","10.0","","7.0","","82","","30","","4","","24.1","","98.94","","","","","","NA"
"-81.15","43.03","LONDON A","6144473","2019-04-06 21:00","2019","04","06","21:00","9.7","","7.3","","85","","7","","11","","19.3","","98.91","","","","","","NA"
"-81.15","43.03","LONDON A","6144473","2019-04-06 22:00","2019","04","06","22:00","8.3","","6.9","","91","","36","","2","","19.3","","98.98","","","","","","Mostly Cloudy"
"-81.15","43.03","LONDON A","6144473","2019-04-06 23:00","2019","04","06","23:00","8.9","","6.7","","86","","9","","8","","19.3","","98.92","","","","","","NA"
"-81.15","43.03","LONDON A","6144473","2019-04-07 00:00","2019","04","07","00:00","8.6","","6.2","","85","","8","","10","","19.3","","98.94","","","","","","NA"
"-81.15","43.03","LONDON A","6144473","2019-04-07 01:00","2019","04","07","01:00","7.6","","6.2","","91","","8","","12","","16.1","","98.89","","","","","","Mostly Cloudy"
"-81.15","43.03","LONDON A","6144473","2019-04-07 02:00","2019","04","07","02:00","6.7","","5.8","","94","","9","","8","","16.1","","98.84","","","","","","NA"
"-81.15","43.03","LONDON A","6144473","2019-04-07 03:00","2019","04","07","03:00","5.9","","5.2","","95","","8","","10","","16.1","","98.79","","","","","","NA"
"-81.15","43.03","LONDON A","6144473","2019-04-07 04:00","2019","04","07","04:00","5.6","","5.0","","96","","8","","11","","12.9","","98.77","","","","","","Mainly Clear"
"-81.15","43.03","LONDON A","6144473","2019-04-07 05:00","2019","04","07","05:00","4.8","","4.1","","95","","8","","11","","12.9","","98.77","","","","","","NA"
"-81.15","43.03","LONDON A","6144473","2019-04-07 06:00","2019","04","07","06:00","4.6","","4.0","","96","","6","","9","","3.6","","98.81","","","","","","Fog"
"-81.15","43.03","LONDON A","6144473","2019-04-07 07:00","2019","04","07","07:00","5.9","","4.8","","92","","8","","10","","4.8","","98.83","","","","","","Fog"
"-81.15","43.03","LONDON A","6144473","2019-04-07 08:00","2019","04","07","08:00","8.2","","6.2","","87","","9","","12","","8.1","","98.81","","","","","","Fog"
"-81.15","43.03","LONDON A","6144473","2019-04-07 09:00","2019","04","07","09:00","10.5","","6.4","","76","","11","","14","","11.3","","98.71","","","","","","NA"
"-81.15","43.03","LONDON A","6144473","2019-04-07 10:00","2019","04","07","10:00","12.7","","6.8","","67","","11","","17","","14.5","","98.62","","","","","","Cloudy"
"-81.15","43.03","LONDON A","6144473","2019-04-07 11:00","2019","04","07","11:00","14.1","","7.3","","64","","12","","11","","19.3","","98.59","","","","","","NA"
"-81.15","43.03","LONDON A","6144473","2019-04-07 12:00","2019","04","07","12:00","15.2","","7.9","","61","","10","","17","","24.1","","98.46","","","","","","NA"
"-81.15","43.03","LONDON A","6144473","2019-04-07 13:00","2019","04","07","13:00","15.6","","8.3","","61","","8","","21","","24.1","","98.31","","","","","","Cloudy"
"-81.15","43.03","LONDON A","6144473","2019-04-07 14:00","2019","04","07","14:00","16.6","","9.0","","61","","10","","21","","24.1","","98.23","","","","","","NA"
"-81.15","43.03","LONDON A","6144473","2019-04-07 15:00","2019","04","07","15:00","16.4","","8.7","","60","","9","","26","","24.1","","98.08","","","","","","NA"
"-81.15","43.03","LONDON A","6144473","2019-04-07 16:00","2019","04","07","16:00","15.4","","8.7","","64","","8","","24","","24.1","","97.97","","","","","","Cloudy"
"-81.15","43.03","LONDON A","6144473","2019-04-07 17:00","2019","04","07","17:00","14.0","","7.9","","66","","9","","21","","24.1","","97.99","","","","","","NA"
"-81.15","43.03","LONDON A","6144473","2019-04-07 18:00","2019","04","07","18:00","12.5","","6.8","","68","","8","","24","","24.1","","97.93","","","","","","NA"
"-81.15","43.03","LONDON A","6144473","2019-04-07 19:00","2019","04","07","19:00","10.7","","6.2","","74","","10","","25","","19.3","","97.86","","","","","","Rain Showers"
"-81.15","43.03","LONDON A","6144473","2019-04-07 20:00","2019","04","07","20:00","9.2","","7.3","","88","","7","","13","","16.1","","97.83","","","","","","Rain Showers"
"-81.15","43.03","LONDON A","6144473","2019-04-07 21:00","2019","04","07","21:00","8.5","","7.0","","91","","8","","23","","8.1","","97.76","","","","","","Rain Showers"
"-81.15","43.03","LONDON A","6144473","2019-04-07 22:00","2019","04","07","22:00","8.3","","7.5","","94","","9","","19","","16.1","","97.66","","","","","","Rain Showers"
"-81.15","43.03","LONDON A","6144473","2019-04-07 23:00","2019","04","07","23:00","7.8","","7.3","","97","","10","","19","","16.1","","97.59","","","","","","Rain Showers"
"-81.15","43.03","LONDON A","6144473","2019-04-08 00:00","2019","04","08","00:00","7.9","","7.5","","97","","11","","10","","8.1","","97.54","","","","","","Fog"
"-81.15","43.03","LONDON A","6144473","2019-04-08 01:00","2019","04","08","01:00","8.2","","7.9","","98","","12","","9","","1.6","","97.50","","","","","","Rain Showers,Fog"
"-81.15","43.03","LONDON A","6144473","2019-04-08 02:00","2019","04","08","02:00","8.9","","8.7","","99","","15","","13","","1.6","","97.38","","","","","","Fog"
"-81.15","43.03","LONDON A","6144473","2019-04-08 03:00","2019","04","08","03:00","10.9","","10.8","","99","","20","","13","","1.6","","97.27","","","","","","Fog"
"-81.15","43.03","LONDON A","6144473","2019-04-08 04:00","2019","04","08","04:00","13.4","","13.3","","99","","23","","25","","8.1","","97.24","","","","","","Fog"
"-81.15","43.03","LONDON A","6144473","2019-04-08 05:00","2019","04","08","05:00","13.9","","13.2","","96","","24","","21","","12.9","","97.22","","","","","","NA"
"-81.15","43.03","LONDON A","6144473","2019-04-08 06:00","2019","04","08","06:00","13.7","","12.4","","91","","26","","26","","12.9","","97.30","","","","","","NA"
"-81.15","43.03","LONDON A","6144473","2019-04-08 07:00","2019","04","08","07:00","13.4","","11.4","","88","","26","","29","","24.1","","97.40","","","","","","Cloudy"
"-81.15","43.03","LONDON A","6144473","2019-04-08 08:00","2019","04","08","08:00","13.4","","10.2","","81","","28","","34","","24.1","","97.44","","","","","","NA"
"-81.15","43.03","LONDON A","6144473","2019-04-08 09:00","2019","04","08","09:00","14.2","","10.2","","77","","28","","37","","24.1","","97.49","","","","","","NA"
"-81.15","43.03","LONDON A","6144473","2019-04-08 10:00","2019","04","08","10:00","14.4","","10.2","","75","","26","","25","","24.1","","97.58","","","","","","Mostly Cloudy"
"-81.15","43.03","LONDON A","6144473","2019-04-08 11:00","2019","04","08","11:00","13.9","","9.9","","76","","29","","27","","24.1","","97.63","","","","","","NA"
"-81.15","43.03","LONDON A","6144473","2019-04-08 12:00","2019","04","08","12:00","14.6","","9.8","","73","","28","","24","","24.1","","97.65","","","","","","NA"
"-81.15","43.03","LONDON A","6144473","2019-04-08 13:00","2019","04","08","13:00","14.8","","9.6","","71","","29","","20","","24.1","","97.65","","","","","","Cloudy"
"-81.15","43.03","LONDON A","6144473","2019-04-08 14:00","2019","04","08","14:00","15.3","","10.5","","73","","30","","14","","24.1","","97.64","","","","","","NA"
"-81.15","43.03","LONDON A","6144473","2019-04-08 15:00","2019","04","08","15:00","16.0","","10.2","","68","","31","","16","","24.1","","97.67","","","","","","NA"
"-81.15","43.03","LONDON A","6144473","2019-04-08 16:00","2019","04","08","16:00","16.2","","9.6","","65","","30","","14","","24.1","","97.65","","","","","","Mostly Cloudy"
"-81.15","43.03","LONDON A","6144473","2019-04-08 17:00","2019","04","08","17:00","15.5","","9.4","","67","","31","","14","","24.1","","97.64","","","","","","NA"
"-81.15","43.03","LONDON A","6144473","2019-04-08 18:00","2019","04","08","18:00","14.2","","8.2","","67","","33","","10","","24.1","","97.61","","","","","","NA"
"-81.15","43.03","LONDON A","6144473","2019-04-08 19:00","2019","04","08","19:00","12.3","","7.4","","72","","35","","5","","24.1","","97.56","","","","","","Mainly Clear"
"-81.15","43.03","LONDON A","6144473","2019-04-08 20:00","2019","04","08","20:00","9.6","","6.6","","82","","13","","13","","24.1","","97.54","","","","","","NA"
"-81.15","43.03","LONDON A","6144473","2019-04-08 21:00","2019","04","08","21:00","9.3","","6.9","","85","","9","","6","","24.1","","97.48","","","","","","NA"
"-81.15","43.03","LONDON A","6144473","2019-04-08 22:00","2019","04","08","22:00","7.8","","6.1","","89","","9","","7","","24.1","","97.39","","","","","","Clear"
"-81.15","43.03","LONDON A","6144473","2019-04-08 23:00","2019","04","08","23:00","6.6","","5.2","","91","","12","","10","","24.1","","97.31","","","","","","NA"
"-81.15","43.03","LONDON A","6144473","2019-04-09 00:00","2019","04","09","00:00","8.9","","6.1","","83","","16","","5","","24.1","","97.31","","","","","","NA"
"-81.15","43.03","LONDON A","6144473","2019-04-09 01:00","2019","04","09","01:00","8.9","","7.9","","93","","12","","11","","24.1","","97.22","","","","","","Cloudy"
"-81.15","43.03","LONDON A","6144473","2019-04-09 02:00","2019","04","09","02:00","9.1","","8.6","","96","","6","","4","","16.1","","97.19","","","","","","NA"
"-81.15","43.03","LONDON A","6144473","2019-04-09 03:00","2019","04","09","03:00","8.7","","8.3","","98","","12","","17","","8.1","","97.02","","","","","","Fog"
"-81.15","43.03","LONDON A","6144473","2019-04-09 04:00","2019","04","09","04:00","8.5","","8.2","","98","","17","","7","","1.6","","96.92","","","","","","Fog"
"-81.15","43.03","LONDON A","6144473","2019-04-09 05:00","2019","04","09","05:00","7.9","","7.6","","98","","19","","8","","4.0","","96.85","","","","","","Fog"
"-81.15","43.03","LONDON A","6144473","2019-04-09 06:00","2019","04","09","06:00","8.2","","7.8","","97","","28","","17","","12.9","","96.91","","","","","","NA"
"-81.15","43.03","LONDON A","6144473","2019-04-09 07:00","2019","04","09","07:00","7.8","","4.6","","80","","29","","28","","24.1","","97.06","","","","","","Mostly Cloudy"
"-81.15","43.03","LONDON A","6144473","2019-04-09 08:00","2019","04","09","08:00","6.6","","3.6","","81","","29","","26","","24.1","","97.15","","","","","","NA"
"-81.15","43.03","LONDON A","6144473","2019-04-09 09:00","2019","04","09","09:00","5.8","","2.7","","81","","30","","34","","24.1","","97.23","","","","","","NA"
"-81.15","43.03","LONDON A","6144473","2019-04-09 10:00","2019","04","09","10:00","5.0","","2.7","","85","","31","","24","","24.1","","97.30","","","","","","Cloudy"
"-81.15","43.03","LONDON A","6144473","2019-04-09 11:00","2019","04","09","11:00","7.4","","2.9","","73","","31","","23","","24.1","","97.36","","","","","","NA"
"-81.15","43.03","LONDON A","6144473","2019-04-09 12:00","2019","04","09","12:00","7.6","","2.5","","70","","30","","32","","24.1","","97.39","","","","","","NA"
"-81.15","43.03","LONDON A","6144473","2019-04-09 13:00","2019","04","09","13:00","8.4","","2.5","","66","","29","","28","","24.1","","97.41","","","","","","Cloudy"
"-81.15","43.03","LONDON A","6144473","2019-04-09 14:00","2019","04","09","14:00","9.8","","2.5","","60","","28","","29","","24.1","","97.42","","","","","","NA"
"-81.15","43.03","LONDON A","6144473","2019-04-09 15:00","2019","04","09","15:00","9.4","","1.7","","59","","30","","27","","24.1","","97.42","","","","","","NA"
"-81.15","43.03","LONDON A","6144473","2019-04-09 16:00","2019","04","09","16:00","9.5","","1.2","","56","","31","","17","","24.1","","97.42","","","","","","Mostly Cloudy"
"-81.15","43.03","LONDON A","6144473","2019-04-09 17:00","2019","04","09","17:00","9.5","","1.8","","58","","29","","14","","24.1","","97.45","","","","","","NA"
"-81.15","43.03","LONDON A","6144473","2019-04-09 18:00","2019","04","09","18:00","8.8","","1.9","","62","","32","","12","","24.1","","97.48","","","","","","NA"
"-81.15","43.03","LONDON A","6144473","2019-04-09 19:00","2019","04","09","19:00","7.6","","2.5","","70","","31","","10","","24.1","","97.56","","","","","","Rain"
"-81.15","43.03","LONDON A","6144473","2019-04-09 20:00","2019","04","09","20:00","6.7","","1.8","","71","","33","","8","","24.1","","97.60","","","","","","NA"
"-81.15","43.03","LONDON A","6144473","2019-04-09 21:00","2019","04","09","21:00","6.4","","1.6","","71","","33","","11","","24.1","","97.66","","","","","","Rain"
"-81.15","43.03","LONDON A","6144473","2019-04-09 22:00","2019","04","09","22:00","5.9","","0.6","","69","","29","","13","","24.1","","97.68","","","","","","Rain"
"-81.15","43.03","LONDON A","6144473","2019-04-09 23:00","2019","04","09","23:00","5.1","","1.4","","77","","1","","13","","24.1","","97.69","","","","","","NA"
"-81.15","43.03","LONDON A","6144473","2019-04-10 00:00","2019","04","10","00:00","4.1","","1.5","","83","","34","","17","","24.1","","97.77","","","","","","NA"
"-81.15","43.03","LONDON A","6144473","2019-04-10 01:00","2019","04","10","01:00","3.1","","0.7","","84","","33","","12","","24.1","","97.81","","","","","","Mostly Cloudy"
"-81.15","43.03","LONDON A","6144473","2019-04-10 02:00","2019","04","10","02:00","2.5","","0.6","","87","","31","","13","","24.1","","97.81","","","","","","NA"
"-81.15","43.03","LONDON A","6144473","2019-04-10 03:00","2019","04","10","03:00","2.1","","0.3","","88","","30","","17","","24.1","","97.86","","","","","","NA"
"-81.15","43.03","LONDON A","6144473","2019-04-10 04:00","2019","04","10","04:00","1.6","","0.2","","90","","33","","17","","24.1","","97.93","","","","","","Cloudy"
"-81.15","43.03","LONDON A","6144473","2019-04-10 05:00","2019","04","10","05:00","1.7","","0.0","","88","","35","","15","","24.1","","97.94","","","","","","Drizzle"
"-81.15","43.03","LONDON A","6144473","2019-04-10 06:00","2019","04","10","06:00","1.1","","-1.4","","83","","36","","23","","24.1","","98.04","","","","","","NA"
"-81.15","43.03","LONDON A","6144473","2019-04-10 07:00","2019","04","10","07:00","0.0","","-2.4","","84","","35","","23","","24.1","","98.13","","","","-6","","Mostly Cloudy"
"-81.15","43.03","LONDON A","6144473","2019-04-10 08:00","2019","04","10","08:00","0.6","","-2.6","","79","","34","","21","","24.1","","98.21","","","","","","NA"
"-81.15","43.03","LONDON A","6144473","2019-04-10 09:00","2019","04","10","09:00","0.6","","-3.3","","75","","1","","14","","24.1","","98.30","","","","","","NA"
"-81.15","43.03","LONDON A","6144473","2019-04-10 10:00","2019","04","10","10:00","1.4","","-3.2","","72","","2","","15","","24.1","","98.38","","","","","","Cloudy"
"-81.15","43.03","LONDON A","6144473","2019-04-10 11:00","2019","04","10","11:00","2.1","","-4.0","","64","","33","","10","","24.1","","98.40","","","","","","NA"
"-81.15","43.03","LONDON A","6144473","2019-04-10 12:00","2019","04","10","12:00","3.0","","-3.2","","64","","5","","17","","24.1","","98.43","","","","","","NA"
"-81.15","43.03","LONDON A","6144473","2019-04-10 13:00","2019","04","10","13:00","3.7","","-3.2","","61","","4","","19","","24.1","","98.42","","","","","","Mostly Cloudy"
"-81.15","43.03","LONDON A","6144473","2019-04-10 14:00","2019","04","10","14:00","4.4","","-3.4","","57","","3","","16","","24.1","","98.41","","","","","","NA"
"-81.15","43.03","LONDON A","6144473","2019-04-10 15:00","2019","04","10","15:00","4.9","","-3.5","","55","","4","","10","","24.1","","98.39","","","","","","NA"
"-81.15","43.03","LONDON A","6144473","2019-04-10 16:00","2019","04","10","16:00","5.5","","-3.6","","52","","5","","15","","24.1","","98.41","","","","","","Mostly Cloudy"
"-81.15","43.03","LONDON A","6144473","2019-04-10 17:00","2019","04","10","17:00","5.9","","-3.1","","52","","2","","12","","24.1","","98.37","","","","","","NA"
"-81.15","43.03","LONDON A","6144473","2019-04-10 18:00","2019","04","10","18:00","5.7","","-4.0","","50","","3","","11","","24.1","","98.42","","","","","","NA"
"-81.15","43.03","LONDON A","6144473","2019-04-10 19:00","2019","04","10","19:00","4.7","","-4.3","","52","","5","","7","","24.1","","98.45","","","","","","Cloudy"
"-81.15","43.03","LONDON A","6144473","2019-04-10 20:00","2019","04","10","20:00","4.2","","-4.1","","55","","2","","8","","19.3","","98.55","","","","","","NA"
"-81.15","43.03","LONDON A","6144473","2019-04-10 21:00","2019","04","10","21:00","3.4","","-2.9","","64","","7","","10","","19.3","","98.62","","","","","","NA"
"-81.15","43.03","LONDON A","6144473","2019-04-10 22:00","2019","04","10","22:00","2.9","","-4.8","","57","","6","","20","","19.3","","98.62","","","","","","Cloudy"
"-81.15","43.03","LONDON A","6144473","2019-04-10 23:00","2019","04","10","23:00","2.2","","-5.1","","58","","6","","19","","24.1","","98.59","","","","","","NA"
"-81.15","43.03","LONDON A","6144473","2019-04-11 00:00","2019","04","11","00:00","1.8","","-5.4","","59","","5","","14","","24.1","","98.67","","","","","","NA"
"-81.15","43.03","LONDON A","6144473","2019-04-11 01:00","2019","04","11","01:00","1.4","","-6.3","","57","","8","","13","","24.1","","98.75","","","","","","Cloudy"
"-81.15","43.03","LONDON A","6144473","2019-04-11 02:00","2019","04","11","02:00","1.1","","-6.7","","56","","6","","12","","24.1","","98.78","","","","","","NA"
"-81.15","43.03","LONDON A","6144473","2019-04-11 03:00","2019","04","11","03:00","0.8","","-7.0","","56","","8","","19","","24.1","","98.73","","","","","","NA"
"-81.15","43.03","LONDON A","6144473","2019-04-11 04:00","2019","04","11","04:00","0.7","","-6.8","","58","","8","","26","","24.1","","98.70","","","","","","Cloudy"
"-81.15","43.03","LONDON A","6144473","2019-04-11 05:00","2019","04","11","05:00","0.4","","-5.7","","64","","7","","32","","24.1","","98.67","","","","","","NA"
"-81.15","43.03","LONDON A","6144473","2019-04-11 06:00","2019","04","11","06:00","0.1","","-5.2","","68","","7","","26","","24.1","","98.75","","","","","","Snow Showers"
"-81.15","43.03","LONDON A","6144473","2019-04-11 07:00","2019","04","11","07:00","-0.2","","-4.3","","74","","8","","27","","19.3","","98.86","","","","-6","","Snow Pellets"
"-81.15","43.03","LONDON A","6144473","2019-04-11 08:00","2019","04","11","08:00","-0.3","","-4.4","","74","","8","","36","","24.1","","98.79","","","","-7","","Ice Pellets"
"-81.15","43.03","LONDON A","6144473","2019-04-11 09:00","2019","04","11","09:00","0.0","","-3.9","","75","","7","","28","","24.1","","98.79","","","","-6","","Snow Grains"
"-81.15","43.03","LONDON A","6144473","2019-04-11 10:00","2019","04","11","10:00","0.2","","-3.8","","75","","7","","32","","24.1","","98.72","","","","","","Drizzle"
"-81.15","43.03","LONDON A","6144473","2019-04-11 11:00","2019","04","11","11:00","1.2","","-2.6","","76","","8","","34","","24.1","","98.65","","","","","","NA"
"-81.15","43.03","LONDON A","6144473","2019-04-11 12:00","2019","04","11","12:00","2.5","","-1.8","","73","","7","","36","","24.1","","98.61","","","","","","NA"
"-81.15","43.03","LONDON A","6144473","2019-04-11 13:00","2019","04","11","13:00","2.6","","-2.1","","71","","8","","44","","24.1","","98.45","","","","","","Cloudy"
"-81.15","43.03","LONDON A","6144473","2019-04-11 14:00","2019","04","11","14:00","3.1","","-1.6","","71","","8","","48","","24.1","","98.37","","","","","","NA"
"-81.15","43.03","LONDON A","6144473","2019-04-11 15:00","2019","04","11","15:00","3.6","","-1.2","","71","","8","","45","","24.1","","98.39","","","","","","NA"
"-81.15","43.03","LONDON A","6144473","2019-04-11 16:00","2019","04","11","16:00","3.0","","-1.2","","74","","8","","41","","24.1","","98.30","","","","","","Cloudy"
"-81.15","43.03","LONDON A","6144473","2019-04-11 17:00","2019","04","11","17:00","2.7","","-1.2","","75","","8","","41","","24.1","","98.29","","","","","","NA"
"-81.15","43.03","LONDON A","6144473","2019-04-11 18:00","2019","04","11","18:00","1.8","","-1.5","","79","","9","","37","","24.1","","98.25","","","","","","NA"
"-81.15","43.03","LONDON A","6144473","2019-04-11 19:00","2019","04","11","19:00","1.4","","-1.8","","79","","8","","35","","24.1","","98.23","","","","","","Cloudy"
"-81.15","43.03","LONDON A","6144473","2019-04-11 20:00","2019","04","11","20:00","1.1","","-2.0","","80","","8","","39","","24.1","","98.15","","","","","","NA"
"-81.15","43.03","LONDON A","6144473","2019-04-11 21:00","2019","04","11","21:00","1.3","","-1.8","","80","","8","","34","","24.1","","98.10","","","","","","NA"
"-81.15","43.03","LONDON A","6144473","2019-04-11 22:00","2019","04","11","22:00","1.7","","-1.7","","78","","8","","36","","24.1","","98.02","","","","","","Mostly Cloudy"
"-81.15","43.03","LONDON A","6144473","2019-04-11 23:00","2019","04","11","23:00","2.0","","-1.8","","76","","9","","32","","24.1","","97.95","","","","","","NA"
"-81.15","43.03","LONDON A","6144473","2019-04-12 00:00","2019","04","12","00:00","2.2","","-1.7","","75","","9","","31","","24.1","","97.90","","","","","","NA"
"-81.15","43.03","LONDON A","6144473","2019-04-12 01:00","2019","04","12","01:00","2.2","","-1.4","","77","","9","","28","","24.1","","97.82","","","","","","Cloudy"
"-81.15","43.03","LONDON A","6144473","2019-04-12 02:00","2019","04","12","02:00","2.6","","-0.9","","77","","9","","27","","24.1","","97.70","","","","","","NA"
"-81.15","43.03","LONDON A","6144473","2019-04-12 03:00","2019","04","12","03:00","3.5","","-0.3","","76","","10","","26","","24.1","","97.66","","","","","","NA"
"-81.15","43.03","LONDON A","6144473","2019-04-12 04:00","2019","04","12","04:00","3.8","","0.2","","78","","9","","25","","24.1","","97.60","","","","","","Cloudy"
"-81.15","43.03","LONDON A","6144473","2019-04-12 05:00","2019","04","12","05:00","4.5","","1.1","","79","","10","","21","","24.1","","97.59","","","","","","NA"
"-81.15","43.03","LONDON A","6144473","2019-04-12 06:00","2019","04","12","06:00","5.0","","2.0","","81","","11","","21","","24.1","","97.57","","","","","","NA"
"-81.15","43.03","LONDON A","6144473","2019-04-12 07:00","2019","04","12","07:00","6.8","","3.3","","79","","11","","24","","24.1","","97.55","","","","","","Cloudy"
"-81.15","43.03","LONDON A","6144473","2019-04-12 08:00","2019","04","12","08:00","10.4","","5.9","","74","","13","","25","","24.1","","97.50","","","","","","NA"
"-81.15","43.03","LONDON A","6144473","2019-04-12 09:00","2019","04","12","09:00","13.2","","7.6","","69","","14","","25","","24.1","","97.42","","","","","","NA"
"-81.15","43.03","LONDON A","6144473","2019-04-12 10:00","2019","04","12","10:00","16.1","","9.3","","64","","18","","32","","24.1","","97.44","","","","","","Cloudy"
"-81.15","43.03","LONDON A","6144473","2019-04-12 11:00","2019","04","12","11:00","13.9","","11.9","","88","","17","","4","","12.9","","97.59","","","","","","Rain Showers"
"-81.15","43.03","LONDON A","6144473","2019-04-12 12:00","2019","04","12","12:00","13.5","","12.8","","95","","13","","20","","24.1","","97.46","","","","","","NA"
"-81.15","43.03","LONDON A","6144473","2019-04-12 13:00","2019","04","12","13:00","15.1","","12.3","","83","","17","","29","","24.1","","97.47","","","","","","Cloudy"
"-81.15","43.03","LONDON A","6144473","2019-04-12 14:00","2019","04","12","14:00","14.4","","11.5","","82","","19","","27","","24.1","","97.53","","","","","","NA"
"-81.15","43.03","LONDON A","6144473","2019-04-12 15:00","2019","04","12","15:00","14.8","","11.8","","82","","20","","33","","24.1","","97.54","","","","","","NA"
"-81.15","43.03","LONDON A","6144473","2019-04-12 16:00","2019","04","12","16:00","15.5","","10.7","","73","","20","","31","","24.1","","97.52","","","","","","Cloudy"
"-81.15","43.03","LONDON A","6144473","2019-04-12 17:00","2019","04","12","17:00","16.0","","6.2","","52","","24","","38","","24.1","","97.55","","","","","","NA"
"-81.15","43.03","LONDON A","6144473","2019-04-12 18:00","2019","04","12","18:00","15.3","","6.6","","56","","23","","36","","24.1","","97.64","","","","","","NA"
"-81.15","43.03","LONDON A","6144473","2019-04-12 19:00","2019","04","12","19:00","13.8","","6.3","","60","","21","","22","","24.1","","97.67","","","","","","Mainly Clear"
"-81.15","43.03","LONDON A","6144473","2019-04-12 20:00","2019","04","12","20:00","13.1","","5.7","","60","","21","","25","","24.1","","97.74","","","","","","NA"
"-81.15","43.03","LONDON A","6144473","2019-04-12 21:00","2019","04","12","21:00","12.7","","4.2","","56","","22","","26","","24.1","","97.82","","","","","","NA"
"-81.15","43.03","LONDON A","6144473","2019-04-12 22:00","2019","04","12","22:00","11.9","","2.9","","54","","23","","24","","24.1","","97.90","","","","","","Mostly Cloudy"
"-81.15","43.03","LONDON A","6144473","2019-04-12 23:00","2019","04","12","23:00","11.2","","1.4","","51","","25","","21","","24.1","","97.99","","","","","","NA"
"-81.15","43.03","LONDON A","6144473","2019-04-13 00:00","2019","04","13","00:00","8.9","","1.8","","61","","30","","7","","24.1","","98.09","","","","","","NA"
"-81.15","43.03","LONDON A","6144473","2019-04-13 01:00","2019","04","13","01:00","7.0","","1.6","","68","","23","","4","","24.1","","98.12","","","","","","Clear"
"-81.15","43.03","LONDON A","6144473","2019-04-13 02:00","2019","04","13","02:00","7.0","","0.6","","64","","24","","16","","24.1","","98.11","","","","","","NA"
"-81.15","43.03","LONDON A","6144473","2019-04-13 03:00","2019","04","13","03:00","6.4","","-0.3","","62","","30","","8","","24.1","","98.16","","","","","","NA"
"-81.15","43.03","LONDON A","6144473","2019-04-13 04:00","2019","04","13","04:00","5.3","","-0.2","","68","","28","","8","","24.1","","98.25","","","","","","Mainly Clear"
"-81.15","43.03","LONDON A","6144473","2019-04-13 05:00","2019","04","13","05:00","2.8","","-0.4","","80","","21","","5","","24.1","","98.25","","","","","","NA"
"-81.15","43.03","LONDON A","6144473","2019-04-13 06:00","2019","04","13","06:00","3.5","","-0.2","","77","","20","","13","","24.1","","98.29","","","","","","NA"
"-81.15","43.03","LONDON A","6144473","2019-04-13 07:00","2019","04","13","07:00","6.1","","0.7","","68","","24","","17","","24.1","","98.41","","","","","","Mainly Clear"
"-81.15","43.03","LONDON A","6144473","2019-04-13 08:00","2019","04","13","08:00","7.5","","0.6","","61","","24","","19","","24.1","","98.42","","","","","","NA"
"-81.15","43.03","LONDON A","6144473","2019-04-13 09:00","2019","04","13","09:00","8.9","","-1.4","","48","","25","","26","","24.1","","98.40","","","","","","NA"
"-81.15","43.03","LONDON A","6144473","2019-04-13 10:00","2019","04","13","10:00","10.4","","-1.3","","44","","25","","28","","24.1","","98.41","","","","","","Clear"
"-81.15","43.03","LONDON A","6144473","2019-04-13 11:00","2019","04","13","11:00","11.7","","-1.1","","41","","24","","27","","24.1","","98.36","","","","","","NA"
"-81.15","43.03","LONDON A","6144473","2019-04-13 12:00","2019","04","13","12:00","12.1","","-2.3","","37","","24","","34","","24.1","","98.37","","","","","","NA"
"-81.15","43.03","LONDON A","6144473","2019-04-13 13:00","2019","04","13","13:00","12.7","","-1.4","","37","","23","","28","","24.1","","98.32","","","","","","Mostly Cloudy"
"-81.15","43.03","LONDON A","6144473","2019-04-13 14:00","2019","04","13","14:00","13.4","","-2.2","","34","","25","","25","","24.1","","98.33","","","","","","NA"
"-81.15","43.03","LONDON A","6144473","2019-04-13 15:00","2019","04","13","15:00","12.8","","-2.9","","33","","24","","35","","24.1","","98.33","","","","","","NA"
"-81.15","43.03","LONDON A","6144473","2019-04-13 16:00","2019","04","13","16:00","13.2","","-1.7","","35","","23","","28","","24.1","","98.32","","","","","","Cloudy"
"-81.15","43.03","LONDON A","6144473","2019-04-13 17:00","2019","04","13","17:00","13.5","","-3.0","","31","","23","","22","","24.1","","98.29","","","","","","NA"
"-81.15","43.03","LONDON A","6144473","2019-04-13 18:00","2019","04","13","18:00","11.3","","0.4","","47","","21","","18","","24.1","","98.24","","","","","","NA"
"-81.15","43.03","LONDON A","6144473","2019-04-13 19:00","2019","04","13","19:00","10.1","","-0.4","","48","","21","","20","","24.1","","98.29","","","","","","Mostly Cloudy"
"-81.15","43.03","LONDON A","6144473","2019-04-13 20:00","2019","04","13","20:00","7.4","","-2.5","","49","","33","","10","","24.1","","98.35","","","","","","NA"
"-81.15","43.03","LONDON A","6144473","2019-04-13 21:00","2019","04","13","21:00","6.0","","-2.0","","56","","31","","5","","24.1","","98.43","","","","","","NA"
"-81.15","43.03","LONDON A","6144473","2019-04-13 22:00","2019","04","13","22:00","5.3","","-2.9","","56","","32","","9","","24.1","","98.44","","","","","","Cloudy"
"-81.15","43.03","LONDON A","6144473","2019-04-13 23:00","2019","04","13","23:00","4.5","","-2.1","","62","","32","","5","","24.1","","98.44","","","","","","NA"
"-81.15","43.03","LONDON A","6144473","2019-04-14 00:00","2019","04","14","00:00","3.7","","-1.7","","68","","34","","8","","24.1","","98.41","","","","","","NA"
"-81.15","43.03","LONDON A","6144473","2019-04-14 01:00","2019","04","14","01:00","2.5","","-2.7","","69","","1","","21","","24.1","","98.40","","","","","","Mostly Cloudy"
"-81.15","43.03","LONDON A","6144473","2019-04-14 02:00","2019","04","14","02:00","2.0","","-3.5","","67","","2","","20","","24.1","","98.29","","","","","","NA"
"-81.15","43.03","LONDON A","6144473","2019-04-14 03:00","2019","04","14","03:00","2.2","","-3.6","","66","","4","","14","","24.1","","98.29","","","","","","NA"
"-81.15","43.03","LONDON A","6144473","2019-04-14 04:00","2019","04","14","04:00","2.0","","-3.6","","67","","5","","13","","24.1","","98.20","","","","","","Mostly Cloudy"
"-81.15","43.03","LONDON A","6144473","2019-04-14 05:00","2019","04","14","05:00","2.1","","-3.5","","66","","6","","10","","24.1","","98.35","","","","","","NA"
"-81.15","43.03","LONDON A","6144473","2019-04-14 06:00","2019","04","14","06:00","1.8","","-2.5","","73","","6","","12","","19.3","","98.29","","","","","","Rain"
"-81.15","43.03","LONDON A","6144473","2019-04-14 07:00","2019","04","14","07:00","1.0","","-1.4","","84","","4","","19","","8.1","","98.14","","","","","","Rain,Fog"
"-81.15","43.03","LONDON A","6144473","2019-04-14 08:00","2019","04","14","08:00","0.9","","-0.9","","87","","7","","28","","8.1","","98.07","","","","","","Rain,Fog"
"-81.15","43.03","LONDON A","6144473","2019-04-14 09:00","2019","04","14","09:00","1.1","","-0.5","","89","","7","","32","","12.9","","97.82","","","","","","Rain"
"-81.15","43.03","LONDON A","6144473","2019-04-14 10:00","2019","04","14","10:00","1.4","","-0.3","","88","","7","","32","","8.1","","97.70","","","","","","Rain,Fog"
"-81.15","43.03","LONDON A","6144473","2019-04-14 11:00","2019","04","14","11:00","1.6","","0.1","","90","","7","","31","","16.1","","97.55","","","","","","NA"
"-81.15","43.03","LONDON A","6144473","2019-04-14 12:00","2019","04","14","12:00","1.9","","0.7","","91","","8","","36","","12.9","","97.31","","","","","","Rain Showers"
"-81.15","43.03","LONDON A","6144473","2019-04-14 13:00","2019","04","14","13:00","2.2","","0.6","","89","","8","","44","","19.3","","97.04","","","","","","Cloudy"
"-81.15","43.03","LONDON A","6144473","2019-04-14 14:00","2019","04","14","14:00","2.1","","0.9","","92","","7","","35","","16.1","","96.78","","","","","","Rain Showers"
"-81.15","43.03","LONDON A","6144473","2019-04-14 15:00","2019","04","14","15:00","2.4","","1.5","","94","","9","","43","","9.7","","96.50","","","","","","Rain Showers,Fog"
"-81.15","43.03","LONDON A","6144473","2019-04-14 16:00","2019","04","14","16:00","2.8","","2.1","","95","","9","","26","","11.3","","96.44","","","","","","Mostly Cloudy"
"-81.15","43.03","LONDON A","6144473","2019-04-14 17:00","2019","04","14","17:00","2.8","","2.2","","96","","8","","34","","4.8","","96.23","","","","","","Fog"
"-81.15","43.03","LONDON A","6144473","2019-04-14 18:00","2019","04","14","18:00","2.9","","2.5","","97","","7","","37","","4.0","","96.24","","","","","","Fog"
"-81.15","43.03","LONDON A","6144473","2019-04-14 19:00","2019","04","14","19:00","2.8","","2.4","","97","","6","","20","","4.0","","96.23","","","","","","Rain Showers,Fog"
"-81.15","43.03","LONDON A","6144473","2019-04-14 20:00","2019","04","14","20:00","3.2","","2.4","","94","","7","","28","","16.1","","96.16","","","","","","Rain"
"-81.15","43.03","LONDON A","6144473","2019-04-14 21:00","2019","04","14","21:00","3.5","","2.8","","95","","7","","25","","19.3","","96.16","","","","","","Rain"
"-81.15","43.03","LONDON A","6144473","2019-04-14 22:00","2019","04","14","22:00","3.8","","3.0","","95","","6","","17","","24.1","","95.93","","","","","","Cloudy"
"-81.15","43.03","LONDON A","6144473","2019-04-14 23:00","2019","04","14","23:00","4.0","","3.3","","95","","19","","14","","8.1","","96.25","","","","","","Rain Showers,Fog"
"-81.15","43.03","LONDON A","6144473","2019-04-15 00:00","2019","04","15","00:00","3.6","","3.2","","97","","29","","7","","3.2","","96.18","","","","","","Rain Showers,Fog"
"-81.15","43.03","LONDON A","6144473","2019-04-15 01:00","2019","04","15","01:00","3.5","","3.2","","98","","33","","6","","2.4","","96.15","","","","","","Rain Showers,Fog"
"-81.15","43.03","LONDON A","6144473","2019-04-15 02:00","2019","04","15","02:00","3.5","","3.3","","98","","24","","12","","2.4","","96.13","","","","","","Rain Showers,Fog"
"-81.15","43.03","LONDON A","6144473","2019-04-15 03:00","2019","04","15","03:00","2.6","","2.3","","98","","29","","17","","4.8","","96.22","","","","","","Drizzle,Fog"
"-81.15","43.03","LONDON A","6144473","2019-04-15 04:00","2019","04","15","04:00","1.2","","0.7","","97","","31","","18","","2.4","","96.34","","","","","","Drizzle,Fog"
"-81.15","43.03","LONDON A","6144473","2019-04-15 05:00","2019","04","15","05:00","0.9","","0.4","","97","","30","","17","","6.4","","96.43","","","","","","Drizzle,Fog"
"-81.15","43.03","LONDON A","6144473","2019-04-15 06:00","2019","04","15","06:00","0.8","","-0.1","","94","","31","","20","","12.9","","96.60","","","","","","Drizzle"
"-81.15","43.03","LONDON A","6144473","2019-04-15 07:00","2019","04","15","07:00","1.1","","-0.3","","90","","32","","25","","16.1","","96.78","","","","","","Drizzle"
"-81.15","43.03","LONDON A","6144473","2019-04-15 08:00","2019","04","15","08:00","1.1","","-0.7","","88","","32","","28","","19.3","","96.97","","","","","","Snow"
"-81.15","43.03","LONDON A","6144473","2019-04-15 09:00","2019","04","15","09:00","1.2","","-0.8","","87","","32","","21","","16.1","","97.14","","","","","","Snow"
"-81.15","43.03","LONDON A","6144473","2019-04-15 10:00","2019","04","15","10:00","1.4","","-0.7","","86","","32","","37","","12.9","","97.30","","","","","","Cloudy"
"-81.15","43.03","LONDON A","6144473","2019-04-15 11:00","2019","04","15","11:00","3.3","","-1.2","","72","","33","","32","","19.3","","97.43","","","","","","NA"
"-81.15","43.03","LONDON A","6144473","2019-04-15 12:00","2019","04","15","12:00","5.0","","-1.5","","63","","32","","34","","24.1","","97.56","","","","","","NA"
"-81.15","43.03","LONDON A","6144473","2019-04-15 13:00","2019","04","15","13:00","5.7","","-1.0","","62","","29","","32","","24.1","","97.71","","","","","","Mainly Clear"
"-81.15","43.03","LONDON A","6144473","2019-04-15 14:00","2019","04","15","14:00","5.4","","-3.7","","52","","29","","35","","24.1","","97.81","","","","","","NA"
"-81.15","43.03","LONDON A","6144473","2019-04-15 15:00","2019","04","15","15:00","6.2","","-4.9","","45","","29","","27","","24.1","","97.90","","","","","","NA"
"-81.15","43.03","LONDON A","6144473","2019-04-15 16:00","2019","04","15","16:00","6.2","","-4.8","","45","","29","","30","","24.1","","97.99","","","","","","Clear"
"-81.15","43.03","LONDON A","6144473","2019-04-15 17:00","2019","04","15","17:00","6.0","","-5.8","","43","","31","","20","","24.1","","98.08","","","","","","NA"
"-81.15","43.03","LONDON A","6144473","2019-04-15 18:00","2019","04","15","18:00","6.1","","-5.5","","43","","30","","15","","24.1","","98.15","","","","","","NA"
"-81.15","43.03","LONDON A","6144473","2019-04-15 19:00","2019","04","15","19:00","4.4","","-5.4","","49","","30","","8","","24.1","","98.20","","","","","","Clear"
"-81.15","43.03","LONDON A","6144473","2019-04-15 20:00","2019","04","15","20:00","3.1","","-4.7","","57","","28","","7","","24.1","","98.26","","","","","","NA"
"-81.15","43.03","LONDON A","6144473","2019-04-15 21:00","2019","04","15","21:00","1.3","","-5.2","","62","","25","","10","","24.1","","98.33","","","","","","NA"
"-81.15","43.03","LONDON A","6144473","2019-04-15 22:00","2019","04","15","22:00","2.0","","-5.2","","59","","27","","8","","24.1","","98.36","","","","","","Mainly Clear"
"-81.15","43.03","LONDON A","6144473","2019-04-15 23:00","2019","04","15","23:00","1.0","","-5.1","","63","","23","","4","","24.1","","98.37","","","","","","NA"
"-81.15","43.03","LONDON A","6144473","2019-04-16 00:00","2019","04","16","00:00","-0.6","","-5.0","","73","","26","","3","","24.1","","98.40","","","","-2","","NA"
"-81.15","43.03","LONDON A","6144473","2019-04-16 01:00","2019","04","16","01:00","0.7","","-4.2","","70","","27","","9","","24.1","","98.45","","","","","","Mainly Clear"
"-81.15","43.03","LONDON A","6144473","2019-04-16 02:00","2019","04","16","02:00","2.0","","-3.3","","68","","28","","7","","24.1","","98.43","","","","","","NA"
"-81.15","43.03","LONDON A","6144473","2019-04-16 03:00","2019","04","16","03:00","1.6","","-3.0","","71","","27","","10","","24.1","","98.48","","","","","","NA"
"-81.15","43.03","LONDON A","6144473","2019-04-16 04:00","2019","04","16","04:00","2.2","","-2.7","","70","","29","","5","","24.1","","98.53","","","","","","Mostly Cloudy"
"-81.15","43.03","LONDON A","6144473","2019-04-16 05:00","2019","04","16","05:00","0.8","","-2.0","","81","","7","","4","","24.1","","98.51","","","","","","NA"
"-81.15","43.03","LONDON A","6144473","2019-04-16 06:00","2019","04","16","06:00","1.4","","-1.5","","81","","23","","5","","24.1","","98.57","","","","","","NA"
"-81.15","43.03","LONDON A","6144473","2019-04-16 07:00","2019","04","16","07:00","3.1","","-1.9","","69","","26","","7","","24.1","","98.64","","","","","","Mostly Cloudy"
"-81.15","43.03","LONDON A","6144473","2019-04-16 08:00","2019","04","16","08:00","4.1","","-1.6","","66","","24","","9","","24.1","","98.65","","","","","","NA"
"-81.15","43.03","LONDON A","6144473","2019-04-16 09:00","2019","04","16","09:00","4.0","","-0.6","","72","","23","","17","","19.3","","98.66","","","","","","Rain Showers"
"-81.15","43.03","LONDON A","6144473","2019-04-16 10:00","2019","04","16","10:00","3.5","","1.2","","85","","11","","10","","9.7","","98.56","","","","","","Rain Showers,Fog"
"-81.15","43.03","LONDON A","6144473","2019-04-16 11:00","2019","04","16","11:00","3.9","","2.5","","91","","14","","8","","9.7","","98.55","","","","","","Rain Showers,Fog"
"-81.15","43.03","LONDON A","6144473","2019-04-16 12:00","2019","04","16","12:00","4.2","","3.3","","94","","13","","16","","9.7","","98.48","","","","","","Rain,Fog"
"-81.15","43.03","LONDON A","6144473","2019-04-16 13:00","2019","04","16","13:00","4.4","","2.9","","90","","11","","14","","11.3","","98.45","","","","","","Rain"
"-81.15","43.03","LONDON A","6144473","2019-04-16 14:00","2019","04","16","14:00","4.3","","2.8","","89","","12","","18","","12.9","","98.41","","","","","","Rain,Fog"
"-81.15","43.03","LONDON A","6144473","2019-04-16 15:00","2019","04","16","15:00","4.0","","2.8","","92","","12","","14","","9.7","","98.31","","","","","","Rain,Fog"
"-81.15","43.03","LONDON A","6144473","2019-04-16 16:00","2019","04","16","16:00","4.2","","3.4","","94","","12","","17","","12.9","","98.19","","","","","","Rain"
"-81.15","43.03","LONDON A","6144473","2019-04-16 17:00","2019","04","16","17:00","4.3","","3.5","","95","","9","","10","","11.3","","98.28","","","","","","Rain"
"-81.15","43.03","LONDON A","6144473","2019-04-16 18:00","2019","04","16","18:00","4.2","","3.5","","95","","7","","12","","16.1","","98.33","","","","","","Rain"
"-81.15","43.03","LONDON A","6144473","2019-04-16 19:00","2019","04","16","19:00","4.1","","3.4","","95","","5","","13","","19.3","","98.35","","","","","","Rain"
"-81.15","43.03","LONDON A","6144473","2019-04-16 20:00","2019","04","16","20:00","3.7","","3.0","","95","","4","","14","","19.3","","98.42","","","","","","Rain"
"-81.15","43.03","LONDON A","6144473","2019-04-16 21:00","2019","04","16","21:00","3.5","","3.1","","97","","6","","15","","8.1","","98.39","","","","","","Rain,Fog"
"-81.15","43.03","LONDON A","6144473","2019-04-16 22:00","2019","04","16","22:00","3.6","","3.1","","97","","7","","21","","12.9","","98.40","","","","","","Rain"
"-81.15","43.03","LONDON A","6144473","2019-04-16 23:00","2019","04","16","23:00","3.3","","2.8","","96","","6","","11","","9.7","","98.44","","","","","","Fog"
"-81.15","43.03","LONDON A","6144473","2019-04-17 00:00","2019","04","17","00:00","2.3","","1.9","","97","","9","","5","","9.7","","98.47","","","","","","Fog"
"-81.15","43.03","LONDON A","6144473","2019-04-17 01:00","2019","04","17","01:00","1.9","","1.6","","98","","10","","7","","6.4","","98.47","","","","","","Fog"
"-81.15","43.03","LONDON A","6144473","2019-04-17 02:00","2019","04","17","02:00","1.7","","1.4","","98","","9","","14","","0.4","","98.48","","","","","","Fog"
"-81.15","43.03","LONDON A","6144473","2019-04-17 03:00","2019","04","17","03:00","1.8","","1.5","","98","","5","","11","","0.4","","98.52","","","","","","Fog"
"-81.15","43.03","LONDON A","6144473","2019-04-17 04:00","2019","04","17","04:00","1.4","","1.1","","98","","8","","5","","0.4","","98.57","","","","","","Fog"
"-81.15","43.03","LONDON A","6144473","2019-04-17 05:00","2019","04","17","05:00","1.0","","0.8","","98","","6","","10","","0.2","","98.56","","","","","","Fog"
"-81.15","43.03","LONDON A","6144473","2019-04-17 06:00","2019","04","17","06:00","-0.1","","-0.3","","98","","7","","7","","0.4","","98.58","","","","-3","","Freezing Fog"
"-81.15","43.03","LONDON A","6144473","2019-04-17 07:00","2019","04","17","07:00","2.3","","-0.1","","84","","8","","14","","24.1","","98.62","","","","","","Mainly Clear"
"-81.15","43.03","LONDON A","6144473","2019-04-17 08:00","2019","04","17","08:00","4.4","","-0.5","","70","","7","","14","","24.1","","98.65","","","","","","NA"
"-81.15","43.03","LONDON A","6144473","2019-04-17 09:00","2019","04","17","09:00","7.3","","1.3","","65","","8","","19","","24.1","","98.63","","","","","","NA"
"-81.15","43.03","LONDON A","6144473","2019-04-17 10:00","2019","04","17","10:00","9.6","","1.4","","56","","9","","24","","24.1","","98.63","","","","","","Mainly Clear"
"-81.15","43.03","LONDON A","6144473","2019-04-17 11:00","2019","04","17","11:00","11.2","","2.3","","54","","7","","26","","24.1","","98.57","","","","","","NA"
"-81.15","43.03","LONDON A","6144473","2019-04-17 12:00","2019","04","17","12:00","13.2","","2.7","","49","","9","","30","","24.1","","98.49","","","","","","NA"
"-81.15","43.03","LONDON A","6144473","2019-04-17 13:00","2019","04","17","13:00","13.9","","2.1","","45","","11","","27","","24.1","","98.43","","","","","","Mainly Clear"
"-81.15","43.03","LONDON A","6144473","2019-04-17 14:00","2019","04","17","14:00","14.8","","3.2","","45","","11","","30","","24.1","","98.34","","","","","","NA"
"-81.15","43.03","LONDON A","6144473","2019-04-17 15:00","2019","04","17","15:00","14.8","","3.8","","48","","10","","27","","24.1","","98.23","","","","","","NA"
"-81.15","43.03","LONDON A","6144473","2019-04-17 16:00","2019","04","17","16:00","14.5","","5.7","","55","","10","","26","","24.1","","98.14","","","","","","Mostly Cloudy"
"-81.15","43.03","LONDON A","6144473","2019-04-17 17:00","2019","04","17","17:00","13.1","","5.6","","60","","10","","30","","24.1","","98.07","","","","","","NA"
"-81.15","43.03","LONDON A","6144473","2019-04-17 18:00","2019","04","17","18:00","11.0","","4.2","","63","","10","","30","","24.1","","98.00","","","","","","NA"
"-81.15","43.03","LONDON A","6144473","2019-04-17 19:00","2019","04","17","19:00","9.5","","3.7","","67","","8","","28","","24.1","","97.94","","","","","","Mostly Cloudy"
"-81.15","43.03","LONDON A","6144473","2019-04-17 20:00","2019","04","17","20:00","8.6","","2.6","","66","","9","","24","","24.1","","97.92","","","","","","NA"
"-81.15","43.03","LONDON A","6144473","2019-04-17 21:00","2019","04","17","21:00","8.0","","2.7","","69","","8","","18","","24.1","","97.86","","","","","","NA"
"-81.15","43.03","LONDON A","6144473","2019-04-17 22:00","2019","04","17","22:00","7.1","","4.4","","83","","11","","16","","19.3","","97.82","","","","","","Rain Showers"
"-81.15","43.03","LONDON A","6144473","2019-04-17 23:00","2019","04","17","23:00","7.0","","5.0","","87","","9","","21","","16.1","","97.69","","","","","","Rain Showers"
"-81.15","43.03","LONDON A","6144473","2019-04-18 00:00","2019","04","18","00:00","7.4","","5.7","","89","","13","","17","","24.1","","97.57","","","","","","NA"
"-81.15","43.03","LONDON A","6144473","2019-04-18 01:00","2019","04","18","01:00","6.8","","5.8","","93","","9","","16","","24.1","","97.48","","","","","","Mostly Cloudy"
"-81.15","43.03","LONDON A","6144473","2019-04-18 02:00","2019","04","18","02:00","7.4","","6.3","","93","","11","","14","","24.1","","97.31","","","","","","NA"
"-81.15","43.03","LONDON A","6144473","2019-04-18 03:00","2019","04","18","03:00","6.5","","5.8","","95","","12","","11","","24.1","","97.25","","","","","","NA"
"-81.15","43.03","LONDON A","6144473","2019-04-18 04:00","2019","04","18","04:00","6.6","","6.1","","97","","13","","10","","24.1","","97.23","","","","","","Mainly Clear"
"-81.15","43.03","LONDON A","6144473","2019-04-18 05:00","2019","04","18","05:00","9.8","","7.5","","86","","15","","9","","24.1","","97.23","","","","","","NA"
"-81.15","43.03","LONDON A","6144473","2019-04-18 06:00","2019","04","18","06:00","11.2","","8.1","","81","","16","","16","","24.1","","97.19","","","","","","NA"
"-81.15","43.03","LONDON A","6144473","2019-04-18 07:00","2019","04","18","07:00","12.3","","8.3","","76","","18","","22","","24.1","","97.19","","","","","","Mostly Cloudy"
"-81.15","43.03","LONDON A","6144473","2019-04-18 08:00","2019","04","18","08:00","13.7","","8.7","","72","","19","","23","","19.3","","97.24","","","","","","NA"
"-81.15","43.03","LONDON A","6144473","2019-04-18 09:00","2019","04","18","09:00","15.7","","9.7","","67","","20","","32","","19.3","","97.17","","","","","","NA"
"-81.15","43.03","LONDON A","6144473","2019-04-18 10:00","2019","04","18","10:00","17.4","","10.3","","63","","20","","28","","24.1","","97.06","","","","","","Cloudy"
"-81.15","43.03","LONDON A","6144473","2019-04-18 11:00","2019","04","18","11:00","17.8","","10.3","","61","","20","","42","","19.3","","97.06","","","","","","NA"
"-81.15","43.03","LONDON A","6144473","2019-04-18 12:00","2019","04","18","12:00","16.9","","11.2","","69","","21","","34","","19.3","","97.12","","","","","","Rain"
"-81.15","43.03","LONDON A","6144473","2019-04-18 13:00","2019","04","18","13:00","18.2","","12.2","","67","","21","","33","","24.1","","97.09","","","","","","Cloudy"
"-81.15","43.03","LONDON A","6144473","2019-04-18 14:00","2019","04","18","14:00","18.4","","12.6","","68","","20","","22","","24.1","","97.00","","","","","","NA"
"-81.15","43.03","LONDON A","6144473","2019-04-18 15:00","2019","04","18","15:00","18.4","","12.7","","69","","21","","27","","24.1","","96.91","","","","","","NA"
"-81.15","43.03","LONDON A","6144473","2019-04-18 16:00","2019","04","18","16:00","19.3","","13.1","","67","","20","","29","","24.1","","96.89","","","","","","Cloudy"
"-81.15","43.03","LONDON A","6144473","2019-04-18 17:00","2019","04","18","17:00","17.6","","13.0","","74","","22","","18","","19.3","","96.86","","","","","","Rain Showers"
"-81.15","43.03","LONDON A","6144473","2019-04-18 18:00","2019","04","18","18:00","16.4","","15.0","","91","","22","","23","","19.3","","96.90","","","","","","Rain Showers"
"-81.15","43.03","LONDON A","6144473","2019-04-18 19:00","2019","04","18","19:00","16.1","","15.1","","94","","23","","31","","3.2","","96.94","","","","","","Moderate Rain Showers,Fog"
"-81.15","43.03","LONDON A","6144473","2019-04-18 20:00","2019","04","18","20:00","15.6","","14.4","","93","","24","","23","","9.7","","96.98","","","","","","Rain Showers,Fog"
"-81.15","43.03","LONDON A","6144473","2019-04-18 21:00","2019","04","18","21:00","14.0","","13.7","","98","","31","","15","","9.7","","97.03","","","","","","Rain Showers,Fog"
"-81.15","43.03","LONDON A","6144473","2019-04-18 22:00","2019","04","18","22:00","12.7","","12.2","","97","","31","","16","","12.9","","96.97","","","","","","Rain Showers"
"-81.15","43.03","LONDON A","6144473","2019-04-18 23:00","2019","04","18","23:00","12.1","","11.8","","98","","30","","16","","12.9","","96.94","","","","","","Rain Showers"
"-81.15","43.03","LONDON A","6144473","2019-04-19 00:00","2019","04","19","00:00","11.0","","10.8","","98","","29","","14","","12.9","","96.98","","","","","","Rain"
"-81.15","43.03","LONDON A","6144473","2019-04-19 01:00","2019","04","19","01:00","7.5","","7.1","","98","","33","","16","","12.9","","96.96","","","","","","Rain"
"-81.15","43.03","LONDON A","6144473","2019-04-19 02:00","2019","04","19","02:00","7.4","","7.0","","97","","32","","14","","24.1","","96.94","","","","","","NA"
"-81.15","43.03","LONDON A","6144473","2019-04-19 03:00","2019","04","19","03:00","7.7","","7.1","","96","","35","","8","","24.1","","96.99","","","","","","NA"
"-81.15","43.03","LONDON A","6144473","2019-04-19 04:00","2019","04","19","04:00","7.6","","7.1","","96","","32","","12","","24.1","","96.95","","","","","","Cloudy"
"-81.15","43.03","LONDON A","6144473","2019-04-19 05:00","2019","04","19","05:00","7.7","","7.2","","97","","34","","14","","24.1","","96.88","","","","","","Rain Showers"
"-81.15","43.03","LONDON A","6144473","2019-04-19 06:00","2019","04","19","06:00","7.5","","7.2","","98","","35","","12","","9.7","","96.85","","","","","","Rain Showers,Fog"
"-81.15","43.03","LONDON A","6144473","2019-04-19 07:00","2019","04","19","07:00","7.5","","7.1","","98","","29","","19","","3.6","","96.92","","","","","","Rain Showers,Fog"
"-81.15","43.03","LONDON A","6144473","2019-04-19 08:00","2019","04","19","08:00","6.0","","5.7","","98","","34","","18","","3.6","","96.90","","","","","","Rain Showers,Fog"
"-81.15","43.03","LONDON A","6144473","2019-04-19 09:00","2019","04","19","09:00","7.4","","7.1","","98","","34","","18","","3.6","","96.96","","","","","","Rain Showers,Fog"
"-81.15","43.03","LONDON A","6144473","2019-04-19 10:00","2019","04","19","10:00","7.8","","7.5","","98","","36","","19","","3.2","","96.99","","","","","","Rain Showers,Fog"
"-81.15","43.03","LONDON A","6144473","2019-04-19 11:00","2019","04","19","11:00","9.1","","8.5","","96","","36","","18","","12.9","","96.99","","","","","","Rain Showers"
"-81.15","43.03","LONDON A","6144473","2019-04-19 12:00","2019","04","19","12:00","9.4","","8.4","","93","","35","","18","","24.1","","97.01","","","","","","NA"
"-81.15","43.03","LONDON A","6144473","2019-04-19 13:00","2019","04","19","13:00","9.1","","7.8","","92","","36","","16","","24.1","","97.08","","","","","","Cloudy"
"-81.15","43.03","LONDON A","6144473","2019-04-19 14:00","2019","04","19","14:00","8.8","","7.4","","91","","35","","17","","24.1","","97.10","","","","","","Rain"
"-81.15","43.03","LONDON A","6144473","2019-04-19 15:00","2019","04","19","15:00","8.3","","6.8","","90","","36","","21","","24.1","","97.06","","","","","","Rain"
"-81.15","43.03","LONDON A","6144473","2019-04-19 16:00","2019","04","19","16:00","6.9","","5.6","","91","","36","","20","","24.1","","97.15","","","","","","Rain"
"-81.15","43.03","LONDON A","6144473","2019-04-19 17:00","2019","04","19","17:00","6.3","","5.2","","93","","2","","23","","9.7","","97.20","","","","","","Rain,Fog"
"-81.15","43.03","LONDON A","6144473","2019-04-19 18:00","2019","04","19","18:00","5.8","","4.3","","90","","2","","25","","24.1","","97.18","","","","","","Rain"
"-81.15","43.03","LONDON A","6144473","2019-04-19 19:00","2019","04","19","19:00","5.4","","3.9","","90","","1","","22","","24.1","","97.20","","","","","","Rain"
"-81.15","43.03","LONDON A","6144473","2019-04-19 20:00","2019","04","19","20:00","5.2","","3.9","","92","","1","","18","","19.3","","97.26","","","","","","Rain"
"-81.15","43.03","LONDON A","6144473","2019-04-19 21:00","2019","04","19","21:00","4.8","","3.8","","93","","1","","19","","19.3","","97.26","","","","","","Rain"
"-81.15","43.03","LONDON A","6144473","2019-04-19 22:00","2019","04","19","22:00","5.1","","3.6","","90","","3","","22","","19.3","","97.25","","","","","","Rain"
"-81.15","43.03","LONDON A","6144473","2019-04-19 23:00","2019","04","19","23:00","4.9","","3.7","","92","","3","","17","","24.1","","97.24","","","","","","Rain"
"-81.15","43.03","LONDON A","6144473","2019-04-20 00:00","2019","04","20","00:00","4.7","","3.8","","94","","2","","18","","19.3","","97.23","","","","","","Rain"
"-81.15","43.03","LONDON A","6144473","2019-04-20 01:00","2019","04","20","01:00","4.6","","3.8","","94","","3","","23","","19.3","","97.18","","","","","","Rain"
"-81.15","43.03","LONDON A","6144473","2019-04-20 02:00","2019","04","20","02:00","4.7","","3.5","","92","","4","","22","","19.3","","97.21","","","","","","Rain"
"-81.15","43.03","LONDON A","6144473","2019-04-20 03:00","2019","04","20","03:00","4.7","","3.4","","91","","3","","20","","19.3","","97.22","","","","","","Rain"
"-81.15","43.03","LONDON A","6144473","2019-04-20 04:00","2019","04","20","04:00","4.5","","3.3","","92","","4","","24","","24.1","","97.17","","","","","","Cloudy"
"-81.15","43.03","LONDON A","6144473","2019-04-20 05:00","2019","04","20","05:00","4.5","","3.2","","91","","4","","30","","19.3","","97.13","","","","","","Rain Showers"
"-81.15","43.03","LONDON A","6144473","2019-04-20 06:00","2019","04","20","06:00","4.6","","3.0","","90","","4","","33","","19.3","","97.09","","","","","","Rain"
"-81.15","43.03","LONDON A","6144473","2019-04-20 07:00","2019","04","20","07:00","4.6","","3.0","","89","","6","","34","","24.1","","97.07","","","","","","Rain"
"-81.15","43.03","LONDON A","6144473","2019-04-20 08:00","2019","04","20","08:00","4.7","","3.4","","91","","6","","34","","9.7","","97.01","","","","","","Rain Showers,Fog"
"-81.15","43.03","LONDON A","6144473","2019-04-20 09:00","2019","04","20","09:00"
"-81.15","43.03","LONDON A","6144473","2019-04-20 10:00","2019","04","20","10:00","5.4","","4.2","","92","","8","","28","","9.7","","97.02","","","","","","Rain Showers,Fog"
"-81.15","43.03","LONDON A","6144473","2019-04-20 11:00","2019","04","20","11:00","5.6","","4.4","","92","","6","","30","","4.8","","96.97","","","","","","Rain Showers,Fog"
"-81.15","43.03","LONDON A","6144473","2019-04-20 12:00","2019","04","20","12:00","5.7","","4.5","","92","","8","","23","","19.3","","97.03","","","","","","Rain Showers"
"-81.15","43.03","LONDON A","6144473","2019-04-20 13:00","2019","04","20","13:00","6.0","","5.0","","93","","6","","16","","8.1","","97.06","","","","","","Rain Showers,Fog"
"-81.15","43.03","LONDON A","6144473","2019-04-20 14:00","2019","04","20","14:00","6.4","","5.0","","91","","7","","32","","16.1","","97.14","","","","","","Rain Showers"
"-81.15","43.03","LONDON A","6144473","2019-04-20 15:00","2019","04","20","15:00","6.5","","5.2","","91","","7","","15","","24.1","","97.16","","","","","","Drizzle"
"-81.15","43.03","LONDON A","6144473","2019-04-20 16:00","2019","04","20","16:00","7.0","","5.4","","90","","7","","15","","24.1","","97.16","","","","","","Cloudy"
"-81.15","43.03","LONDON A","6144473","2019-04-20 17:00","2019","04","20","17:00","7.2","","5.8","","90","","7","","10","","24.1","","97.16","","","","","","NA"
"-81.15","43.03","LONDON A","6144473","2019-04-20 18:00","2019","04","20","18:00","7.3","","5.8","","90","","11","","8","","24.1","","97.30","","","","","","NA"
"-81.15","43.03","LONDON A","6144473","2019-04-20 19:00","2019","04","20","19:00","7.0","","5.7","","92","","10","","10","","24.1","","97.33","","","","","","Cloudy"
"-81.15","43.03","LONDON A","6144473","2019-04-20 20:00","2019","04","20","20:00","6.5","","5.8","","95","","11","","12","","8.1","","97.38","","","","","","Drizzle,Fog"
"-81.15","43.03","LONDON A","6144473","2019-04-20 21:00","2019","04","20","21:00","6.3","","6.0","","98","","34","","5","","6.4","","97.46","","","","","","Drizzle,Fog"
"-81.15","43.03","LONDON A","6144473","2019-04-20 22:00","2019","04","20","22:00","6.3","","6.0","","98","","20","","6","","8.1","","97.53","","","","","","Drizzle,Fog"
"-81.15","43.03","LONDON A","6144473","2019-04-20 23:00","2019","04","20","23:00","6.3","","6.0","","98","","1","","4","","8.1","","97.57","","","","","","Drizzle,Fog"
"-81.15","43.03","LONDON A","6144473","2019-04-21 00:00","2019","04","21","00:00","6.4","","6.1","","98","","20","","4","","4.8","","97.59","","","","","","Drizzle,Fog"
"-81.15","43.03","LONDON A","6144473","2019-04-21 01:00","2019","04","21","01:00","6.4","","6.2","","98","","21","","9","","4.8","","97.64","","","","","","Fog"
"-81.15","43.03","LONDON A","6144473","2019-04-21 02:00","2019","04","21","02:00","6.5","","6.2","","98","","27","","7","","3.2","","97.69","","","","","","Drizzle,Fog"
"-81.15","43.03","LONDON A","6144473","2019-04-21 03:00","2019","04","21","03:00","6.2","","6.0","","99","","29","","13","","0.4","","97.75","","","","","","Fog"
"-81.15","43.03","LONDON A","6144473","2019-04-21 04:00","2019","04","21","04:00","6.1","","5.9","","99","","29","","8","","0.4","","97.80","","","","","","Fog"
"-81.15","43.03","LONDON A","6144473","2019-04-21 05:00","2019","04","21","05:00","5.7","","5.5","","99","","28","","9","","16.1","","97.84","","","","","","Drizzle"
"-81.15","43.03","LONDON A","6144473","2019-04-21 06:00","2019","04","21","06:00","5.5","","5.3","","99","","26","","8","","8.1","","97.99","","","","","","Fog"
"-81.15","43.03","LONDON A","6144473","2019-04-21 07:00","2019","04","21","07:00","5.8","","5.6","","99","","27","","7","","1.6","","98.13","","","","","","Fog"
"-81.15","43.03","LONDON A","6144473","2019-04-21 08:00","2019","04","21","08:00","5.9","","5.7","","99","","31","","3","","19.3","","98.22","","","","","","NA"
"-81.15","43.03","LONDON A","6144473","2019-04-21 09:00","2019","04","21","09:00","7.8","","6.9","","94","","32","","8","","24.1","","98.26","","","","","","NA"
"-81.15","43.03","LONDON A","6144473","2019-04-21 10:00","2019","04","21","10:00","8.7","","7.0","","89","","32","","11","","24.1","","98.33","","","","","","Cloudy"
"-81.15","43.03","LONDON A","6144473","2019-04-21 11:00","2019","04","21","11:00","9.3","","6.5","","82","","34","","4","","24.1","","98.40","","","","","","NA"
"-81.15","43.03","LONDON A","6144473","2019-04-21 12:00","2019","04","21","12:00","11.5","","6.8","","73","","34","","9","","24.1","","98.43","","","","","","NA"
"-81.15","43.03","LONDON A","6144473","2019-04-21 13:00","2019","04","21","13:00","12.5","","6.6","","67","","34","","4","","24.1","","98.48","","","","","","Mostly Cloudy"
"-81.15","43.03","LONDON A","6144473","2019-04-21 14:00","2019","04","21","14:00","13.7","","4.5","","54","","28","","7","","24.1","","98.49","","","","","","NA"
"-81.15","43.03","LONDON A","6144473","2019-04-21 15:00","2019","04","21","15:00","15.6","","3.5","","44","","32","","7","","24.1","","98.49","","","","","","NA"
"-81.15","43.03","LONDON A","6144473","2019-04-21 16:00","2019","04","21","16:00","15.9","","2.0","","39","","26","","12","","24.1","","98.51","","","","","","Mostly Cloudy"
"-81.15","43.03","LONDON A","6144473","2019-04-21 17:00","2019","04","21","17:00","15.0","","1.4","","39","","29","","7","","24.1","","98.56","","","","","","NA"
"-81.15","43.03","LONDON A","6144473","2019-04-21 18:00","2019","04","21","18:00","11.9","","8.2","","78","","18","","14","","24.1","","98.64","","","","","","NA"
"-81.15","43.03","LONDON A","6144473","2019-04-21 19:00","2019","04","21","19:00","9.8","","7.2","","84","","16","","18","","24.1","","98.70","","","","","","Cloudy"
"-81.15","43.03","LONDON A","6144473","2019-04-21 20:00","2019","04","21","20:00","8.8","","6.6","","86","","19","","11","","24.1","","98.77","","","","","","NA"
"-81.15","43.03","LONDON A","6144473","2019-04-21 21:00","2019","04","21","21:00","8.2","","6.4","","88","","19","","11","","24.1","","98.84","","","","","","NA"
"-81.15","43.03","LONDON A","6144473","2019-04-21 22:00","2019","04","21","22:00","7.3","","5.7","","89","","19","","12","","24.1","","98.87","","","","","","Mainly Clear"
"-81.15","43.03","LONDON A","6144473","2019-04-21 23:00","2019","04","21","23:00","6.8","","5.5","","91","","16","","6","","24.1","","98.90","","","","","","NA"
"-81.15","43.03","LONDON A","6144473","2019-04-22 00:00","2019","04","22","00:00","5.7","","4.8","","94","","13","","5","","24.1","","98.93","","","","","","NA"
"-81.15","43.03","LONDON A","6144473","2019-04-22 01:00","2019","04","22","01:00","4.7","","4.3","","97","","11","","6","","16.1","","98.94","","","","","","Clear"
"-81.15","43.03","LONDON A","6144473","2019-04-22 02:00","2019","04","22","02:00","4.3","","4.0","","98","","10","","8","","16.1","","98.92","","","","","","NA"
"-81.15","43.03","LONDON A","6144473","2019-04-22 03:00","2019","04","22","03:00","3.7","","3.4","","98","","12","","8","","16.1","","98.95","","","","","","NA"
"-81.15","43.03","LONDON A","6144473","2019-04-22 04:00","2019","04","22","04:00","3.8","","3.5","","98","","35","","3","","16.1","","98.94","","","","","","Mainly Clear"
"-81.15","43.03","LONDON A","6144473","2019-04-22 05:00","2019","04","22","05:00","4.0","","3.8","","99","","8","","5","","12.9","","98.97","","","","","","NA"
"-81.15","43.03","LONDON A","6144473","2019-04-22 06:00","2019","04","22","06:00","4.8","","4.6","","98","","8","","7","","12.9","","98.99","","","","","","NA"
"-81.15","43.03","LONDON A","6144473","2019-04-22 07:00","2019","04","22","07:00","6.2","","6.0","","98","","0","","1","","16.1","","99.06","","","","","","Mostly Cloudy"
"-81.15","43.03","LONDON A","6144473","2019-04-22 08:00","2019","04","22","08:00","8.2","","6.3","","88","","16","","7","","19.3","","99.09","","","","","","NA"
"-81.15","43.03","LONDON A","6144473","2019-04-22 09:00","2019","04","22","09:00","10.1","","6.3","","77","","16","","7","","24.1","","99.12","","","","","","NA"
"-81.15","43.03","LONDON A","6144473","2019-04-22 10:00","2019","04","22","10:00","11.7","","6.4","","70","","15","","11","","24.1","","99.11","","","","","","Mostly Cloudy"
"-81.15","43.03","LONDON A","6144473","2019-04-22 11:00","2019","04","22","11:00","13.0","","8.0","","71","","17","","8","","24.1","","99.09","","","","","","NA"
"-81.15","43.03","LONDON A","6144473","2019-04-22 12:00","2019","04","22","12:00","14.6","","5.7","","55","","17","","16","","24.1","","99.02","","","","","","NA"
"-81.15","43.03","LONDON A","6144473","2019-04-22 13:00","2019","04","22","13:00","15.8","","6.8","","55","","14","","15","","24.1","","98.95","","","","","","Mainly Clear"
"-81.15","43.03","LONDON A","6144473","2019-04-22 14:00","2019","04","22","14:00","16.8","","8.9","","59","","16","","12","","24.1","","98.89","","","","","","NA"
"-81.15","43.03","LONDON A","6144473","2019-04-22 15:00","2019","04","22","15:00","16.6","","7.4","","54","","16","","21","","24.1","","98.80","","","","","","NA"
"-81.15","43.03","LONDON A","6144473","2019-04-22 16:00","2019","04","22","16:00","16.1","","7.6","","57","","15","","20","","24.1","","98.73","","","","","","Mainly Clear"
"-81.15","43.03","LONDON A","6144473","2019-04-22 17:00","2019","04","22","17:00","15.4","","6.8","","56","","19","","19","","24.1","","98.70","","","","","","NA"
"-81.15","43.03","LONDON A","6144473","2019-04-22 18:00","2019","04","22","18:00","14.3","","5.9","","57","","18","","18","","24.1","","98.68","","","","","","NA"
"-81.15","43.03","LONDON A","6144473","2019-04-22 19:00","2019","04","22","19:00","12.6","","5.5","","62","","17","","13","","24.1","","98.65","","","","","","Mainly Clear"
"-81.15","43.03","LONDON A","6144473","2019-04-22 20:00","2019","04","22","20:00","10.6","","5.7","","71","","14","","5","","24.1","","98.61","","","","","","NA"
"-81.15","43.03","LONDON A","6144473","2019-04-22 21:00","2019","04","22","21:00","10.2","","6.4","","77","","11","","8","","24.1","","98.59","","","","","","NA"
"-81.15","43.03","LONDON A","6144473","2019-04-22 22:00","2019","04","22","22:00","10.2","","6.4","","77","","12","","8","","24.1","","98.53","","","","","","Mostly Cloudy"
"-81.15","43.03","LONDON A","6144473","2019-04-22 23:00","2019","04","22","23:00","10.0","","6.6","","79","","12","","9","","24.1","","98.52","","","","","","NA"
"-81.15","43.03","LONDON A","6144473","2019-04-23 00:00","2019","04","23","00:00","10.1","","7.0","","81","","12","","14","","24.1","","98.46","","","","","","NA"
"-81.15","43.03","LONDON A","6144473","2019-04-23 01:00","2019","04","23","01:00","10.1","","6.7","","79","","12","","21","","24.1","","98.31","","","","","","Cloudy"
"-81.15","43.03","LONDON A","6144473","2019-04-23 02:00","2019","04","23","02:00","10.3","","6.6","","77","","13","","14","","24.1","","98.25","","","","","","NA"
"-81.15","43.03","LONDON A","6144473","2019-04-23 03:00","2019","04","23","03:00","10.6","","6.5","","76","","14","","17","","24.1","","98.17","","","","","","NA"
"-81.15","43.03","LONDON A","6144473","2019-04-23 04:00","2019","04","23","04:00","8.9","","6.3","","84","","12","","14","","24.1","","98.10","","","","","","Mainly Clear"
"-81.15","43.03","LONDON A","6144473","2019-04-23 05:00","2019","04","23","05:00","9.8","","6.7","","81","","14","","15","","24.1","","97.98","","","","","","NA"
"-81.15","43.03","LONDON A","6144473","2019-04-23 06:00","2019","04","23","06:00","10.8","","6.7","","75","","16","","12","","24.1","","97.90","","","","","","NA"
"-81.15","43.03","LONDON A","6144473","2019-04-23 07:00","2019","04","23","07:00","11.7","","7.0","","73","","15","","15","","24.1","","97.83","","","","","","Cloudy"
"-81.15","43.03","LONDON A","6144473","2019-04-23 08:00","2019","04","23","08:00","14.0","","8.0","","67","","18","","23","","24.1","","97.77","","","","","","NA"
"-81.15","43.03","LONDON A","6144473","2019-04-23 09:00","2019","04","23","09:00","13.6","","8.9","","73","","18","","19","","19.3","","97.69","","","","","","Thunderstorms,Rain Showers"
"-81.15","43.03","LONDON A","6144473","2019-04-23 10:00","2019","04","23","10:00","15.1","","9.6","","69","","18","","27","","24.1","","97.55","","","","","","Cloudy"
"-81.15","43.03","LONDON A","6144473","2019-04-23 11:00","2019","04","23","11:00","15.5","","9.8","","69","","20","","32","","24.1","","97.46","","","","","","NA"
"-81.15","43.03","LONDON A","6144473","2019-04-23 12:00","2019","04","23","12:00","17.6","","11.6","","68","","20","","26","","24.1","","97.36","","","","","","NA"
"-81.15","43.03","LONDON A","6144473","2019-04-23 13:00","2019","04","23","13:00","18.9","","12.4","","66","","25","","23","","24.1","","97.32","","","","","","Cloudy"
"-81.15","43.03","LONDON A","6144473","2019-04-23 14:00","2019","04","23","14:00","13.6","","11.6","","87","","31","","35","","24.1","","97.44","","","","","","Rain Showers"
"-81.15","43.03","LONDON A","6144473","2019-04-23 15:00","2019","04","23","15:00","8.9","","8.1","","94","","31","","31","","16.1","","97.56","","","","","","NA"
"-81.15","43.03","LONDON A","6144473","2019-04-23 16:00","2019","04","23","16:00","8.6","","7.9","","95","","31","","22","","16.1","","97.63","","","","","","Drizzle"
"-81.15","43.03","LONDON A","6144473","2019-04-23 17:00","2019","04","23","17:00","8.2","","7.0","","92","","30","","26","","24.1","","97.72","","","","","","NA"
"-81.15","43.03","LONDON A","6144473","2019-04-23 18:00","2019","04","23","18:00","6.4","","5.8","","96","","31","","19","","4.8","","97.83","","","","","","Drizzle,Fog"
"-81.15","43.03","LONDON A","6144473","2019-04-23 19:00","2019","04","23","19:00","5.3","","4.6","","95","","31","","25","","4.8","","97.90","","","","","","Drizzle,Fog"
"-81.15","43.03","LONDON A","6144473","2019-04-23 20:00","2019","04","23","20:00","5.3","","4.2","","93","","31","","17","","16.1","","97.96","","","","","","Drizzle"
"-81.15","43.03","LONDON A","6144473","2019-04-23 21:00","2019","04","23","21:00","5.5","","3.3","","86","","31","","21","","19.3","","98.01","","","","","","NA"
"-81.15","43.03","LONDON A","6144473","2019-04-23 22:00","2019","04","23","22:00","5.7","","2.5","","80","","30","","20","","19.3","","98.01","","","","","","Cloudy"
"-81.15","43.03","LONDON A","6144473","2019-04-23 23:00","2019","04","23","23:00","5.8","","2.1","","77","","30","","19","","24.1","","98.04","","","","","","NA"
"-81.15","43.03","LONDON A","6144473","2019-04-24 00:00","2019","04","24","00:00","5.8","","1.9","","76","","29","","22","","24.1","","98.07","","","","","","NA"
"-81.15","43.03","LONDON A","6144473","2019-04-24 01:00","2019","04","24","01:00","5.6","","1.8","","76","","30","","21","","24.1","","98.07","","","","","","Cloudy"
"-81.15","43.03","LONDON A","6144473","2019-04-24 02:00","2019","04","24","02:00","5.3","","1.4","","76","","30","","26","","24.1","","98.05","","","","","","NA"
"-81.15","43.03","LONDON A","6144473","2019-04-24 03:00","2019","04","24","03:00","4.3","","0.4","","76","","31","","27","","24.1","","98.10","","","","","","NA"
"-81.15","43.03","LONDON A","6144473","2019-04-24 04:00","2019","04","24","04:00","2.5","","-0.3","","82","","31","","21","","24.1","","98.10","","","","","","Clear"
"-81.15","43.03","LONDON A","6144473","2019-04-24 05:00","2019","04","24","05:00","1.6","","-0.3","","87","","30","","12","","24.1","","98.11","","","","","","NA"
"-81.15","43.03","LONDON A","6144473","2019-04-24 06:00","2019","04","24","06:00","1.6","","0.1","","89","","28","","12","","24.1","","98.16","","","","","","NA"
"-81.15","43.03","LONDON A","6144473","2019-04-24 07:00","2019","04","24","07:00","3.0","","0.6","","84","","30","","15","","24.1","","98.19","","","","","","Mainly Clear"
"-81.15","43.03","LONDON A","6144473","2019-04-24 08:00","2019","04","24","08:00","3.8","","0.2","","78","","32","","24","","24.1","","98.27","","","","","","NA"
"-81.15","43.03","LONDON A","6144473","2019-04-24 09:00","2019","04","24","09:00","5.6","","1.4","","74","","28","","22","","24.1","","98.31","","","","","","NA"
"-81.15","43.03","LONDON A","6144473","2019-04-24 10:00","2019","04","24","10:00","7.0","","1.7","","69","","31","","20","","24.1","","98.29","","","","","","Mainly Clear"
"-81.15","43.03","LONDON A","6144473","2019-04-24 11:00","2019","04","24","11:00","8.1","","1.6","","63","","31","","26","","24.1","","98.25","","","","","","NA"
"-81.15","43.03","LONDON A","6144473","2019-04-24 12:00","2019","04","24","12:00","9.3","","2.6","","63","","28","","22","","24.1","","98.25","","","","","","NA"
"-81.15","43.03","LONDON A","6144473","2019-04-24 13:00","2019","04","24","13:00","9.5","","1.3","","56","","29","","15","","24.1","","98.18","","","","","","Mainly Clear"
"-81.15","43.03","LONDON A","6144473","2019-04-24 14:00","2019","04","24","14:00","10.9","","1.3","","51","","31","","18","","24.1","","98.17","","","","","","NA"
"-81.15","43.03","LONDON A","6144473","2019-04-24 15:00","2019","04","24","15:00","11.0","","1.6","","52","","28","","19","","24.1","","98.15","","","","","","NA"
"-81.15","43.03","LONDON A","6144473","2019-04-24 16:00","2019","04","24","16:00","10.8","","1.3","","52","","34","","17","","24.1","","98.09","","","","","","Mostly Cloudy"
"-81.15","43.03","LONDON A","6144473","2019-04-24 17:00","2019","04","24","17:00","10.2","","0.1","","49","","31","","13","","24.1","","98.08","","","","","","NA"
"-81.15","43.03","LONDON A","6144473","2019-04-24 18:00","2019","04","24","18:00","9.3","","1.1","","56","","28","","8","","24.1","","98.11","","","","","","NA"
"-81.15","43.03","LONDON A","6144473","2019-04-24 19:00","2019","04","24","19:00","8.1","","-0.3","","55","","30","","10","","24.1","","98.07","","","","","","Mostly Cloudy"
"-81.15","43.03","LONDON A","6144473","2019-04-24 20:00","2019","04","24","20:00","6.6","","0.8","","66","","28","","6","","24.1","","98.12","","","","","","NA"
"-81.15","43.03","LONDON A","6144473","2019-04-24 21:00","2019","04","24","21:00","5.5","","0.6","","71","","1","","4","","24.1","","98.11","","","","","","NA"
"-81.15","43.03","LONDON A","6144473","2019-04-24 22:00","2019","04","24","22:00","4.0","","0.8","","79","","11","","5","","24.1","","98.07","","","","","","Mostly Cloudy"
"-81.15","43.03","LONDON A","6144473","2019-04-24 23:00","2019","04","24","23:00","3.5","","0.6","","81","","36","","1","","24.1","","98.06","","","","","","NA"
"-81.15","43.03","LONDON A","6144473","2019-04-25 00:00","2019","04","25","00:00","2.5","","0.2","","85","","17","","3","","24.1","","98.05","","","","","","NA"
"-81.15","43.03","LONDON A","6144473","2019-04-25 01:00","2019","04","25","01:00","1.3","","0.2","","92","","4","","3","","24.1","","97.98","","","","","","Clear"
"-81.15","43.03","LONDON A","6144473","2019-04-25 02:00","2019","04","25","02:00","0.7","","-0.8","","90","","12","","4","","24.1","","97.96","","","","","","NA"
"-81.15","43.03","LONDON A","6144473","2019-04-25 03:00","2019","04","25","03:00","-0.4","","-1.8","","90","","7","","7","","24.1","","97.98","","","","-3","","NA"
"-81.15","43.03","LONDON A","6144473","2019-04-25 04:00","2019","04","25","04:00","0.2","","-0.8","","93","","7","","7","","24.1","","97.95","","","","","","Mostly Cloudy"
"-81.15","43.03","LONDON A","6144473","2019-04-25 05:00","2019","04","25","05:00","2.0","","0.2","","88","","9","","9","","24.1","","97.90","","","","","","NA"
"-81.15","43.03","LONDON A","6144473","2019-04-25 06:00","2019","04","25","06:00","3.4","","0.8","","83","","12","","7","","24.1","","97.99","","","","","","NA"
"-81.15","43.03","LONDON A","6144473","2019-04-25 07:00","2019","04","25","07:00","4.9","","2.1","","82","","11","","10","","24.1","","97.99","","","","","","Mostly Cloudy"
"-81.15","43.03","LONDON A","6144473","2019-04-25 08:00","2019","04","25","08:00","7.1","","2.9","","75","","13","","13","","24.1","","97.97","","","","","","NA"
"-81.15","43.03","LONDON A","6144473","2019-04-25 09:00","2019","04","25","09:00","9.5","","3.1","","64","","15","","11","","24.1","","97.97","","","","","","NA"
"-81.15","43.03","LONDON A","6144473","2019-04-25 10:00","2019","04","25","10:00","10.7","","2.5","","57","","15","","12","","24.1","","97.95","","","","","","Mostly Cloudy"
"-81.15","43.03","LONDON A","6144473","2019-04-25 11:00","2019","04","25","11:00","11.8","","1.0","","47","","11","","9","","24.1","","97.89","","","","","","Rain"
"-81.15","43.03","LONDON A","6144473","2019-04-25 12:00","2019","04","25","12:00","13.8","","-0.2","","38","","15","","12","","24.1","","97.82","","","","","","NA"
"-81.15","43.03","LONDON A","6144473","2019-04-25 13:00","2019","04","25","13:00","15.0","","-0.6","","34","","13","","14","","24.1","","97.75","","","","","","Cloudy"
"-81.15","43.03","LONDON A","6144473","2019-04-25 14:00","2019","04","25","14:00","16.0","","-1.4","","30","","11","","10","","24.1","","97.69","","","","","","NA"
"-81.15","43.03","LONDON A","6144473","2019-04-25 15:00","2019","04","25","15:00","15.6","","-1.7","","30","","14","","7","","24.1","","97.70","","","","","","NA"
"-81.15","43.03","LONDON A","6144473","2019-04-25 16:00","2019","04","25","16:00","15.1","","-0.6","","34","","13","","13","","24.1","","97.62","","","","","","Cloudy"
"-81.15","43.03","LONDON A","6144473","2019-04-25 17:00","2019","04","25","17:00","14.6","","0.0","","36","","11","","14","","24.1","","97.57","","","","","","Rain Showers"
"-81.15","43.03","LONDON A","6144473","2019-04-25 18:00","2019","04","25","18:00","13.9","","-1.9","","33","","11","","15","","24.1","","97.53","","","","","","NA"
"-81.15","43.03","LONDON A","6144473","2019-04-25 19:00","2019","04","25","19:00","13.2","","-3.5","","31","","10","","17","","24.1","","97.46","","","","","","Cloudy"
"-81.15","43.03","LONDON A","6144473","2019-04-25 20:00","2019","04","25","20:00","12.1","","-0.3","","42","","10","","15","","24.1","","97.42","","","","","","Rain Showers"
"-81.15","43.03","LONDON A","6144473","2019-04-25 21:00","2019","04","25","21:00","12.2","","0.6","","45","","10","","21","","24.1","","97.37","","","","","","NA"
"-81.15","43.03","LONDON A","6144473","2019-04-25 22:00","2019","04","25","22:00","11.1","","3.5","","59","","11","","17","","24.1","","97.29","","","","","","Cloudy"
"-81.15","43.03","LONDON A","6144473","2019-04-25 23:00","2019","04","25","23:00","9.8","","4.1","","68","","8","","16","","24.1","","97.18","","","","","","NA"
"-81.15","43.03","LONDON A","6144473","2019-04-26 00:00","2019","04","26","00:00","9.2","","3.9","","70","","8","","21","","24.1","","97.03","","","","","","NA"
"-81.15","43.03","LONDON A","6144473","2019-04-26 01:00","2019","04","26","01:00","8.5","","5.6","","82","","9","","27","","24.1","","96.89","","","","","","Rain"
"-81.15","43.03","LONDON A","6144473","2019-04-26 02:00","2019","04","26","02:00","7.5","","6.8","","95","","8","","23","","9.7","","96.66","","","","","","Rain,Fog"
"-81.15","43.03","LONDON A","6144473","2019-04-26 03:00","2019","04","26","03:00","7.7","","7.4","","98","","7","","22","","3.2","","96.44","","","","","","Rain,Fog"
"-81.15","43.03","LONDON A","6144473","2019-04-26 04:00","2019","04","26","04:00","8.1","","7.8","","98","","7","","23","","2.4","","96.25","","","","","","Rain,Fog"
"-81.15","43.03","LONDON A","6144473","2019-04-26 05:00","2019","04","26","05:00","8.1","","7.8","","98","","7","","27","","3.2","","96.10","","","","","","Moderate Rain"
"-81.15","43.03","LONDON A","6144473","2019-04-26 06:00","2019","04","26","06:00","8.5","","8.2","","98","","8","","16","","2.4","","95.97","","","","","","Moderate Rain,Fog"
"-81.15","43.03","LONDON A","6144473","2019-04-26 07:00","2019","04","26","07:00","9.1","","8.9","","99","","7","","13","","4.0","","95.85","","","","","","Rain,Fog"
"-81.15","43.03","LONDON A","6144473","2019-04-26 08:00","2019","04","26","08:00","8.7","","8.5","","99","","33","","22","","3.2","","95.79","","","","","","Rain,Fog"
"-81.15","43.03","LONDON A","6144473","2019-04-26 09:00","2019","04","26","09:00","8.6","","8.2","","98","","30","","23","","4.8","","95.83","","","","","","Rain,Fog"
"-81.15","43.03","LONDON A","6144473","2019-04-26 10:00","2019","04","26","10:00","8.4","","7.5","","94","","30","","20","","6.4","","95.95","","","","","","Rain,Fog"
"-81.15","43.03","LONDON A","6144473","2019-04-26 11:00","2019","04","26","11:00","6.9","","6.2","","95","","30","","28","","12.9","","96.06","","","","","","Rain"
"-81.15","43.03","LONDON A","6144473","2019-04-26 12:00","2019","04","26","12:00","6.5","","4.7","","88","","31","","34","","12.9","","96.17","","","","","","NA"
"-81.15","43.03","LONDON A","6144473","2019-04-26 13:00","2019","04","26","13:00","6.3","","4.1","","86","","30","","32","","24.1","","96.35","","","","","","Cloudy"
"-81.15","43.03","LONDON A","6144473","2019-04-26 14:00","2019","04","26","14:00","6.8","","4.8","","87","","31","","28","","24.1","","96.45","","","","","","NA"
"-81.15","43.03","LONDON A","6144473","2019-04-26 15:00","2019","04","26","15:00","6.5","","5.2","","91","","30","","23","","16.1","","96.58","","","","","","NA"
"-81.15","43.03","LONDON A","6144473","2019-04-26 16:00","2019","04","26","16:00","8.0","","4.6","","79","","32","","32","","24.1","","96.66","","","","","","Mostly Cloudy"
"-81.15","43.03","LONDON A","6144473","2019-04-26 17:00","2019","04","26","17:00","8.9","","3.8","","70","","31","","24","","24.1","","96.73","","","","","","NA"
"-81.15","43.03","LONDON A","6144473","2019-04-26 18:00","2019","04","26","18:00","9.1","","2.5","","63","","31","","22","","24.1","","96.81","","","","","","NA"
"-81.15","43.03","LONDON A","6144473","2019-04-26 19:00","2019","04","26","19:00","7.8","","2.7","","70","","31","","28","","24.1","","96.92","","","","","","Mostly Cloudy"
"-81.15","43.03","LONDON A","6144473","2019-04-26 20:00","2019","04","26","20:00","6.5","","2.1","","74","","30","","19","","24.1","","97.00","","","","","","NA"
"-81.15","43.03","LONDON A","6144473","2019-04-26 21:00","2019","04","26","21:00","6.1","","0.6","","68","","29","","27","","24.1","","97.07","","","","","","NA"
"-81.15","43.03","LONDON A","6144473","2019-04-26 22:00","2019","04","26","22:00","5.5","","0.2","","69","","30","","23","","24.1","","97.09","","","","","","Mostly Cloudy"
"-81.15","43.03","LONDON A","6144473","2019-04-26 23:00","2019","04","26","23:00","3.6","","-1.5","","70","","31","","25","","24.1","","97.14","","","","","","NA"
"-81.15","43.03","LONDON A","6144473","2019-04-27 00:00","2019","04","27","00:00","2.8","","-2.6","","68","","30","","31","","24.1","","97.16","","","","","","NA"
"-81.15","43.03","LONDON A","6144473","2019-04-27 01:00","2019","04","27","01:00","2.6","","-3.0","","67","","30","","33","","24.1","","97.15","","","","","","Cloudy"
"-81.15","43.03","LONDON A","6144473","2019-04-27 02:00","2019","04","27","02:00","2.3","","-3.2","","67","","29","","34","","24.1","","97.13","","","","","","NA"
"-81.15","43.03","LONDON A","6144473","2019-04-27 03:00","2019","04","27","03:00","1.7","","-3.8","","67","","30","","36","","24.1","","97.13","","","","","","NA"
"-81.15","43.03","LONDON A","6144473","2019-04-27 04:00","2019","04","27","04:00","1.4","","-2.9","","73","","29","","30","","24.1","","97.16","","","","","","Snow Showers"
"-81.15","43.03","LONDON A","6144473","2019-04-27 05:00","2019","04","27","05:00","0.5","","-2.4","","81","","30","","33","","24.1","","97.19","","","","","","Snow Showers"
"-81.15","43.03","LONDON A","6144473","2019-04-27 06:00","2019","04","27","06:00","0.2","","-2.6","","81","","30","","28","","16.1","","97.30","","","","","","Snow Showers,Blowing Snow"
"-81.15","43.03","LONDON A","6144473","2019-04-27 07:00","2019","04","27","07:00","0.6","","-3.1","","76","","30","","31","","24.1","","97.35","","","","","","Cloudy"
"-81.15","43.03","LONDON A","6144473","2019-04-27 08:00","2019","04","27","08:00","0.7","","-2.8","","77","","30","","25","","24.1","","97.46","","","","","","NA"
"-81.15","43.03","LONDON A","6144473","2019-04-27 09:00","2019","04","27","09:00","1.1","","-3.4","","72","","30","","41","","24.1","","97.47","","","","","","NA"
"-81.15","43.03","LONDON A","6144473","2019-04-27 10:00","2019","04","27","10:00","2.0","","-2.5","","72","","30","","34","","24.1","","97.63","","","","","","Cloudy"
"-81.15","43.03","LONDON A","6144473","2019-04-27 11:00","2019","04","27","11:00","3.2","","-1.7","","70","","31","","31","","24.1","","97.63","","","","","","NA"
"-81.15","43.03","LONDON A","6144473","2019-04-27 12:00","2019","04","27","12:00","3.2","","-1.8","","69","","30","","28","","24.1","","97.73","","","","","","NA"
"-81.15","43.03","LONDON A","6144473","2019-04-27 13:00","2019","04","27","13:00","4.7","","-0.4","","69","","29","","18","","24.1","","97.79","","","","","","Cloudy"
"-81.15","43.03","LONDON A","6144473","2019-04-27 14:00","2019","04","27","14:00","6.1","","-0.2","","64","","27","","24","","24.1","","97.80","","","","","","NA"
"-81.15","43.03","LONDON A","6144473","2019-04-27 15:00","2019","04","27","15:00","7.0","","0.8","","64","","30","","16","","24.1","","97.79","","","","","","NA"
"-81.15","43.03","LONDON A","6144473","2019-04-27 16:00","2019","04","27","16:00","8.2","","1.2","","61","","29","","16","","24.1","","97.76","","","","","","Cloudy"
"-81.15","43.03","LONDON A","6144473","2019-04-27 17:00","2019","04","27","17:00","8.1","","1.2","","62","","26","","9","","24.1","","97.75","","","","","","NA"
"-81.15","43.03","LONDON A","6144473","2019-04-27 18:00","2019","04","27","18:00","7.8","","1.3","","63","","29","","9","","24.1","","97.74","","","","","","NA"
"-81.15","43.03","LONDON A","6144473","2019-04-27 19:00","2019","04","27","19:00","6.9","","1.6","","69","","34","","8","","24.1","","97.78","","","","","","Cloudy"
"-81.15","43.03","LONDON A","6144473","2019-04-27 20:00","2019","04","27","20:00","6.7","","0.9","","67","","36","","2","","24.1","","97.83","","","","","","NA"
"-81.15","43.03","LONDON A","6144473","2019-04-27 21:00","2019","04","27","21:00","5.9","","2.0","","76","","33","","5","","24.1","","97.88","","","","","","NA"
"-81.15","43.03","LONDON A","6144473","2019-04-27 22:00","2019","04","27","22:00","5.6","","2.4","","80","","1","","6","","24.1","","97.85","","","","","","Cloudy"
"-81.15","43.03","LONDON A","6144473","2019-04-27 23:00","2019","04","27","23:00","4.3","","1.9","","84","","1","","13","","16.1","","97.91","","","","","","Rain"
"-81.15","43.03","LONDON A","6144473","2019-04-28 00:00","2019","04","28","00:00","0.8","","-0.7","","90","","1","","18","","4.8","","97.94","","","","","","Rain,Fog"
"-81.15","43.03","LONDON A","6144473","2019-04-28 01:00","2019","04","28","01:00","0.2","","-0.4","","96","","35","","8","","1.6","","97.97","","","","","","Snow,Fog"
"-81.15","43.03","LONDON A","6144473","2019-04-28 02:00","2019","04","28","02:00","0.2","","-0.2","","97","","36","","2","","4.8","","97.94","","","","","","Snow,Fog"
"-81.15","43.03","LONDON A","6144473","2019-04-28 03:00","2019","04","28","03:00","0.4","","-0.4","","95","","36","","2","","19.3","","97.97","","","","","","Snow"
"-81.15","43.03","LONDON A","6144473","2019-04-28 04:00","2019","04","28","04:00","0.4","","-0.2","","95","","1","","4","","24.1","","98.01","","","","","","Cloudy"
"-81.15","43.03","LONDON A","6144473","2019-04-28 05:00","2019","04","28","05:00","0.7","","0.1","","96","","1","","7","","24.1","","98.06","","","","","","NA"
"-81.15","43.03","LONDON A","6144473","2019-04-28 06:00","2019","04","28","06:00","1.2","","-1.4","","83","","36","","12","","24.1","","98.16","","","","","","NA"
"-81.15","43.03","LONDON A","6144473","2019-04-28 07:00","2019","04","28","07:00","1.8","","-1.2","","81","","2","","12","","24.1","","98.33","","","","","","Mostly Cloudy"
"-81.15","43.03","LONDON A","6144473","2019-04-28 08:00","2019","04","28","08:00","4.1","","-0.4","","73","","4","","17","","24.1","","98.42","","","","","","NA"
"-81.15","43.03","LONDON A","6144473","2019-04-28 09:00","2019","04","28","09:00","5.2","","-2.8","","56","","3","","19","","24.1","","98.52","","","","","","NA"
"-81.15","43.03","LONDON A","6144473","2019-04-28 10:00","2019","04","28","10:00","6.8","","-3.7","","47","","3","","23","","24.1","","98.62","","","","","","Mainly Clear"
"-81.15","43.03","LONDON A","6144473","2019-04-28 11:00","2019","04","28","11:00","8.4","","-4.0","","41","","35","","23","","24.1","","98.62","","","","","","NA"
"-81.15","43.03","LONDON A","6144473","2019-04-28 12:00","2019","04","28","12:00","8.8","","-3.8","","41","","34","","21","","24.1","","98.72","","","","","","NA"
"-81.15","43.03","LONDON A","6144473","2019-04-28 13:00","2019","04","28","13:00","9.2","","-5.0","","36","","32","","19","","24.1","","98.82","","","","","","Mainly Clear"
"-81.15","43.03","LONDON A","6144473","2019-04-28 14:00","2019","04","28","14:00","9.8","","-3.2","","40","","33","","17","","24.1","","98.86","","","","","","NA"
"-81.15","43.03","LONDON A","6144473","2019-04-28 15:00","2019","04","28","15:00","9.3","","-1.3","","47","","32","","23","","24.1","","98.95","","","","","","NA"
"-81.15","43.03","LONDON A","6144473","2019-04-28 16:00","2019","04","28","16:00","9.1","","-3.0","","42","","33","","21","","24.1","","98.93","","","","","","Mainly Clear"
"-81.15","43.03","LONDON A","6144473","2019-04-28 17:00","2019","04","28","17:00","8.6","","-4.0","","41","","34","","16","","24.1","","99.01","","","","","","NA"
"-81.15","43.03","LONDON A","6144473","2019-04-28 18:00","2019","04","28","18:00","7.8","","-3.0","","46","","34","","13","","24.1","","99.12","","","","","","NA"
"-81.15","43.03","LONDON A","6144473","2019-04-28 19:00","2019","04","28","19:00","6.2","","-5.7","","42","","32","","16","","24.1","","99.16","","","","","","Clear"
"-81.15","43.03","LONDON A","6144473","2019-04-28 20:00","2019","04","28","20:00","4.3","","-4.8","","52","","34","","8","","24.1","","99.20","","","","","","NA"
"-81.15","43.03","LONDON A","6144473","2019-04-28 21:00","2019","04","28","21:00","3.1","","-4.1","","59","","33","","7","","24.1","","99.29","","","","","","NA"
"-81.15","43.03","LONDON A","6144473","2019-04-28 22:00","2019","04","28","22:00","0.9","","-4.2","","69","","2","","8","","24.1","","99.29","","","","","","Clear"
"-81.15","43.03","LONDON A","6144473","2019-04-28 23:00","2019","04","28","23:00","1.0","","-5.2","","63","","4","","7","","24.1","","99.31","","","","","","NA"
"-81.15","43.03","LONDON A","6144473","2019-04-29 00:00","2019","04","29","00:00","0.9","","-5.6","","62","","6","","9","","24.1","","99.32","","","","","","NA"
"-81.15","43.03","LONDON A","6144473","2019-04-29 01:00","2019","04","29","01:00","0.4","","-5.3","","66","","6","","9","","24.1","","99.34","","","","","","Clear"
"-81.15","43.03","LONDON A","6144473","2019-04-29 02:00","2019","04","29","02:00","-0.1","","-5.4","","67","","6","","6","","24.1","","99.38","","","","-2","","NA"
"-81.15","43.03","LONDON A","6144473","2019-04-29 03:00","2019","04","29","03:00","-0.5","","-4.9","","72","","7","","11","","24.1","","99.36","","","","-4","","NA"
"-81.15","43.03","LONDON A","6144473","2019-04-29 04:00","2019","04","29","04:00","0.4","","-4.0","","72","","8","","12","","24.1","","99.37","","","","","","Mainly Clear"
"-81.15","43.03","LONDON A","6144473","2019-04-29 05:00","2019","04","29","05:00","0.8","","-5.3","","64","","7","","18","","24.1","","99.35","","","","","","NA"
"-81.15","43.03","LONDON A","6144473","2019-04-29 06:00","2019","04","29","06:00","0.8","","-4.7","","67","","9","","16","","24.1","","99.41","","","","","","NA"
"-81.15","43.03","LONDON A","6144473","2019-04-29 07:00","2019","04","29","07:00","2.6","","-4.9","","58","","9","","26","","24.1","","99.36","","","","","","Cloudy"
"-81.15","43.03","LONDON A","6144473","2019-04-29 08:00","2019","04","29","08:00","3.7","","-4.3","","56","","11","","26","","24.1","","99.35","","","","","","NA"
"-81.15","43.03","LONDON A","6144473","2019-04-29 09:00","2019","04","29","09:00","5.3","","-3.6","","53","","10","","30","","24.1","","99.19","","","","","","NA"
"-81.15","43.03","LONDON A","6144473","2019-04-29 10:00","2019","04","29","10:00","5.6","","-3.7","","51","","9","","35","","24.1","","99.11","","","","","","Cloudy"
"-81.15","43.03","LONDON A","6144473","2019-04-29 11:00","2019","04","29","11:00","6.2","","-3.6","","50","","9","","34","","24.1","","99.09","","","","","","NA"
"-81.15","43.03","LONDON A","6144473","2019-04-29 12:00","2019","04","29","12:00","6.6","","-3.7","","48","","11","","23","","24.1","","99.19","","","","","","NA"
"-81.15","43.03","LONDON A","6144473","2019-04-29 13:00","2019","04","29","13:00","5.2","","-0.5","","66","","7","","29","","4.8","","98.96","","","","","","Rain Showers,Ice Pellet Showers"
"-81.15","43.03","LONDON A","6144473","2019-04-29 14:00","2019","04","29","14:00","5.7","","0.6","","70","","9","","34","","19.3","","98.83","","","","","","NA"
"-81.15","43.03","LONDON A","6144473","2019-04-29 15:00","2019","04","29","15:00","5.1","","0.3","","71","","9","","34","","19.3","","98.71","","","","","","NA"
"-81.15","43.03","LONDON A","6144473","2019-04-29 16:00","2019","04","29","16:00","5.2","","-0.6","","66","","8","","37","","19.3","","98.59","","","","","","Cloudy"
"-81.15","43.03","LONDON A","6144473","2019-04-29 17:00","2019","04","29","17:00","4.2","","1.2","","81","","8","","27","","9.7","","98.55","","","","","","Rain,Fog"
"-81.15","43.03","LONDON A","6144473","2019-04-29 18:00","2019","04","29","18:00","3.5","","1.2","","85","","8","","30","","9.7","","98.53","","","","","","Rain,Fog"
"-81.15","43.03","LONDON A","6144473","2019-04-29 19:00","2019","04","29","19:00","3.1","","1.1","","87","","7","","27","","16.1","","98.60","","","","","","Cloudy"
"-81.15","43.03","LONDON A","6144473","2019-04-29 20:00","2019","04","29","20:00","2.5","","0.6","","87","","7","","32","","12.9","","98.60","","","","","","Drizzle"
"-81.15","43.03","LONDON A","6144473","2019-04-29 21:00","2019","04","29","21:00","2.5","","1.6","","94","","7","","23","","9.7","","98.60","","","","","","Drizzle,Fog"
"-81.15","43.03","LONDON A","6144473","2019-04-29 22:00","2019","04","29","22:00","2.8","","2.1","","95","","7","","19","","12.9","","98.62","","","","","","Drizzle"
"-81.15","43.03","LONDON A","6144473","2019-04-29 23:00","2019","04","29","23:00","2.6","","2.0","","95","","6","","13","","12.9","","98.61","","","","","","Drizzle"
"-81.15","43.03","LONDON A","6144473","2019-04-30 00:00","2019","04","30","00:00","2.7","","2.0","","95","","7","","13","","9.7","","98.70","","","","","","Drizzle,Fog"
"-81.15","43.03","LONDON A","6144473","2019-04-30 01:00","2019","04","30","01:00","2.5","","2.1","","97","","3","","11","","6.4","","98.72","","","","","","Drizzle,Fog"
"-81.15","43.03","LONDON A","6144473","2019-04-30 02:00","2019","04","30","02:00","2.7","","2.3","","97","","34","","6","","3.2","","98.78","","","","","","Drizzle,Fog"
"-81.15","43.03","LONDON A","6144473","2019-04-30 03:00","2019","04","30","03:00","2.9","","2.5","","97","","34","","10","","2.4","","98.86","","","","","","Drizzle,Fog"
"-81.15","43.03","LONDON A","6144473","2019-04-30 04:00","2019","04","30","04:00","2.9","","2.6","","98","","36","","4","","8.1","","98.89","","","","","","Fog"
"-81.15","43.03","LONDON A","6144473","2019-04-30 05:00","2019","04","30","05:00","3.0","","2.7","","97","","36","","4","","12.9","","98.96","","","","","","NA"
"-81.15","43.03","LONDON A","6144473","2019-04-30 06:00","2019","04","30","06:00","3.2","","2.8","","98","","1","","6","","3.2","","99.05","","","","","","Drizzle,Fog"
"-81.15","43.03","LONDON A","6144473","2019-04-30 07:00","2019","04","30","07:00","3.6","","3.2","","97","","36","","5","","8.1","","99.18","","","","","","Fog"
"-81.15","43.03","LONDON A","6144473","2019-04-30 08:00","2019","04","30","08:00","4.0","","3.2","","95","","4","","3","","9.7","","99.22","","","","","","Fog"
"-81.15","43.03","LONDON A","6144473","2019-04-30 09:00","2019","04","30","09:00","4.7","","3.8","","94","","4","","7","","9.7","","99.27","","","","","","Fog"
"-81.15","43.03","LONDON A","6144473","2019-04-30 10:00","2019","04","30","10:00","5.9","","4.0","","87","","11","","4","","16.1","","99.32","","","","","","Cloudy"
"-81.15","43.03","LONDON A","6144473","2019-04-30 11:00","2019","04","30","11:00","7.7","","4.6","","81","","8","","8","","19.3","","99.39","","","","","","NA"
"-81.15","43.03","LONDON A","6144473","2019-04-30 12:00","2019","04","30","12:00","8.1","","4.5","","77","","10","","12","","19.3","","99.35","","","","","","NA"
"-81.15","43.03","LONDON A","6144473","2019-04-30 13:00","2019","04","30","13:00","8.8","","4.8","","76","","13","","7","","19.3","","99.36","","","","","","Cloudy"
"-81.15","43.03","LONDON A","6144473","2019-04-30 14:00","2019","04","30","14:00","8.8","","4.6","","75","","11","","12","","19.3","","99.37","","","","","","NA"
"-81.15","43.03","LONDON A","6144473","2019-04-30 15:00","2019","04","30","15:00","8.9","","4.9","","76","","9","","17","","24.1","","99.33","","","","","","NA"
"-81.15","43.03","LONDON A","6144473","2019-04-30 16:00","2019","04","30","16:00","8.2","","4.6","","78","","8","","18","","19.3","","99.39","","","","","","Cloudy"
"-81.15","43.03","LONDON A","6144473","2019-04-30 17:00","2019","04","30","17:00","8.0","","4.7","","79","","8","","27","","16.1","","99.22","","","","","","NA"
"-81.15","43.03","LONDON A","6144473","2019-04-30 18:00","2019","04","30","18:00","8.0","","4.3","","78","","6","","13","","19.3","","99.33","","","","","","NA"
"-81.15","43.03","LONDON A","6144473","2019-04-30 19:00","2019","04","30","19:00","7.8","","3.9","","76","","8","","15","","24.1","","99.36","","","","","","Cloudy"
"-81.15","43.03","LONDON A","6144473","2019-04-30 20:00","2019","04","30","20:00","7.3","","2.6","","72","","6","","19","","24.1","","99.34","","","","","","NA"
"-81.15","43.03","LONDON A","6144473","2019-04-30 21:00","2019","04","30","21:00","6.4","","3.1","","79","","8","","22","","16.1","","99.25","","","","","","Rain Showers"
"-81.15","43.03","LONDON A","6144473","2019-04-30 22:00","2019","04","30","22:00","5.6","","4.0","","89","","6","","10","","9.7","","99.42","","","","","","Moderate Rain Showers,Fog"
"-81.15","43.03","LONDON A","6144473","2019-04-30 23:00","2019","04","30","23:00","5.4","","4.0","","91","","10","","31","","24.1","","99.15","","","","","","Rain Showers"
